<?xml version="1.0" encoding="UTF-8"?>
<osm version="0.6" generator="Overpass API 0.7.56.8 7d656e78">
<note>The data included in this document is from www.openstreetmap.org. The data is made available under ODbL.</note>
<meta osm_base="2020-11-08T13:34:03Z"/>

  <node id="206269481" lat="40.8414338" lon="22.9238095" version="2" timestamp="2008-01-05T14:49:18Z" changeset="544487" uid="14235" user="AiNikolas">
    <tag k="amenity" v="fuel"/>
    <tag k="created_by" v="Potlatch 0.6a"/>
  </node>
  <node id="215634485" lat="40.7403665" lon="22.9853089" version="2" timestamp="2008-01-10T16:36:49Z" changeset="595134" uid="14235" user="AiNikolas">
    <tag k="amenity" v="fuel"/>
    <tag k="created_by" v="Potlatch 0.6a"/>
  </node>
  <node id="278616386" lat="41.8444431" lon="23.4835987" version="5" timestamp="2014-05-06T14:53:10Z" changeset="22168153" uid="8421" user="Константин Коцев">
    <tag k="amenity" v="fuel"/>
    <tag k="name" v="Петрол"/>
    <tag k="name:en" v="Petrol"/>
    <tag k="operator" v="Петрол АД"/>
    <tag k="wheelchair" v="limited"/>
  </node>
  <node id="289880006" lat="41.8799352" lon="23.4469833" version="4" timestamp="2014-04-24T20:15:20Z" changeset="21916670" uid="487261" user="pitagorid">
    <tag k="amenity" v="fuel"/>
    <tag k="name" v="LUK"/>
  </node>
  <node id="293324815" lat="42.3373885" lon="23.5524988" version="6" timestamp="2020-09-19T12:01:34Z" changeset="91148164" uid="11733502" user="mellathir">
    <tag k="amenity" v="fuel"/>
    <tag k="brand" v="Лукойл"/>
    <tag k="brand:wikidata" v="Q329347"/>
    <tag k="brand:wikipedia" v="ru:Лукойл"/>
    <tag k="name" v="Лукойл"/>
  </node>
  <node id="295172970" lat="41.1125166" lon="22.5554398" version="6" timestamp="2014-01-20T17:59:53Z" changeset="20107981" uid="1859873" user="eberhardt">
    <tag k="amenity" v="fuel"/>
    <tag k="brand" v="BP"/>
  </node>
  <node id="296123932" lat="40.8079577" lon="21.1286199" version="3" timestamp="2020-07-08T00:30:36Z" changeset="87678046" uid="4763179" user="ika-chan!">
    <tag k="amenity" v="fuel"/>
    <tag k="name" v="Elinoil"/>
  </node>
  <node id="316844540" lat="42.4663801" lon="21.4468865" version="6" timestamp="2017-10-01T21:17:08Z" changeset="52547640" uid="4933546" user="Lorikent !">
    <tag k="amenity" v="fuel"/>
    <tag k="fuel:diesel" v="yes"/>
    <tag k="name" v="Al Petrol"/>
  </node>
  <node id="360861932" lat="42.1003965" lon="21.0798146" version="2" timestamp="2011-01-24T08:35:07Z" changeset="7070556" uid="242896" user="Whitelion808">
    <tag k="amenity" v="fuel"/>
    <tag k="name" v="none"/>
  </node>
  <node id="360861972" lat="42.1021067" lon="21.0823202" version="1" timestamp="2009-03-15T19:53:20Z" changeset="814301" uid="7315" user="gluvce">
    <tag k="amenity" v="fuel"/>
    <tag k="name" v="none"/>
  </node>
  <node id="360863415" lat="42.1461251" lon="21.1221449" version="3" timestamp="2013-04-08T13:54:56Z" changeset="15654888" uid="131662" user="borces">
    <tag k="amenity" v="fuel"/>
    <tag k="int_name" v="Makpetrol"/>
    <tag k="name" v="Макпетрол"/>
    <tag k="name:en" v="Makpetrol"/>
  </node>
  <node id="364055426" lat="42.0099438" lon="21.3714984" version="6" timestamp="2014-10-10T17:42:10Z" changeset="25987698" uid="1836257" user="filipgd1">
    <tag k="amenity" v="fuel"/>
    <tag k="fuel:biodiesel" v="no"/>
    <tag k="fuel:lpg" v="yes"/>
    <tag k="fuel:octane_95" v="yes"/>
    <tag k="fuel:octane_98" v="yes"/>
    <tag k="name" v="Лукоил"/>
  </node>
  <node id="369776669" lat="41.9746802" lon="21.4542071" version="3" timestamp="2014-05-29T21:30:09Z" changeset="22628078" uid="2091263" user="shakce">
    <tag k="amenity" v="fuel"/>
    <tag k="name" v="Супертрејд"/>
  </node>
  <node id="373125597" lat="41.4444801" lon="22.0053060" version="4" timestamp="2013-04-08T15:40:44Z" changeset="15655987" uid="131662" user="borces">
    <tag k="amenity" v="fuel"/>
    <tag k="int_name" v="Makpetrol"/>
    <tag k="name" v="Макпетрол"/>
    <tag k="name:en" v="Makpetrol"/>
  </node>
  <node id="379742444" lat="41.4350263" lon="22.0036985" version="5" timestamp="2013-04-08T15:40:43Z" changeset="15655987" uid="131662" user="borces">
    <tag k="amenity" v="fuel"/>
    <tag k="int_name" v="Makpetrol"/>
    <tag k="name" v="Макпетрол"/>
    <tag k="name:en" v="Makpetrol"/>
  </node>
  <node id="380876388" lat="41.4435249" lon="22.0059941" version="5" timestamp="2013-04-08T15:40:44Z" changeset="15655987" uid="131662" user="borces">
    <tag k="amenity" v="fuel"/>
    <tag k="int_name" v="Crna Reka"/>
    <tag k="name" v="Црна Река"/>
    <tag k="name:en" v="Crna Reka"/>
  </node>
  <node id="386798338" lat="41.4832253" lon="22.0792997" version="2" timestamp="2009-08-30T18:13:23Z" changeset="2316399" uid="110560" user="Sasha Petrov">
    <tag k="amenity" v="fuel"/>
    <tag k="name" v="Jeddoil"/>
    <tag k="operator" v="Private"/>
  </node>
  <node id="386801764" lat="41.4988918" lon="22.0987911" version="4" timestamp="2013-04-08T09:46:01Z" changeset="15652276" uid="131662" user="borces">
    <tag k="amenity" v="fuel"/>
    <tag k="int_name" v="Makpetrol"/>
    <tag k="name" v="Макпетрол"/>
    <tag k="name:en" v="Makpetrol"/>
  </node>
  <node id="393722068" lat="41.3151304" lon="22.5571884" version="2" timestamp="2013-04-08T12:59:30Z" changeset="15654323" uid="131662" user="borces">
    <tag k="amenity" v="fuel"/>
    <tag k="int_name" v="Makpetrol"/>
    <tag k="name" v="Макпетрол"/>
    <tag k="name:en" v="Makpetrol"/>
  </node>
  <node id="420483029" lat="41.6848902" lon="21.8335262" version="4" timestamp="2013-04-05T14:12:47Z" changeset="15620580" uid="131662" user="borces">
    <tag k="amenity" v="fuel"/>
    <tag k="int_name" v="Makpetrol"/>
    <tag k="name" v="Макпетрол"/>
    <tag k="name:en" v="Makpetrol"/>
  </node>
  <node id="429687753" lat="41.0401275" lon="21.3474978" version="7" timestamp="2013-04-08T11:54:52Z" changeset="15653605" uid="131662" user="borces">
    <tag k="amenity" v="fuel"/>
    <tag k="fuel:diesel" v="yes"/>
    <tag k="fuel:octane_95" v="yes"/>
    <tag k="int_name" v="Makpetrol"/>
    <tag k="name" v="Макпетрол"/>
    <tag k="name:en" v="Makpetrol"/>
  </node>
  <node id="429695538" lat="41.0213268" lon="21.3202475" version="5" timestamp="2015-01-12T05:57:14Z" changeset="28079445" uid="29824" user="txtfile">
    <tag k="amenity" v="fuel"/>
    <tag k="fuel:diesel" v="yes"/>
    <tag k="fuel:lpg" v="yes"/>
    <tag k="fuel:octane_95" v="yes"/>
    <tag k="int_name" v="Makpetrol"/>
    <tag k="name" v="Макпетрол"/>
    <tag k="name:en" v="Makpetrol"/>
  </node>
  <node id="442567988" lat="41.9137908" lon="22.4118271" version="4" timestamp="2020-09-21T01:11:05Z" changeset="91191951" uid="11849964" user="Velibear">
    <tag k="amenity" v="fuel"/>
    <tag k="brand" v="Макпетрол"/>
    <tag k="brand:wikidata" v="Q1886438"/>
    <tag k="brand:wikipedia" v="en:Makpetrol"/>
    <tag k="int_name" v="Makpetrol"/>
    <tag k="name" v="Макпетрол"/>
    <tag k="name:en" v="Makpetrol"/>
  </node>
  <node id="442926556" lat="41.9044882" lon="22.4022535" version="6" timestamp="2020-09-23T13:31:01Z" changeset="91370771" uid="11849964" user="Velibear">
    <tag k="amenity" v="fuel"/>
    <tag k="brand" v="Макпетрол"/>
    <tag k="brand:wikidata" v="Q1886438"/>
    <tag k="brand:wikipedia" v="en:Makpetrol"/>
    <tag k="int_name" v="Makepetrol Kočani Zapad"/>
    <tag k="name" v="Макпетрол"/>
    <tag k="name:en" v="Makpetrol"/>
  </node>
  <node id="442926557" lat="41.9139729" lon="22.4279142" version="3" timestamp="2020-09-24T17:08:01Z" changeset="91455148" uid="11849964" user="Velibear">
    <tag k="amenity" v="fuel"/>
    <tag k="brand" v="Макпетрол"/>
    <tag k="brand:wikidata" v="Q1886438"/>
    <tag k="brand:wikipedia" v="en:Makpetrol"/>
    <tag k="int_name" v="Makpetrol"/>
    <tag k="name" v="Макпетрол"/>
    <tag k="name:en" v="Makpetrol"/>
  </node>
  <node id="442926573" lat="41.8325769" lon="22.2354096" version="4" timestamp="2015-03-19T20:25:26Z" changeset="29600475" uid="103253" user="gormur">
    <tag k="amenity" v="fuel"/>
    <tag k="int_name" v="Vago Petrol"/>
    <tag k="name" v="Ваго Петрол"/>
    <tag k="name:en" v="Vago Petrol"/>
  </node>
  <node id="458443509" lat="41.3961069" lon="23.1895924" version="3" timestamp="2019-05-06T18:17:11Z" changeset="69946965" uid="237594" user="ivanatora">
    <tag k="amenity" v="fuel"/>
    <tag k="operator" v="Lukoil"/>
  </node>
  <node id="462175891" lat="41.4470394" lon="22.6425700" version="3" timestamp="2015-03-19T20:25:26Z" changeset="29600475" uid="103253" user="gormur">
    <tag k="amenity" v="fuel"/>
    <tag k="int_name" v="Makpetrol"/>
    <tag k="name" v="Макпетрол"/>
    <tag k="name:en" v="Makpetrol"/>
  </node>
  <node id="464772763" lat="42.1535370" lon="21.7306025" version="5" timestamp="2014-09-30T01:24:03Z" changeset="25758766" uid="2037651" user="Francois555">
    <tag k="amenity" v="fuel"/>
    <tag k="int_name" v="Satelit 2000"/>
    <tag k="name" v="Сателит 2000"/>
    <tag k="name:en" v="Satelit 2000"/>
  </node>
  <node id="464772765" lat="42.1962775" lon="22.3209044" version="3" timestamp="2013-04-05T14:12:46Z" changeset="15620580" uid="131662" user="borces">
    <tag k="amenity" v="fuel"/>
    <tag k="name" v="Макпетрол"/>
    <tag k="name:en" v="Makpetrol"/>
    <tag k="opening_hours" v="Mo-Fr 08:30-22:00"/>
    <tag k="operator" v="Makpetrol"/>
  </node>
  <node id="472134907" lat="41.3990099" lon="23.2229862" version="1" timestamp="2009-08-21T21:09:48Z" changeset="2228207" uid="27370" user="skamp">
    <tag k="amenity" v="fuel"/>
    <tag k="operator" v="Lux"/>
  </node>
  <node id="473718332" lat="42.1999934" lon="22.3249713" version="3" timestamp="2013-04-05T14:12:46Z" changeset="15620580" uid="131662" user="borces">
    <tag k="amenity" v="fuel"/>
    <tag k="name" v="Макпетрол"/>
    <tag k="name:en" v="Makpetrol"/>
    <tag k="opening_hours" v="24/7"/>
    <tag k="operator" v="Makpetrol"/>
  </node>
  <node id="477689649" lat="41.4838189" lon="22.0805707" version="1" timestamp="2009-08-30T18:13:09Z" changeset="2316399" uid="110560" user="Sasha Petrov">
    <tag k="amenity" v="fuel"/>
    <tag k="name" v="Okta"/>
    <tag k="operator" v="Private"/>
  </node>
  <node id="488853494" lat="42.1704792" lon="22.1637549" version="1" timestamp="2009-09-07T23:58:05Z" changeset="2409006" uid="112604" user="Goran Cvetkovski">
    <tag k="amenity" v="fuel"/>
    <tag k="name" v="Krater"/>
    <tag k="opening_hours" v="24/7"/>
    <tag k="operator" v="Krater"/>
  </node>
  <node id="488854010" lat="42.2104539" lon="22.3437876" version="2" timestamp="2012-01-04T07:12:39Z" changeset="10288404" uid="242896" user="Whitelion808">
    <tag k="amenity" v="fuel"/>
    <tag k="name" v="Moderna"/>
    <tag k="name:mk" v="Модерна"/>
    <tag k="opening_hours" v="24/7"/>
    <tag k="operator" v="Moderna"/>
  </node>
  <node id="495555334" lat="41.1668745" lon="20.7340254" version="1" timestamp="2009-09-13T20:00:50Z" changeset="2474203" uid="127151" user="Blagadusha">
    <tag k="amenity" v="fuel"/>
    <tag k="name" v="7 Браќа"/>
  </node>
  <node id="504016147" lat="41.9996401" lon="21.5705814" version="3" timestamp="2013-04-05T11:08:55Z" changeset="15618448" uid="131662" user="borces">
    <tag k="amenity" v="fuel"/>
    <tag k="int_name" v="Makpetrol"/>
    <tag k="name" v="Макпетрол"/>
    <tag k="name:en" v="Makpetrol"/>
  </node>
  <node id="507757439" lat="41.9046365" lon="21.6559953" version="3" timestamp="2014-05-07T14:19:13Z" changeset="22188818" uid="131662" user="borces">
    <tag k="amenity" v="fuel"/>
    <tag k="int_name" v="Okta"/>
    <tag k="name" v="Окта"/>
    <tag k="name:en" v="Okta"/>
  </node>
  <node id="520146300" lat="42.4182619" lon="20.4256948" version="2" timestamp="2013-06-01T17:30:25Z" changeset="16380678" uid="135234" user="Arianit">
    <tag k="amenity" v="fuel"/>
    <tag k="name" v="Pali Com Petrol"/>
  </node>
  <node id="534923616" lat="41.3401667" lon="22.4452648" version="2" timestamp="2013-04-08T10:47:07Z" changeset="15652891" uid="131662" user="borces">
    <tag k="amenity" v="fuel"/>
    <tag k="int_name" v="Makpetrol"/>
    <tag k="name" v="Макпетрол"/>
    <tag k="name:en" v="Makpetrol"/>
    <tag k="operator" v="Makpetrol"/>
  </node>
  <node id="539511718" lat="42.5244650" lon="20.5617550" version="1" timestamp="2009-10-24T14:39:58Z" changeset="2936855" uid="135234" user="Arianit">
    <tag k="amenity" v="fuel"/>
    <tag k="name" v="Benita Petrol"/>
  </node>
  <node id="570694038" lat="41.1824048" lon="20.6760443" version="3" timestamp="2013-04-08T13:54:57Z" changeset="15654888" uid="131662" user="borces">
    <tag k="amenity" v="fuel"/>
    <tag k="int_name" v="Makpetrol"/>
    <tag k="name" v="Макпетрол"/>
    <tag k="name:en" v="Makpetrol"/>
  </node>
  <node id="577539479" lat="42.4329240" lon="23.8511627" version="3" timestamp="2017-11-20T17:52:04Z" changeset="53956136" uid="3058511" user="Ya-Ballu">
    <tag k="amenity" v="fuel"/>
    <tag k="name:en" v="Lukoil"/>
    <tag k="name:ru" v="Лукойл"/>
  </node>
  <node id="623365224" lat="42.3370696" lon="20.5789088" version="4" timestamp="2015-03-24T10:58:24Z" changeset="29700460" uid="523837" user="ValdrinGashi">
    <tag k="amenity" v="fuel"/>
    <tag k="building" v="yes"/>
    <tag k="name" v="D-Jupa"/>
  </node>
  <node id="648874835" lat="42.2161806" lon="20.7283179" version="2" timestamp="2013-03-09T22:11:53Z" changeset="15307824" uid="539656" user="kragon77">
    <tag k="amenity" v="fuel"/>
    <tag k="name" v="Kosova Petrol"/>
  </node>
  <node id="727761897" lat="41.2852833" lon="19.8564667" version="2" timestamp="2013-07-09T20:51:58Z" changeset="16892470" uid="539656" user="kragon77">
    <tag k="amenity" v="fuel"/>
    <tag k="operator" v="EuroDrin"/>
  </node>
  <node id="727761905" lat="41.2730032" lon="19.8454525" version="2" timestamp="2016-12-28T15:41:51Z" changeset="44734037" uid="4903516" user="Sidorela">
    <tag k="amenity" v="fuel"/>
    <tag k="name" v="Neri"/>
    <tag k="operator" v="Taci"/>
  </node>
  <node id="727761909" lat="41.2718320" lon="19.8433348" version="3" timestamp="2019-04-06T11:31:47Z" changeset="68949585" uid="340741" user="CRCulver">
    <tag k="amenity" v="fuel"/>
    <tag k="name" v="Start"/>
  </node>
  <node id="727765480" lat="41.2534103" lon="19.8916617" version="2" timestamp="2013-11-19T20:10:57Z" changeset="19001202" uid="1751908" user="Blues Brothers">
    <tag k="amenity" v="fuel"/>
    <tag k="operator" v="Kofler"/>
  </node>
  <node id="727765482" lat="41.2549976" lon="19.8876027" version="2" timestamp="2013-11-19T20:10:57Z" changeset="19001202" uid="1751908" user="Blues Brothers">
    <tag k="amenity" v="fuel"/>
    <tag k="operator" v="Taci"/>
  </node>
  <node id="727765487" lat="41.2350364" lon="19.9244842" version="1" timestamp="2010-05-09T20:13:23Z" changeset="4653693" uid="149824" user="LucaPescatore">
    <tag k="amenity" v="fuel"/>
    <tag k="fuel:diesel" v="yes"/>
    <tag k="fuel:octane_98" v="yes"/>
    <tag k="operator" v="Kastrati"/>
  </node>
  <node id="727765489" lat="41.2353913" lon="19.9183996" version="2" timestamp="2015-06-28T09:22:09Z" changeset="32258781" uid="1751908" user="Blues Brothers">
    <tag k="amenity" v="fuel"/>
    <tag k="fuel:diesel" v="yes"/>
    <tag k="fuel:octane_98" v="yes"/>
    <tag k="operator" v="Elda"/>
  </node>
  <node id="727765494" lat="41.2571157" lon="19.8838258" version="1" timestamp="2010-05-09T20:13:23Z" changeset="4653693" uid="149824" user="LucaPescatore">
    <tag k="amenity" v="fuel"/>
    <tag k="operator" v="EuroDrin"/>
  </node>
  <node id="729634668" lat="40.7077026" lon="20.7144439" version="1" timestamp="2010-05-11T11:15:02Z" changeset="4667532" uid="149824" user="LucaPescatore">
    <tag k="amenity" v="fuel"/>
    <tag k="operator" v="Alpet"/>
  </node>
  <node id="729704895" lat="41.1225085" lon="20.1090871" version="1" timestamp="2010-05-11T14:30:55Z" changeset="4669034" uid="149824" user="LucaPescatore">
    <tag k="amenity" v="fuel"/>
    <tag k="operator" v="Alpet"/>
  </node>
  <node id="729704901" lat="41.1049499" lon="20.0793261" version="1" timestamp="2010-05-11T14:30:56Z" changeset="4669034" uid="149824" user="LucaPescatore">
    <tag k="amenity" v="fuel"/>
    <tag k="operator" v="Eko"/>
  </node>
  <node id="729704917" lat="41.2191720" lon="19.9423255" version="2" timestamp="2017-12-30T16:01:33Z" changeset="55037965" uid="2496484" user="FERINA365">
    <tag k="amenity" v="fuel"/>
    <tag k="name" v="Mobil FilOil"/>
    <tag k="operator" v="Mobil"/>
  </node>
  <node id="729704929" lat="41.1312506" lon="20.1364435" version="2" timestamp="2016-12-02T19:15:51Z" changeset="44121728" uid="1279692" user="gjergjde">
    <tag k="amenity" v="fuel"/>
    <tag k="name" v="Labinoti Oil"/>
  </node>
  <node id="729704938" lat="41.1048767" lon="20.0801933" version="1" timestamp="2010-05-11T14:30:57Z" changeset="4669034" uid="149824" user="LucaPescatore">
    <tag k="amenity" v="fuel"/>
    <tag k="operator" v="Alpet"/>
  </node>
  <node id="729704940" lat="41.1037310" lon="20.0593071" version="1" timestamp="2010-05-11T14:30:57Z" changeset="4669034" uid="149824" user="LucaPescatore">
    <tag k="amenity" v="fuel"/>
    <tag k="operator" v="Elda"/>
  </node>
  <node id="729704953" lat="41.1000206" lon="20.4376738" version="2" timestamp="2016-09-09T20:23:35Z" changeset="42046396" uid="340741" user="CRCulver">
    <tag k="amenity" v="fuel"/>
    <tag k="internet_access" v="wlan"/>
    <tag k="operator" v="Elda"/>
  </node>
  <node id="848031396" lat="42.3246109" lon="22.7567465" version="2" timestamp="2011-04-10T14:01:56Z" changeset="7823175" uid="8421" user="Константин Коцев">
    <tag k="amenity" v="fuel"/>
    <tag k="fuel:lpg" v="yes"/>
  </node>
  <node id="889071682" lat="41.0830492" lon="21.0230743" version="3" timestamp="2013-04-08T13:54:57Z" changeset="15654888" uid="131662" user="borces">
    <tag k="amenity" v="fuel"/>
    <tag k="fuel:diesel" v="yes"/>
    <tag k="fuel:octane_95" v="yes"/>
    <tag k="fuel:octane_98" v="yes"/>
    <tag k="int_name" v="Makpetrol"/>
    <tag k="name" v="Макпетрол"/>
    <tag k="name:en" v="Makpetrol"/>
    <tag k="opening_hours" v="24/7"/>
    <tag k="shop" v="kiosk"/>
  </node>
  <node id="889071691" lat="41.0977968" lon="21.0117196" version="2" timestamp="2013-04-08T13:54:56Z" changeset="15654888" uid="131662" user="borces">
    <tag k="amenity" v="fuel"/>
    <tag k="fuel:biodiesel" v="no"/>
    <tag k="fuel:diesel" v="yes"/>
    <tag k="fuel:octane_95" v="yes"/>
    <tag k="fuel:octane_98" v="yes"/>
    <tag k="int_name" v="Makpetrol"/>
    <tag k="name" v="Макпетрол"/>
    <tag k="name:en" v="Makpetrol"/>
    <tag k="shop" v="kiosk"/>
  </node>
  <node id="970476880" lat="40.9689465" lon="22.6191330" version="4" timestamp="2014-11-29T18:18:49Z" changeset="27117345" uid="1401244" user="RandomGreekTracker">
    <tag k="amenity" v="fuel"/>
    <tag k="brand" v="EKO"/>
    <tag k="name" v="ΕΚΟ"/>
  </node>
  <node id="1013831310" lat="42.3747311" lon="21.7146013" version="5" timestamp="2017-11-29T09:35:05Z" changeset="54171862" uid="4610678" user="Ferati Lendrit">
    <tag k="amenity" v="fuel"/>
    <tag k="name" v="Rainca Petrol"/>
  </node>
  <node id="1016826246" lat="42.3020922" lon="21.6696385" version="5" timestamp="2012-01-01T09:07:23Z" changeset="10259713" uid="78656" user="Walter Schlögl">
    <tag k="amenity" v="fuel"/>
    <tag k="fuel:diesel" v="yes"/>
    <tag k="fuel:octane_95" v="yes"/>
    <tag k="fuel:octane_98" v="yes"/>
    <tag k="name" v="NEW Petrol"/>
  </node>
  <node id="1016827939" lat="42.3057694" lon="21.6526753" version="6" timestamp="2012-05-19T22:10:49Z" changeset="11646906" uid="441816" user="kmilos">
    <tag k="amenity" v="fuel"/>
    <tag k="ethanol" v="no"/>
    <tag k="fuel:biodiesel" v="no"/>
    <tag k="fuel:diesel" v="yes"/>
    <tag k="fuel:octane_100" v="no"/>
    <tag k="fuel:octane_95" v="yes"/>
    <tag k="fuel:octane_98" v="yes"/>
    <tag k="name" v="ЈУ Петрол Прешево"/>
    <tag k="name:sr" v="ЈУ Петрол Прешево"/>
    <tag k="name:sr-Latn" v="JU Petrol Preševo"/>
  </node>
  <node id="1018500469" lat="42.4538829" lon="21.7696036" version="7" timestamp="2019-08-30T11:37:15Z" changeset="73918021" uid="500313" user="Pedja">
    <tag k="amenity" v="fuel"/>
    <tag k="name" v="ЈУ петрол"/>
  </node>
  <node id="1019114009" lat="40.8430625" lon="21.5019712" version="3" timestamp="2020-07-08T00:30:36Z" changeset="87678046" uid="4763179" user="ika-chan!">
    <tag k="addr:country" v="GR"/>
    <tag k="addr:place" v="Παππαγιάννης"/>
    <tag k="amenity" v="fuel"/>
  </node>
  <node id="1019512400" lat="40.8186135" lon="21.5408665" version="3" timestamp="2020-07-08T00:30:36Z" changeset="87678046" uid="4763179" user="ika-chan!">
    <tag k="addr:country" v="GR"/>
    <tag k="addr:place" v="Νεοχωράκι"/>
    <tag k="amenity" v="fuel"/>
  </node>
  <node id="1021547384" lat="41.0371043" lon="21.3478549" version="8" timestamp="2013-04-09T13:12:46Z" changeset="15666041" uid="131662" user="borces">
    <tag k="amenity" v="fuel"/>
    <tag k="int_name" v="Okta"/>
    <tag k="name" v="Окта"/>
    <tag k="name:en" v="Okta"/>
  </node>
  <node id="1054731571" lat="42.4612568" lon="21.7664940" version="3" timestamp="2019-08-30T11:41:46Z" changeset="73918249" uid="500313" user="Pedja">
    <tag k="amenity" v="fuel"/>
    <tag k="name" v="ЈУ петрол"/>
    <tag k="operator" v="Yu Petrol"/>
  </node>
  <node id="1055530081" lat="42.4538730" lon="21.7628764" version="1" timestamp="2010-12-21T22:52:21Z" changeset="6730755" uid="377239" user="Ferati11">
    <tag k="amenity" v="fuel"/>
    <tag k="name" v="Pompa Agimi"/>
  </node>
  <node id="1057238225" lat="42.4233129" lon="21.7391698" version="3" timestamp="2018-01-20T03:19:58Z" changeset="55594032" uid="5853411" user="j1scad">
    <tag k="amenity" v="fuel"/>
    <tag k="name" v="Valoni Petrol"/>
    <tag k="name:tr" v="Tuvalet tesis"/>
  </node>
  <node id="1057238230" lat="42.4156129" lon="21.7355343" version="2" timestamp="2018-09-25T16:50:02Z" changeset="62920070" uid="5853411" user="j1scad">
    <tag k="amenity" v="fuel"/>
    <tag k="name" v="Valoni Petrol"/>
  </node>
  <node id="1089516865" lat="42.3835184" lon="21.1672688" version="6" timestamp="2020-02-14T03:35:15Z" changeset="80983753" uid="9451067" user="b-jazz-bot">
    <tag k="addr:postcode" v="70000"/>
    <tag k="amenity" v="fuel"/>
    <tag k="brand" v="HIB Petrol"/>
    <tag k="email" v="info@hibpetrol.com"/>
    <tag k="internet_access" v="wlan"/>
    <tag k="name" v="HIB Petrol"/>
    <tag k="opening_hours" v="24/7"/>
    <tag k="operator" v="HIB Petrol"/>
    <tag k="phone" v="+383 38 777 777"/>
    <tag k="website" v="https://hibpetrol.com/"/>
  </node>
  <node id="1191212774" lat="42.3613265" lon="20.8296960" version="3" timestamp="2018-07-10T05:58:17Z" changeset="60560199" uid="5914053" user="Edon Hoxhaj">
    <tag k="amenity" v="fuel"/>
    <tag k="name" v="Kosova Petrol"/>
  </node>
  <node id="1272902515" lat="41.8867532" lon="22.4995901" version="3" timestamp="2019-03-23T22:35:53Z" changeset="68456985" uid="9545352" user="RUS_SCN">
    <tag k="amenity" v="fuel"/>
    <tag k="int_name" v="Makpetrol"/>
    <tag k="name" v="Макпетрол"/>
    <tag k="name:en" v="Makpetrol"/>
  </node>
  <node id="1272903077" lat="41.8877206" lon="22.5101443" version="1" timestamp="2011-05-05T09:05:16Z" changeset="8055380" uid="449675" user="T-55">
    <tag k="amenity" v="fuel"/>
    <tag k="name" v="Dadi Kompani"/>
  </node>
  <node id="1318425238" lat="40.8594364" lon="21.4906109" version="2" timestamp="2011-06-13T06:07:33Z" changeset="8422115" uid="465543" user="klainer_pan">
    <tag k="amenity" v="fuel"/>
    <tag k="name" v="Βενζινάδικο Μήτσου"/>
  </node>
  <node id="1331092539" lat="40.7250987" lon="22.6072361" version="2" timestamp="2011-06-19T17:34:10Z" changeset="8486733" uid="105178" user="gabri3l">
    <tag k="amenity" v="fuel"/>
    <tag k="brand" v="BP"/>
    <tag k="fuel:diesel" v="no"/>
    <tag k="name" v="BP Tsalonis"/>
    <tag k="shop" v="yes"/>
  </node>
  <node id="1348214985" lat="42.0790221" lon="23.0395480" version="3" timestamp="2017-05-11T06:45:56Z" changeset="48581749" uid="4467412" user="Peter Bahchevanov">
    <tag k="amenity" v="fuel"/>
    <tag k="brand" v="Petrol"/>
    <tag k="fuel:diesel" v="yes"/>
    <tag k="fuel:lpg" v="yes"/>
    <tag k="fuel:octane_95" v="yes"/>
    <tag k="name" v="Петрол"/>
    <tag k="name:en" v="Petrol"/>
    <tag k="operator" v="Петрол АД"/>
  </node>
  <node id="1348214986" lat="41.8511980" lon="23.4810657" version="3" timestamp="2017-06-26T19:09:42Z" changeset="49844093" uid="49417" user="mgrozdanov">
    <tag k="amenity" v="fuel"/>
    <tag k="brand" v="OMV"/>
    <tag k="name" v="Газпром"/>
    <tag k="name:en" v="Gazprom"/>
    <tag k="operator" v="Газпром"/>
  </node>
  <node id="1348214988" lat="42.2069368" lon="23.0688590" version="2" timestamp="2011-07-03T17:47:36Z" changeset="8621682" uid="8421" user="Константин Коцев">
    <tag k="amenity" v="fuel"/>
    <tag k="brand" v="Petrol"/>
    <tag k="name" v="Петрол"/>
    <tag k="name:en" v="Petrol"/>
    <tag k="operator" v="Петрол АД"/>
  </node>
  <node id="1348214993" lat="42.4494873" lon="23.1186582" version="3" timestamp="2018-05-01T07:08:20Z" changeset="58576485" uid="4830081" user="Asensancho">
    <tag k="amenity" v="fuel"/>
    <tag k="brand" v="Petrol"/>
    <tag k="name" v="Петрол"/>
    <tag k="name:en" v="Petrol"/>
    <tag k="operator" v="Петрол АД"/>
  </node>
  <node id="1357097237" lat="42.0244681" lon="21.3507382" version="2" timestamp="2013-06-04T14:33:40Z" changeset="16420366" uid="131662" user="borces">
    <tag k="amenity" v="fuel"/>
    <tag k="int_name" v="Makpetrol"/>
    <tag k="name" v="Макпетрол"/>
    <tag k="name:en" v="Makpetrol"/>
  </node>
  <node id="1366997792" lat="41.3694156" lon="19.7680791" version="5" timestamp="2020-08-08T19:36:03Z" changeset="89137221" uid="10510546" user="Senor Montreal">
    <tag k="amenity" v="fuel"/>
    <tag k="name" v="Kastrati"/>
  </node>
  <node id="1381708720" lat="42.0177183" lon="21.4304245" version="4" timestamp="2015-05-03T12:28:26Z" changeset="30746460" uid="1468248" user="TheBlackMan">
    <tag k="addr:city" v="Cкoпje"/>
    <tag k="addr:country" v="MK"/>
    <tag k="addr:postcode" v="1000"/>
    <tag k="amenity" v="fuel"/>
    <tag k="brand" v="Макпетрол"/>
    <tag k="fuel:biodiesel" v="yes"/>
    <tag k="fuel:diesel" v="yes"/>
    <tag k="fuel:octane_95" v="yes"/>
    <tag k="fuel:octane_98" v="yes"/>
    <tag k="int_name" v="Makpetrol"/>
    <tag k="name" v="Макпетрол"/>
    <tag k="name:en" v="Makpetrol"/>
    <tag k="opening_hours" v="24/7"/>
    <tag k="operator" v="Makpetrol"/>
    <tag k="payment:coins" v="yes"/>
    <tag k="payment:diners_club" v="yes"/>
    <tag k="payment:mastercard" v="yes"/>
    <tag k="payment:notes" v="yes"/>
    <tag k="payment:visa" v="yes"/>
    <tag k="website" v="http://makpetrol.mk"/>
  </node>
  <node id="1395879962" lat="40.7064534" lon="23.0395423" version="2" timestamp="2013-03-18T22:25:11Z" changeset="15414218" uid="16821" user="geraki (Konstantinos Stampoulis)">
    <tag k="amenity" v="fuel"/>
    <tag k="operator" v="Revoil"/>
  </node>
  <node id="1424432021" lat="41.1134534" lon="22.5568232" version="5" timestamp="2016-05-22T20:36:59Z" changeset="39495883" uid="103001" user="Alexandr-cfif">
    <tag k="amenity" v="fuel"/>
    <tag k="brand" v="DKV...BP"/>
    <tag k="name" v="BP"/>
    <tag k="wheelchair" v="no"/>
  </node>
  <node id="1424432067" lat="42.0773617" lon="21.7001437" version="3" timestamp="2013-04-05T11:36:05Z" changeset="15618759" uid="131662" user="borces">
    <tag k="amenity" v="fuel"/>
    <tag k="int_name" v="Makpetrol"/>
    <tag k="name" v="Макпетрол"/>
    <tag k="name:en" v="Makpetrol"/>
  </node>
  <node id="1424432082" lat="42.1057063" lon="21.6996066" version="3" timestamp="2019-07-03T16:55:25Z" changeset="71868027" uid="344903" user="Toyota_79">
    <tag k="amenity" v="fuel"/>
    <tag k="brand" v="Shell"/>
    <tag k="name" v="Shell"/>
  </node>
  <node id="1424432087" lat="42.1740192" lon="21.7085282" version="5" timestamp="2015-10-08T15:31:02Z" changeset="34511677" uid="131662" user="borces">
    <tag k="amenity" v="fuel"/>
    <tag k="name" v="Детоил"/>
    <tag k="name:en" v="Detoil"/>
  </node>
  <node id="1424432093" lat="42.1778758" lon="21.7079220" version="3" timestamp="2013-08-01T00:30:52Z" changeset="17173477" uid="131662" user="borces">
    <tag k="amenity" v="fuel"/>
    <tag k="brand" v="Shell"/>
  </node>
  <node id="1425864118" lat="41.5468817" lon="23.2702747" version="6" timestamp="2017-08-26T21:15:36Z" changeset="51468715" uid="6066236" user="kep0p">
    <tag k="amenity" v="fuel"/>
    <tag k="name" v="OMV"/>
    <tag k="opening_hours" v="24/7"/>
    <tag k="operator" v="OMV"/>
    <tag k="wheelchair" v="no"/>
  </node>
  <node id="1425864120" lat="42.2811087" lon="23.1414310" version="2" timestamp="2016-12-29T15:01:48Z" changeset="44759635" uid="4830081" user="Asensancho">
    <tag k="amenity" v="fuel"/>
    <tag k="name" v="Lukoil"/>
    <tag k="operator" v="Lukoil"/>
  </node>
  <node id="1655754563" lat="41.0458796" lon="21.2895872" version="2" timestamp="2013-04-04T14:38:51Z" changeset="15608458" uid="131662" user="borces">
    <tag k="amenity" v="fuel"/>
    <tag k="fuel:diesel" v="yes"/>
    <tag k="fuel:lpg" v="yes"/>
    <tag k="fuel:octane_95" v="yes"/>
    <tag k="fuel:octane_98" v="yes"/>
    <tag k="int_name" v="Lukoil"/>
    <tag k="name" v="Лукоил"/>
    <tag k="name:en" v="Lukoil"/>
  </node>
  <node id="1665587765" lat="42.2066705" lon="20.7212045" version="4" timestamp="2019-09-03T01:01:25Z" changeset="74016559" uid="9008001" user="GazEddyr">
    <tag k="amenity" v="fuel"/>
    <tag k="brand" v="Fuel Station"/>
    <tag k="name" v="Fatoni Petrol"/>
    <tag k="name:sq" v="Pompë e karbirantit"/>
  </node>
  <node id="1709346851" lat="40.9845655" lon="22.8647558" version="4" timestamp="2019-03-22T19:38:35Z" changeset="68425053" uid="2545608" user="hariskar">
    <tag k="amenity" v="fuel"/>
    <tag k="name" v="ΕΤΕΚΑ"/>
    <tag k="name:el" v="ΕΤΕΚΑ"/>
  </node>
  <node id="1709727153" lat="40.7950005" lon="21.4379382" version="2" timestamp="2019-01-09T12:18:17Z" changeset="66160015" uid="2269901" user="guzzonord">
    <tag k="amenity" v="fuel"/>
    <tag k="fuel:cng" v="no"/>
    <tag k="fuel:diesel" v="yes"/>
    <tag k="fuel:lpg" v="yes"/>
    <tag k="fuel:octane_100" v="yes"/>
    <tag k="fuel:octane_95" v="yes"/>
    <tag k="name" v="Ελίν"/>
  </node>
  <node id="1710036935" lat="41.7219256" lon="21.7876414" version="2" timestamp="2013-04-04T14:38:51Z" changeset="15608458" uid="131662" user="borces">
    <tag k="amenity" v="fuel"/>
    <tag k="int_name" v="Lukoil"/>
    <tag k="name" v="Лукоил"/>
    <tag k="name:en" v="Lukoil"/>
  </node>
  <node id="1710036940" lat="41.7235039" lon="21.7870314" version="4" timestamp="2017-08-01T14:59:23Z" changeset="50755545" uid="344903" user="Toyota_79">
    <tag k="amenity" v="fuel"/>
    <tag k="int_name" v="Makpetrol"/>
    <tag k="name" v="Макпетрол"/>
    <tag k="name:en" v="Makpetrol"/>
  </node>
  <node id="1710583181" lat="41.7174030" lon="21.7628783" version="1" timestamp="2012-04-10T21:03:22Z" changeset="11257682" uid="655160" user="angelce dinev">
    <tag k="amenity" v="fuel"/>
    <tag k="name" v="Брако Петрол"/>
  </node>
  <node id="1732545850" lat="40.9299456" lon="22.8475204" version="2" timestamp="2012-05-23T21:05:13Z" changeset="11684845" uid="648855" user="_ptr">
    <tag k="amenity" v="fuel"/>
    <tag k="fuel:lpg" v="yes"/>
  </node>
  <node id="1741242530" lat="40.7639373" lon="22.5769232" version="4" timestamp="2018-10-15T13:16:32Z" changeset="63542134" uid="1401244" user="RandomGreekTracker">
    <tag k="amenity" v="fuel"/>
    <tag k="fuel:diesel" v="yes"/>
    <tag k="fuel:gasoline" v="yes"/>
    <tag k="fuel:lpg" v="yes"/>
    <tag k="name" v="Aegean"/>
  </node>
  <node id="1741501825" lat="40.8593056" lon="22.5838771" version="2" timestamp="2018-10-15T13:16:32Z" changeset="63542134" uid="1401244" user="RandomGreekTracker">
    <tag k="amenity" v="fuel"/>
    <tag k="name" v="Abandoned"/>
  </node>
  <node id="1741501847" lat="40.8356556" lon="22.5899911" version="2" timestamp="2018-10-15T13:16:32Z" changeset="63542134" uid="1401244" user="RandomGreekTracker">
    <tag k="amenity" v="fuel"/>
    <tag k="name" v="KMoil"/>
  </node>
  <node id="1751092122" lat="40.9695297" lon="22.6205277" version="3" timestamp="2014-11-29T18:18:48Z" changeset="27117345" uid="1401244" user="RandomGreekTracker">
    <tag k="amenity" v="fuel"/>
    <tag k="brand" v="EKO"/>
    <tag k="name" v="ΕΚΟ"/>
  </node>
  <node id="1754577844" lat="40.8965276" lon="22.5612346" version="2" timestamp="2018-10-15T13:16:32Z" changeset="63542134" uid="1401244" user="RandomGreekTracker">
    <tag k="amenity" v="fuel"/>
    <tag k="fuel:lpg" v="yes"/>
    <tag k="name" v="revoil"/>
  </node>
  <node id="1758295665" lat="40.6735957" lon="22.8050603" version="2" timestamp="2012-05-19T12:05:23Z" changeset="11641823" uid="684930" user="aivach">
    <tag k="amenity" v="fuel"/>
    <tag k="name" v="KAOIL"/>
  </node>
  <node id="1764789734" lat="40.6838111" lon="22.9411912" version="2" timestamp="2014-07-27T21:02:15Z" changeset="24391902" uid="1401244" user="RandomGreekTracker">
    <tag k="amenity" v="fuel"/>
    <tag k="name" v="Shell"/>
  </node>
  <node id="1790711183" lat="41.4150648" lon="22.8760731" version="2" timestamp="2013-04-08T11:54:54Z" changeset="15653605" uid="131662" user="borces">
    <tag k="amenity" v="fuel"/>
    <tag k="int_name" v="Makpetrol"/>
    <tag k="name" v="Макпетрол"/>
    <tag k="name:en" v="Makpetrol"/>
  </node>
  <node id="1791481240" lat="41.4395156" lon="22.6547526" version="4" timestamp="2014-01-14T21:55:22Z" changeset="20001837" uid="1483295" user="stojkovmarjan">
    <tag k="amenity" v="fuel"/>
    <tag k="fuel:diesel" v="yes"/>
    <tag k="fuel:lpg" v="yes"/>
    <tag k="fuel:octane_100" v="yes"/>
    <tag k="fuel:octane_95" v="yes"/>
    <tag k="int_name" v="Makpetrol"/>
    <tag k="name" v="Макпетрол"/>
    <tag k="name:en" v="Makpetrol"/>
  </node>
  <node id="1791481243" lat="41.4392709" lon="22.6508055" version="3" timestamp="2015-10-11T23:47:29Z" changeset="34580211" uid="131662" user="borces">
    <tag k="amenity" v="fuel"/>
    <tag k="name" v="МаријаТрејд"/>
    <tag k="name:en" v="MarijaTrejd"/>
  </node>
  <node id="1791481252" lat="41.4404814" lon="22.6659707" version="2" timestamp="2013-04-04T14:53:12Z" changeset="15608771" uid="131662" user="borces">
    <tag k="amenity" v="fuel"/>
    <tag k="int_name" v="Lukoil"/>
    <tag k="name" v="Лукоил"/>
    <tag k="name:en" v="Lukoil"/>
  </node>
  <node id="1791481255" lat="41.4120197" lon="22.7304000" version="2" timestamp="2013-04-08T12:59:30Z" changeset="15654323" uid="131662" user="borces">
    <tag k="amenity" v="fuel"/>
    <tag k="int_name" v="Makpetrol"/>
    <tag k="name" v="Макпетрол"/>
    <tag k="name:en" v="Makpetrol"/>
  </node>
  <node id="1791481262" lat="41.4404486" lon="22.7050143" version="2" timestamp="2015-10-11T22:47:20Z" changeset="34579338" uid="131662" user="borces">
    <tag k="amenity" v="fuel"/>
    <tag k="name" v="Национал"/>
    <tag k="name:en" v="Nacional"/>
  </node>
  <node id="1791481263" lat="41.4399258" lon="22.6542913" version="5" timestamp="2014-01-14T21:55:22Z" changeset="20001837" uid="1483295" user="stojkovmarjan">
    <tag k="amenity" v="fuel"/>
    <tag k="fuel:diesel" v="yes"/>
    <tag k="fuel:octane_95" v="yes"/>
    <tag k="int_name" v="Makpetrol"/>
    <tag k="name" v="Макпетрол"/>
    <tag k="name:en" v="Makpetrol"/>
  </node>
  <node id="1791598059" lat="41.2237281" lon="22.7007524" version="2" timestamp="2013-04-08T11:54:53Z" changeset="15653605" uid="131662" user="borces">
    <tag k="amenity" v="fuel"/>
    <tag k="int_name" v="Makpetrol"/>
    <tag k="name" v="Макпетрол"/>
    <tag k="name:en" v="Makpetrol"/>
  </node>
  <node id="1809820473" lat="42.0966939" lon="20.4758279" version="2" timestamp="2019-04-04T15:31:14Z" changeset="68887354" uid="3117866" user="timwenzel98">
    <tag k="amenity" v="fuel"/>
    <tag k="name" v="eida"/>
  </node>
  <node id="1819364810" lat="41.6327131" lon="19.9352092" version="2" timestamp="2013-07-09T20:21:05Z" changeset="16891816" uid="539656" user="kragon77">
    <tag k="amenity" v="fuel"/>
    <tag k="name" v="Ceka Petrol"/>
  </node>
  <node id="1819463487" lat="41.5649120" lon="19.6732453" version="2" timestamp="2017-08-16T08:34:46Z" changeset="51162835" uid="1751908" user="Blues Brothers">
    <tag k="amenity" v="fuel"/>
    <tag k="name" v="Reci Oil"/>
  </node>
  <node id="1819463491" lat="41.7045092" lon="19.7738915" version="2" timestamp="2017-08-10T11:11:06Z" changeset="50998216" uid="1751908" user="Blues Brothers">
    <tag k="amenity" v="fuel"/>
    <tag k="name" v="Taci Oil"/>
  </node>
  <node id="1824803195" lat="42.1961159" lon="20.6608956" version="3" timestamp="2019-03-06T15:49:52Z" changeset="67849487" uid="3377021" user="Marc Konjuhi">
    <tag k="addr:postcode" v="20520"/>
    <tag k="addr:street" v="Vlashnje"/>
    <tag k="amenity" v="fuel"/>
    <tag k="internet_access" v="wlan"/>
    <tag k="opening_hours" v="24/7"/>
    <tag k="operator" v="Garip Susuri"/>
    <tag k="phone" v="+38344148141"/>
  </node>
  <node id="1837853230" lat="41.6470673" lon="23.1956202" version="2" timestamp="2017-11-21T13:09:07Z" changeset="53975469" uid="6240911" user="MHacks">
    <tag k="amenity" v="fuel"/>
    <tag k="name:en" v="Petrogas"/>
  </node>
  <node id="1837853231" lat="41.7102598" lon="23.1724134" version="3" timestamp="2020-04-22T21:01:47Z" changeset="83961945" uid="150201" user="plamen">
    <tag k="amenity" v="fuel"/>
    <tag k="fuel:diesel" v="yes"/>
    <tag k="fuel:octane_95" v="yes"/>
    <tag k="fuel:octane_98" v="yes"/>
    <tag k="name" v="Eko"/>
  </node>
  <node id="1839285400" lat="41.9043533" lon="21.6544066" version="2" timestamp="2013-04-04T13:29:48Z" changeset="15607848" uid="131662" user="borces">
    <tag k="amenity" v="fuel"/>
    <tag k="int_name" v="Okta"/>
    <tag k="name" v="Окта"/>
    <tag k="name:en" v="Okta"/>
  </node>
  <node id="1850351707" lat="42.0527787" lon="21.4502851" version="2" timestamp="2012-08-03T20:25:21Z" changeset="12602722" uid="686141" user="dekowow">
    <tag k="amenity" v="fuel"/>
    <tag k="name" v="Евро Оил"/>
  </node>
  <node id="1850422160" lat="42.0549098" lon="21.4512288" version="2" timestamp="2012-08-03T20:25:21Z" changeset="12602722" uid="686141" user="dekowow">
    <tag k="amenity" v="fuel"/>
    <tag k="name" v="Окта"/>
  </node>
  <node id="1853468139" lat="41.7999365" lon="22.0040349" version="2" timestamp="2013-04-08T15:40:44Z" changeset="15655987" uid="131662" user="borces">
    <tag k="amenity" v="fuel"/>
    <tag k="int_name" v="Okta"/>
    <tag k="name" v="Окта"/>
    <tag k="name:en" v="Оkta"/>
  </node>
  <node id="1879421233" lat="42.1719716" lon="21.8132634" version="1" timestamp="2012-08-23T14:41:41Z" changeset="12833784" uid="131662" user="borces">
    <tag k="amenity" v="fuel"/>
    <tag k="name" v="Мак Оил - Ново Нагоричане"/>
  </node>
  <node id="1930814584" lat="40.6903055" lon="22.8598934" version="3" timestamp="2018-10-18T11:24:46Z" changeset="63640882" uid="6188741" user="down1ree">
    <tag k="amenity" v="fuel"/>
    <tag k="brand" v="Shell"/>
    <tag k="fuel:GTL_diesel" v="yes"/>
    <tag k="fuel:diesel" v="no"/>
    <tag k="fuel:lpg" v="no"/>
    <tag k="fuel:octane_100" v="yes"/>
    <tag k="fuel:octane_95" v="yes"/>
    <tag k="fuel:octane_98" v="yes"/>
    <tag k="maxheight" v="3.5"/>
    <tag k="operator" v="ΕΡΜΗΣ ΑΕΜΕΕ"/>
    <tag k="self_service" v="no"/>
  </node>
  <node id="1964836848" lat="40.8122536" lon="23.3115335" version="1" timestamp="2012-10-14T15:20:19Z" changeset="13494142" uid="16821" user="geraki (Konstantinos Stampoulis)">
    <tag k="amenity" v="fuel"/>
    <tag k="source" v="survey"/>
  </node>
  <node id="1964837152" lat="40.8141889" lon="23.3460921" version="2" timestamp="2020-07-22T14:27:47Z" changeset="88354651" uid="11526766" user="greek0000">
    <tag k="addr:street" v="Λαγκαδά - Σοχού"/>
    <tag k="amenity" v="fuel"/>
    <tag k="name" v="SilkOil"/>
    <tag k="source" v="survey"/>
  </node>
  <node id="1965839700" lat="41.5163603" lon="22.6151022" version="3" timestamp="2015-10-13T13:53:53Z" changeset="34612189" uid="131662" user="borces">
    <tag k="amenity" v="fuel"/>
    <tag k="int_name" v="BenzOil"/>
    <tag k="name" v="БензОил"/>
    <tag k="name:en" v="BenzOil"/>
    <tag k="operator" v="Јавор Шпед"/>
  </node>
  <node id="1972176738" lat="41.0465729" lon="21.0087805" version="2" timestamp="2012-10-18T17:20:00Z" changeset="13546681" uid="987103" user="The Gunner">
    <tag k="amenity" v="fuel"/>
    <tag k="fuel:biodiesel" v="yes"/>
    <tag k="fuel:diesel" v="yes"/>
    <tag k="fuel:lpg" v="yes"/>
    <tag k="fuel:octane_95" v="yes"/>
    <tag k="fuel:octane_98" v="yes"/>
    <tag k="name" v="АЕ Petrol"/>
    <tag k="operator" v="АЕ Петрол"/>
  </node>
  <node id="1974291428" lat="41.9938542" lon="21.0274423" version="5" timestamp="2016-11-12T10:24:04Z" changeset="43578234" uid="1025148" user="СМРТ ЗА ШИПТАРИ">
    <tag k="amenity" v="fuel"/>
    <tag k="int_name" v="Lukoil"/>
    <tag k="name" v="Лукоил"/>
    <tag k="name:en" v="Lukoil"/>
  </node>
  <node id="1985568776" lat="40.7691723" lon="22.5773786" version="2" timestamp="2018-09-20T12:09:46Z" changeset="62760711" uid="1401244" user="RandomGreekTracker">
    <tag k="amenity" v="fuel"/>
    <tag k="name" v="Ελίν"/>
  </node>
  <node id="1985568814" lat="40.8218199" lon="22.5916278" version="2" timestamp="2018-10-15T13:16:32Z" changeset="63542134" uid="1401244" user="RandomGreekTracker">
    <tag k="amenity" v="fuel"/>
    <tag k="name" v="AVIN"/>
  </node>
  <node id="1985568820" lat="40.7966816" lon="22.5801987" version="2" timestamp="2018-10-15T13:16:32Z" changeset="63542134" uid="1401244" user="RandomGreekTracker">
    <tag k="amenity" v="fuel"/>
    <tag k="fuel:diesel" v="yes"/>
    <tag k="fuel:gasoline" v="yes"/>
    <tag k="fuel:lpg" v="yes"/>
  </node>
  <node id="1985573606" lat="40.7726022" lon="22.5771532" version="2" timestamp="2018-10-05T17:48:09Z" changeset="63238484" uid="1401244" user="RandomGreekTracker">
    <tag k="amenity" v="fuel"/>
    <tag k="name" v="Α.Π."/>
  </node>
  <node id="2016897079" lat="42.4669693" lon="21.4465132" version="4" timestamp="2017-10-01T21:17:08Z" changeset="52547640" uid="4933546" user="Lorikent !">
    <tag k="amenity" v="fuel"/>
    <tag k="fuel:diesel" v="yes"/>
    <tag k="name" v="Petrol Company"/>
  </node>
  <node id="2016899853" lat="42.4459129" lon="21.4593632" version="4" timestamp="2018-12-20T23:47:08Z" changeset="65655460" uid="8996695" user="Bardhazizi">
    <tag k="amenity" v="fuel"/>
    <tag k="brand" v="Ricom Company"/>
    <tag k="fuel:diesel" v="yes"/>
    <tag k="name" v="Astoria Petrol"/>
  </node>
  <node id="2016902701" lat="42.4520959" lon="21.4614056" version="5" timestamp="2018-12-31T02:11:14Z" changeset="65902355" uid="8996695" user="Bardhazizi">
    <tag k="amenity" v="fuel"/>
    <tag k="fuel:diesel" v="yes"/>
    <tag k="name" v="Kosova Petrol"/>
  </node>
  <node id="2035584883" lat="42.2420459" lon="20.7517260" version="2" timestamp="2016-07-15T15:28:06Z" changeset="40762887" uid="4264543" user="Asmin Alija (asmyn)">
    <tag k="amenity" v="fuel"/>
    <tag k="name" v="LD Petrol"/>
  </node>
  <node id="2037288360" lat="41.1734580" lon="20.6544492" version="2" timestamp="2013-04-09T13:12:46Z" changeset="15666041" uid="131662" user="borces">
    <tag k="amenity" v="fuel"/>
    <tag k="int_name" v="Okta"/>
    <tag k="name" v="Окта"/>
    <tag k="name:en" v="Okta"/>
  </node>
  <node id="2039585961" lat="42.2151875" lon="20.7262012" version="1" timestamp="2012-11-29T08:22:31Z" changeset="14083326" uid="611363" user="nehatb">
    <tag k="amenity" v="fuel"/>
    <tag k="name" v="Fresh Petrol"/>
    <tag k="operator" v="VIVA"/>
  </node>
  <node id="2044853318" lat="42.2278976" lon="20.7537170" version="2" timestamp="2013-10-25T09:31:21Z" changeset="18532527" uid="539656" user="kragon77">
    <tag k="amenity" v="fuel"/>
    <tag k="name" v="Breu Petrol"/>
  </node>
  <node id="2118506024" lat="42.2447263" lon="21.7026640" version="3" timestamp="2013-09-25T09:02:28Z" changeset="18024011" uid="429794" user="SennaHB">
    <tag k="amenity" v="fuel"/>
    <tag k="brand" v="МОЛ"/>
    <tag k="fuel:diesel" v="yes"/>
    <tag k="fuel:lpg" v="yes"/>
    <tag k="fuel:octane_95" v="yes"/>
    <tag k="name" v="МОЛ Прешево"/>
  </node>
  <node id="2132492843" lat="42.0697681" lon="20.4276434" version="2" timestamp="2013-07-16T12:03:56Z" changeset="16972535" uid="539656" user="kragon77">
    <tag k="amenity" v="fuel"/>
    <tag k="fuel:diesel" v="yes"/>
    <tag k="fuel:octane_91" v="yes"/>
  </node>
  <node id="2238846883" lat="40.7222176" lon="22.6897717" version="2" timestamp="2015-02-21T17:54:15Z" changeset="29004360" uid="1401244" user="RandomGreekTracker">
    <tag k="amenity" v="fuel"/>
    <tag k="name" v="ΕΤΕΚΑ"/>
  </node>
  <node id="2238846898" lat="40.7277417" lon="22.6729734" version="4" timestamp="2018-10-05T17:48:09Z" changeset="63238484" uid="1401244" user="RandomGreekTracker">
    <tag k="amenity" v="fuel"/>
    <tag k="name" v="aegean"/>
  </node>
  <node id="2238846899" lat="40.7273278" lon="22.6751705" version="4" timestamp="2018-10-05T17:48:09Z" changeset="63238484" uid="1401244" user="RandomGreekTracker">
    <tag k="amenity" v="fuel"/>
    <tag k="name" v="jet oil"/>
  </node>
  <node id="2248140977" lat="41.9765627" lon="21.4433824" version="2" timestamp="2015-05-03T12:28:19Z" changeset="30746460" uid="1468248" user="TheBlackMan">
    <tag k="addr:city" v="Cкoпje"/>
    <tag k="addr:country" v="MK"/>
    <tag k="addr:postcode" v="1000"/>
    <tag k="amenity" v="fuel"/>
    <tag k="brand" v="Макпетрол"/>
    <tag k="fuel:biodiesel" v="yes"/>
    <tag k="fuel:diesel" v="yes"/>
    <tag k="fuel:octane_95" v="yes"/>
    <tag k="fuel:octane_98" v="yes"/>
    <tag k="int_name" v="Makpetrol"/>
    <tag k="name" v="Макпетрол"/>
    <tag k="name:en" v="Makpetrol"/>
    <tag k="opening_hours" v="24/7"/>
    <tag k="operator" v="Makpetrol"/>
    <tag k="payment:coins" v="yes"/>
    <tag k="payment:diners_club" v="yes"/>
    <tag k="payment:mastercard" v="yes"/>
    <tag k="payment:notes" v="yes"/>
    <tag k="payment:visa" v="yes"/>
    <tag k="website" v="http://makpetrol.mk"/>
  </node>
  <node id="2248576351" lat="41.1257242" lon="20.7870662" version="3" timestamp="2013-04-09T13:12:46Z" changeset="15666041" uid="131662" user="borces">
    <tag k="amenity" v="fuel"/>
    <tag k="int_name" v="Lukoil"/>
    <tag k="name" v="Лукоил"/>
    <tag k="name:en" v="Lukoil"/>
  </node>
  <node id="2248576379" lat="41.6719771" lon="20.8540275" version="2" timestamp="2015-04-02T07:39:11Z" changeset="29921687" uid="96382" user="malta-dinger">
    <tag k="amenity" v="fuel"/>
    <tag k="int_name" v="Lukoil"/>
    <tag k="name" v="Лукоил"/>
    <tag k="name:en" v="Lukoil"/>
  </node>
  <node id="2248576383" lat="41.9874822" lon="21.0667107" version="1" timestamp="2013-04-04T14:24:13Z" changeset="15608458" uid="131662" user="borces">
    <tag k="amenity" v="fuel"/>
    <tag k="int_name" v="Lukoil"/>
    <tag k="name" v="Лукоил"/>
    <tag k="name:en" v="Lukoil"/>
  </node>
  <node id="2248576388" lat="41.9439857" lon="21.4976245" version="3" timestamp="2019-03-02T19:59:05Z" changeset="67722544" uid="480208" user="Svetle">
    <tag k="addr:housenumber" v="129"/>
    <tag k="addr:street" v="Борис Трајковски"/>
    <tag k="amenity" v="fuel"/>
    <tag k="int_name" v="Lukoil"/>
    <tag k="name" v="Лукоил"/>
    <tag k="name:en" v="Lukoil"/>
  </node>
  <node id="2248601320" lat="41.1245188" lon="20.8137355" version="1" timestamp="2013-04-04T14:38:51Z" changeset="15608458" uid="131662" user="borces">
    <tag k="amenity" v="fuel"/>
    <tag k="int_name" v="Lukoil"/>
    <tag k="name" v="Лукоил"/>
    <tag k="name:en" v="Lukoil"/>
  </node>
  <node id="2249875631" lat="41.1758357" lon="20.6985426" version="6" timestamp="2019-03-20T13:09:43Z" changeset="68335311" uid="9451067" user="b-jazz-bot">
    <tag k="amenity" v="fuel"/>
    <tag k="int_name" v="Makpetrol"/>
    <tag k="name" v="Макпетрол"/>
    <tag k="name:en" v="Makpetrol"/>
    <tag k="opening_hours" v="24/7"/>
    <tag k="website" v="https://www.makpetrol.com.mk/"/>
  </node>
  <node id="2250281755" lat="42.0297687" lon="21.4444186" version="1" timestamp="2013-04-05T11:08:55Z" changeset="15618448" uid="131662" user="borces">
    <tag k="amenity" v="fuel"/>
    <tag k="int_name" v="Makpetrol"/>
    <tag k="name" v="Макпетрол"/>
    <tag k="name:en" v="Makpetrol"/>
  </node>
  <node id="2250281764" lat="41.9362492" lon="21.5130861" version="1" timestamp="2013-04-05T11:08:55Z" changeset="15618448" uid="131662" user="borces">
    <tag k="amenity" v="fuel"/>
    <tag k="int_name" v="Makpetrol"/>
    <tag k="name" v="Макпетрол"/>
    <tag k="name:en" v="Makpetrol"/>
  </node>
  <node id="2250439669" lat="42.0328615" lon="21.4018514" version="1" timestamp="2013-04-05T12:41:59Z" changeset="15619471" uid="131662" user="borces">
    <tag k="amenity" v="fuel"/>
    <tag k="int_name" v="Makpetrol"/>
    <tag k="name" v="Макпетрол"/>
    <tag k="name:en" v="Makpetrol"/>
  </node>
  <node id="2250439683" lat="42.1233045" lon="21.7340269" version="1" timestamp="2013-04-05T12:41:59Z" changeset="15619471" uid="131662" user="borces">
    <tag k="amenity" v="fuel"/>
    <tag k="int_name" v="Makpetrol"/>
    <tag k="name" v="Макпетрол"/>
    <tag k="name:en" v="Makpetrol"/>
  </node>
  <node id="2250439690" lat="42.1397978" lon="21.7192894" version="2" timestamp="2013-04-08T15:40:43Z" changeset="15655987" uid="131662" user="borces">
    <tag k="amenity" v="fuel"/>
    <tag k="int_name" v="Makpetrol"/>
    <tag k="name" v="Макпетрол"/>
    <tag k="name:en" v="Makpetrol"/>
  </node>
  <node id="2250757104" lat="41.7733628" lon="22.1409234" version="2" timestamp="2013-04-08T21:09:13Z" changeset="15659709" uid="161619" user="FvGordon">
    <tag k="amenity" v="fuel"/>
    <tag k="int_name" v="Makpetrol"/>
    <tag k="name" v="Макпетрол"/>
    <tag k="name:en" v="Makpetrol"/>
  </node>
  <node id="2250757106" lat="41.7734988" lon="22.1396252" version="1" timestamp="2013-04-05T14:12:43Z" changeset="15620580" uid="131662" user="borces">
    <tag k="amenity" v="fuel"/>
    <tag k="int_name" v="Makpetrol"/>
    <tag k="name" v="Макпетрол"/>
    <tag k="name:en" v="Makpetrol"/>
  </node>
  <node id="2250757108" lat="41.7187095" lon="21.7733060" version="2" timestamp="2015-11-09T13:48:38Z" changeset="35192467" uid="131662" user="borces">
    <tag k="amenity" v="fuel"/>
    <tag k="int_name" v="Makpetrol"/>
    <tag k="name" v="Макпетрол"/>
    <tag k="name:en" v="Makpetrol"/>
  </node>
  <node id="2250757121" lat="41.8601232" lon="21.9513344" version="1" timestamp="2013-04-05T14:12:44Z" changeset="15620580" uid="131662" user="borces">
    <tag k="amenity" v="fuel"/>
    <tag k="int_name" v="Makpetrol"/>
    <tag k="name" v="Макпетрол"/>
    <tag k="name:en" v="Makpetrol"/>
  </node>
  <node id="2250757125" lat="42.0787740" lon="22.1646448" version="1" timestamp="2013-04-05T14:12:44Z" changeset="15620580" uid="131662" user="borces">
    <tag k="amenity" v="fuel"/>
    <tag k="int_name" v="Makpetrol"/>
    <tag k="name" v="Макпетрол"/>
    <tag k="name:en" v="Makpetrol"/>
  </node>
  <node id="2250757126" lat="41.9807431" lon="22.1907803" version="1" timestamp="2013-04-05T14:12:44Z" changeset="15620580" uid="131662" user="borces">
    <tag k="amenity" v="fuel"/>
    <tag k="int_name" v="Makpetrol"/>
    <tag k="name" v="Макпетрол"/>
    <tag k="name:en" v="Makpetrol"/>
  </node>
  <node id="2257745867" lat="42.0035143" lon="20.9881251" version="2" timestamp="2018-01-04T00:57:42Z" changeset="55144244" uid="3203509" user="kripteksi">
    <tag k="amenity" v="fuel"/>
    <tag k="int_name" v="Makpetrol"/>
    <tag k="name" v="Макпетрол"/>
    <tag k="name:en" v="Makpetrol"/>
    <tag k="name:sq" v="Makpetrol -Pikë karburanti"/>
  </node>
  <node id="2257745870" lat="42.0192838" lon="20.9803998" version="2" timestamp="2017-02-18T01:09:34Z" changeset="46182369" uid="3203509" user="kripteksi">
    <tag k="amenity" v="fuel"/>
    <tag k="int_name" v="Makpetrol"/>
    <tag k="name" v="Макпетрол"/>
    <tag k="name:en" v="Makpetrol"/>
    <tag k="name:sq" v="Makpetrol - Pikë karburanti"/>
    <tag k="opening_hours" v="24/7"/>
  </node>
  <node id="2257911370" lat="41.4965592" lon="20.9464643" version="1" timestamp="2013-04-08T10:47:05Z" changeset="15652891" uid="131662" user="borces">
    <tag k="amenity" v="fuel"/>
    <tag k="int_name" v="Makpetrol"/>
    <tag k="name" v="Макпетрол"/>
    <tag k="name:en" v="Makpetrol"/>
  </node>
  <node id="2257911379" lat="41.3387805" lon="22.4454812" version="1" timestamp="2013-04-08T10:47:05Z" changeset="15652891" uid="131662" user="borces">
    <tag k="amenity" v="fuel"/>
    <tag k="int_name" v="Makpetrol"/>
    <tag k="name" v="Макпетрол"/>
    <tag k="name:en" v="Makpetrol"/>
  </node>
  <node id="2257911389" lat="41.6279865" lon="22.4562180" version="1" timestamp="2013-04-08T10:47:05Z" changeset="15652891" uid="131662" user="borces">
    <tag k="amenity" v="fuel"/>
    <tag k="int_name" v="Makpetrol"/>
    <tag k="name" v="Makpetrol"/>
  </node>
  <node id="2257911396" lat="41.7606930" lon="22.8731701" version="1" timestamp="2013-04-08T10:47:05Z" changeset="15652891" uid="131662" user="borces">
    <tag k="amenity" v="fuel"/>
    <tag k="int_name" v="Makpetrol"/>
    <tag k="name" v="Макпетрол"/>
    <tag k="name:en" v="Makpetrol"/>
  </node>
  <node id="2257911398" lat="41.8035327" lon="20.9145782" version="1" timestamp="2013-04-08T10:47:05Z" changeset="15652891" uid="131662" user="borces">
    <tag k="amenity" v="fuel"/>
    <tag k="int_name" v="Makpetrol"/>
    <tag k="name" v="Макпетрол"/>
    <tag k="name:en" v="Makpetrol"/>
  </node>
  <node id="2257911413" lat="41.6283053" lon="22.4558264" version="2" timestamp="2017-04-26T03:23:43Z" changeset="48147720" uid="4234953" user="SSFSSF">
    <tag k="amenity" v="fuel"/>
    <tag k="int_name" v="Emi Petrol"/>
    <tag k="name" v="Lukoil"/>
    <tag k="name:en" v="Lukoil"/>
  </node>
  <node id="2257911439" lat="41.4105326" lon="22.2470513" version="1" timestamp="2013-04-08T10:47:06Z" changeset="15652891" uid="131662" user="borces">
    <tag k="amenity" v="fuel"/>
    <tag k="int_name" v="Makpetrol"/>
    <tag k="name" v="Макпетрол"/>
    <tag k="name:en" v="Makpetrol"/>
  </node>
  <node id="2257915174" lat="41.4226153" lon="22.6523331" version="1" timestamp="2013-04-08T10:48:42Z" changeset="15652891" uid="131662" user="borces">
    <tag k="amenity" v="fuel"/>
    <tag k="int_name" v="Makpetrol"/>
    <tag k="name" v="Макпетрол"/>
    <tag k="name:en" v="Makpetrol"/>
  </node>
  <node id="2257922874" lat="41.5143142" lon="20.5189355" version="1" timestamp="2013-04-08T10:52:12Z" changeset="15652945" uid="131662" user="borces">
    <tag k="amenity" v="fuel"/>
    <tag k="int_name" v="Makpetrol"/>
    <tag k="name" v="Макпетрол"/>
    <tag k="name:en" v="Makpetrol"/>
  </node>
  <node id="2258079334" lat="41.1488035" lon="22.5149236" version="1" timestamp="2013-04-08T11:54:37Z" changeset="15653605" uid="131662" user="borces">
    <tag k="amenity" v="fuel"/>
    <tag k="int_name" v="Šimov"/>
    <tag k="name" v="Шимов"/>
    <tag k="name:en" v="Shimov"/>
  </node>
  <node id="2258079386" lat="41.1475916" lon="22.5101600" version="1" timestamp="2013-04-08T11:54:38Z" changeset="15653605" uid="131662" user="borces">
    <tag k="amenity" v="fuel"/>
    <tag k="int_name" v="Makpetrol"/>
    <tag k="name" v="Макпетрол"/>
    <tag k="name:en" v="Makpetrol"/>
  </node>
  <node id="2258079490" lat="41.2104726" lon="22.5956686" version="1" timestamp="2013-04-08T11:54:40Z" changeset="15653605" uid="131662" user="borces">
    <tag k="amenity" v="fuel"/>
    <tag k="int_name" v="Makpetrol"/>
    <tag k="name" v="Макпетрол"/>
    <tag k="name:en" v="Makpetrol"/>
  </node>
  <node id="2258079693" lat="41.1364881" lon="22.5454566" version="2" timestamp="2019-07-12T22:45:46Z" changeset="72199496" uid="9008001" user="GazEddyr">
    <tag k="amenity" v="fuel"/>
    <tag k="int_name" v="Okta"/>
    <tag k="name" v="Окта"/>
    <tag k="name:en" v="Okta"/>
  </node>
  <node id="2258080087" lat="41.1512473" lon="22.5129603" version="1" timestamp="2013-04-08T11:54:47Z" changeset="15653605" uid="131662" user="borces">
    <tag k="amenity" v="fuel"/>
    <tag k="int_name" v="Makpetrol"/>
    <tag k="name" v="Макпетрол"/>
    <tag k="name:en" v="Makpetrol"/>
  </node>
  <node id="2258180465" lat="41.9689531" lon="21.5702815" version="2" timestamp="2019-02-18T23:37:03Z" changeset="67333615" uid="9414390" user="Gr8fulDead">
    <tag k="amenity" v="fuel"/>
    <tag k="building" v="roof"/>
    <tag k="int_name" v="Makpetrol"/>
    <tag k="name" v="Макпетрол"/>
    <tag k="name:en" v="Makpetrol"/>
  </node>
  <node id="2258180474" lat="41.9429270" lon="21.6058530" version="1" timestamp="2013-04-08T12:59:29Z" changeset="15654323" uid="131662" user="borces">
    <tag k="amenity" v="fuel"/>
    <tag k="int_name" v="Makpetrol"/>
    <tag k="name" v="Макпетрол"/>
    <tag k="name:en" v="Makpetrol"/>
  </node>
  <node id="2258180483" lat="41.9957700" lon="21.5499665" version="1" timestamp="2013-04-08T12:59:29Z" changeset="15654323" uid="131662" user="borces">
    <tag k="amenity" v="fuel"/>
    <tag k="int_name" v="Makpetrol"/>
    <tag k="name" v="Макпетрол"/>
    <tag k="name:en" v="Makpetrol"/>
  </node>
  <node id="2258180490" lat="41.4992409" lon="22.0999424" version="2" timestamp="2016-06-09T20:44:55Z" changeset="39917360" uid="473445" user="Gero">
    <tag k="amenity" v="fuel"/>
    <tag k="int_name" v="Makpetrol"/>
    <tag k="name" v="Макпетрол"/>
    <tag k="name:en" v="Makpetrol"/>
  </node>
  <node id="2258249904" lat="41.1237594" lon="20.8124001" version="2" timestamp="2013-04-09T13:12:46Z" changeset="15666041" uid="131662" user="borces">
    <tag k="amenity" v="fuel"/>
    <tag k="int_name" v="Makpetrol"/>
    <tag k="name" v="Макпетрол"/>
    <tag k="name:en" v="Makpetrol"/>
  </node>
  <node id="2258249917" lat="41.7042752" lon="20.7609787" version="3" timestamp="2016-12-22T10:06:30Z" changeset="44586572" uid="4962903" user="VlatkoK">
    <tag k="amenity" v="fuel"/>
    <tag k="int_name" v="Makpetrol"/>
    <tag k="name" v="Макпетрол"/>
    <tag k="name:en" v="Makpetrol"/>
    <tag k="opening_hours" v="Mo-Su 07:00-20:00"/>
  </node>
  <node id="2258249982" lat="41.9150372" lon="20.9110550" version="1" timestamp="2013-04-08T13:54:53Z" changeset="15654888" uid="131662" user="borces">
    <tag k="amenity" v="fuel"/>
    <tag k="int_name" v="Makpetrol"/>
    <tag k="name" v="Макпетрол"/>
    <tag k="name:en" v="Makpetrol"/>
  </node>
  <node id="2258250033" lat="41.1062856" lon="20.8152625" version="2" timestamp="2019-11-02T09:10:35Z" changeset="76522592" uid="115815" user="Datin">
    <tag k="amenity" v="fuel"/>
    <tag k="int_name" v="Makpetrol"/>
    <tag k="name" v="Макпетрол"/>
    <tag k="name:en" v="Makpetrol"/>
  </node>
  <node id="2258250077" lat="41.6311497" lon="20.6070580" version="2" timestamp="2013-06-29T10:23:23Z" changeset="16749735" uid="131662" user="borces">
    <tag k="amenity" v="fuel"/>
    <tag k="int_name" v="Makpetrol"/>
    <tag k="name" v="Макпетрол"/>
    <tag k="name:en" v="Makpetrol"/>
  </node>
  <node id="2258250129" lat="41.2153422" lon="21.2046442" version="1" timestamp="2013-04-08T13:54:54Z" changeset="15654888" uid="131662" user="borces">
    <tag k="amenity" v="fuel"/>
    <tag k="int_name" v="Makpetrol"/>
    <tag k="name" v="Макпетрол"/>
    <tag k="name:en" v="Makpetrol"/>
  </node>
  <node id="2258250136" lat="41.1373657" lon="20.8210883" version="1" timestamp="2013-04-08T13:54:54Z" changeset="15654888" uid="131662" user="borces">
    <tag k="amenity" v="fuel"/>
    <tag k="int_name" v="Makpetrol"/>
    <tag k="name" v="Макпетрол"/>
    <tag k="name:en" v="Makpetrol"/>
  </node>
  <node id="2258250161" lat="42.0736357" lon="21.1177299" version="1" timestamp="2013-04-08T13:54:55Z" changeset="15654888" uid="131662" user="borces">
    <tag k="amenity" v="fuel"/>
    <tag k="int_name" v="Makpetrol"/>
    <tag k="name" v="Макпетрол"/>
    <tag k="name:en" v="Makpetrol"/>
  </node>
  <node id="2258349842" lat="42.0214393" lon="22.5857701" version="1" timestamp="2013-04-08T15:40:36Z" changeset="15655987" uid="131662" user="borces">
    <tag k="amenity" v="fuel"/>
    <tag k="int_name" v="Makpetrol"/>
    <tag k="name" v="Макпетрол"/>
    <tag k="name:en" v="Makpetrol"/>
  </node>
  <node id="2258349862" lat="41.6917389" lon="22.1666160" version="1" timestamp="2013-04-08T15:40:36Z" changeset="15655987" uid="131662" user="borces">
    <tag k="amenity" v="fuel"/>
    <tag k="int_name" v="Makpetrol"/>
    <tag k="name" v="Макпетрол"/>
    <tag k="name:en" v="Makpetrol"/>
  </node>
  <node id="2258350075" lat="41.5414346" lon="22.4078109" version="1" timestamp="2013-04-08T15:40:39Z" changeset="15655987" uid="131662" user="borces">
    <tag k="amenity" v="fuel"/>
    <tag k="int_name" v="Makpetrol"/>
    <tag k="name" v="Макпетрол"/>
    <tag k="name:en" v="Makpetrol"/>
  </node>
  <node id="2258350129" lat="41.7204345" lon="21.7673004" version="2" timestamp="2018-09-24T12:14:14Z" changeset="62877999" uid="131662" user="borces">
    <tag k="amenity" v="fuel"/>
    <tag k="int_name" v="Okta"/>
    <tag k="name" v="Окта"/>
    <tag k="name:en" v="Okta"/>
  </node>
  <node id="2258371662" lat="41.4404192" lon="22.6600620" version="3" timestamp="2015-10-11T23:47:29Z" changeset="34580211" uid="131662" user="borces">
    <tag k="amenity" v="fuel"/>
    <tag k="fuel:diesel" v="yes"/>
    <tag k="fuel:octane_95" v="yes"/>
    <tag k="fuel:octane_98" v="yes"/>
    <tag k="int_name" v="EcoOil"/>
    <tag k="name" v="ЕкоОил"/>
    <tag k="name:en" v="EcoOil"/>
  </node>
  <node id="2258371681" lat="41.4410707" lon="22.6484534" version="1" timestamp="2013-04-08T16:01:54Z" changeset="15655987" uid="131662" user="borces">
    <tag k="amenity" v="fuel"/>
    <tag k="int_name" v="Okta"/>
    <tag k="name" v="Окта"/>
    <tag k="name:en" v="Okta"/>
  </node>
  <node id="2260079289" lat="41.1259146" lon="20.8136195" version="1" timestamp="2013-04-09T12:26:44Z" changeset="15665572" uid="131662" user="borces">
    <tag k="amenity" v="fuel"/>
    <tag k="int_name" v="Okta"/>
    <tag k="name" v="Окта"/>
    <tag k="name:en" v="Okta"/>
  </node>
  <node id="2260122818" lat="41.9972088" lon="20.9829535" version="1" timestamp="2013-04-09T13:12:45Z" changeset="15666041" uid="131662" user="borces">
    <tag k="amenity" v="fuel"/>
    <tag k="int_name" v="Okta"/>
    <tag k="name" v="Окта"/>
    <tag k="name:en" v="Okta"/>
  </node>
  <node id="2260122820" lat="41.8018700" lon="20.9147691" version="1" timestamp="2013-04-09T13:12:45Z" changeset="15666041" uid="131662" user="borces">
    <tag k="amenity" v="fuel"/>
    <tag k="int_name" v="Okta"/>
    <tag k="name" v="Окта"/>
    <tag k="name:en" v="Okta"/>
  </node>
  <node id="2260122822" lat="41.3054677" lon="20.7983612" version="1" timestamp="2013-04-09T13:12:45Z" changeset="15666041" uid="131662" user="borces">
    <tag k="amenity" v="fuel"/>
    <tag k="int_name" v="Okta"/>
    <tag k="name" v="Окта"/>
    <tag k="name:en" v="Okta"/>
  </node>
  <node id="2260122834" lat="41.9866150" lon="20.9587560" version="3" timestamp="2017-02-18T01:54:26Z" changeset="46182749" uid="3203509" user="kripteksi">
    <tag k="amenity" v="fuel"/>
    <tag k="atm" v="no"/>
    <tag k="car_wash" v="no"/>
    <tag k="int_name" v="Okta"/>
    <tag k="name" v="Окта"/>
    <tag k="name:en" v="Okta"/>
  </node>
  <node id="2310699906" lat="42.3747955" lon="20.4432486" version="1" timestamp="2013-05-19T06:31:10Z" changeset="16189040" uid="135234" user="Arianit">
    <tag k="amenity" v="fuel"/>
    <tag k="building" v="yes"/>
    <tag k="name" v="Nesim Bakija"/>
  </node>
  <node id="2346348139" lat="41.5808765" lon="23.7445402" version="1" timestamp="2013-06-15T18:26:41Z" changeset="16566622" uid="463033" user="synalik">
    <tag k="amenity" v="fuel"/>
    <tag k="brand" v="Shell"/>
  </node>
  <node id="2346348212" lat="41.8756047" lon="23.4134151" version="1" timestamp="2013-06-15T18:26:42Z" changeset="16566622" uid="463033" user="synalik">
    <tag k="amenity" v="fuel"/>
    <tag k="brand" v="Shell"/>
  </node>
  <node id="2365595849" lat="42.3142763" lon="23.8572154" version="1" timestamp="2013-06-29T12:34:54Z" changeset="16751393" uid="44140" user="cassini83">
    <tag k="amenity" v="fuel"/>
    <tag k="brand" v="Lukoil"/>
    <tag k="fuel:diesel" v="yes"/>
    <tag k="fuel:lpg" v="yes"/>
    <tag k="fuel:octane_92" v="yes"/>
    <tag k="fuel:octane_95" v="yes"/>
    <tag k="name" v="Lukoil"/>
  </node>
  <node id="2374950341" lat="42.4422237" lon="21.0552385" version="3" timestamp="2018-09-11T19:30:49Z" changeset="62499844" uid="3377021" user="Marc Konjuhi">
    <tag k="amenity" v="fuel"/>
    <tag k="name" v="Ibrahimi"/>
  </node>
  <node id="2375220645" lat="42.4891526" lon="20.3250338" version="2" timestamp="2016-08-14T15:44:06Z" changeset="41449214" uid="4420068" user="Luka2345">
    <tag k="addr:postcode" v="51000"/>
    <tag k="amenity" v="fuel"/>
    <tag k="name" v="Fati Petrol"/>
  </node>
  <node id="2376158430" lat="41.5744137" lon="19.6742603" version="2" timestamp="2020-10-03T10:26:17Z" changeset="91897276" uid="11006146" user="spongestone">
    <tag k="amenity" v="fuel"/>
    <tag k="name" v="Eri Oil"/>
  </node>
  <node id="2381394640" lat="42.4578901" lon="20.9773050" version="2" timestamp="2016-11-19T20:53:57Z" changeset="43809500" uid="4865471" user="Dino Dinoo">
    <tag k="addr:street" v="R102"/>
    <tag k="amenity" v="fuel"/>
    <tag k="name" v="Lindi Petrol"/>
  </node>
  <node id="2382384705" lat="41.9234042" lon="20.9445332" version="2" timestamp="2013-07-12T14:16:12Z" changeset="16925681" uid="131662" user="borces">
    <tag k="amenity" v="fuel"/>
    <tag k="int_name" v="Neptun Petrol"/>
    <tag k="name" v="Нептун Петрол"/>
    <tag k="name:en" v="Neptun Petrol"/>
  </node>
  <node id="2387515227" lat="42.4691685" lon="21.4393370" version="2" timestamp="2018-11-06T10:27:11Z" changeset="64225224" uid="8996695" user="Bardhazizi">
    <tag k="amenity" v="fuel"/>
    <tag k="name" v="Ferizi Petrol"/>
  </node>
  <node id="2387527562" lat="42.4302242" lon="21.4760933" version="4" timestamp="2019-04-22T15:56:47Z" changeset="69458769" uid="8996695" user="Bardhazizi">
    <tag k="amenity" v="fuel"/>
    <tag k="name" v="Gani Petrol"/>
  </node>
  <node id="2397400420" lat="42.4501723" lon="21.4615179" version="4" timestamp="2019-04-16T23:46:38Z" changeset="69289987" uid="7348317" user="Guxim">
    <tag k="amenity" v="fuel"/>
    <tag k="name" v="&quot;Bujana Petrol - BP&quot;"/>
  </node>
  <node id="2401246913" lat="42.3248849" lon="21.4008625" version="2" timestamp="2017-07-04T15:53:44Z" changeset="50037710" uid="340741" user="CRCulver">
    <tag k="amenity" v="fuel"/>
    <tag k="name" v="Jeta"/>
  </node>
  <node id="2401344588" lat="42.2954849" lon="21.2100724" version="3" timestamp="2016-09-23T08:07:29Z" changeset="42367031" uid="3998430" user="Saimir Ismaili">
    <tag k="amenity" v="fuel"/>
    <tag k="name" v="Ballkan Petroll"/>
    <tag k="name:sq" v="T stop nga skopje to Prishtina/prizren"/>
  </node>
  <node id="2401617045" lat="42.2781940" lon="21.2084094" version="2" timestamp="2015-12-24T15:26:57Z" changeset="36146717" uid="3478206" user="avni tusha">
    <tag k="amenity" v="fuel"/>
    <tag k="name" v="Shkendija"/>
  </node>
  <node id="2402732245" lat="42.3482689" lon="21.3708105" version="3" timestamp="2019-11-15T12:13:25Z" changeset="77124527" uid="10469521" user="Auronita Osmani">
    <tag k="addr:city" v="Mogillë - Mogila"/>
    <tag k="amenity" v="fuel"/>
    <tag k="name" v="Pompa e Benzinës &quot;Tafa&quot;"/>
  </node>
  <node id="2420530118" lat="40.7574954" lon="22.9787415" version="1" timestamp="2013-08-16T08:37:17Z" changeset="17368439" uid="659187" user="Clavisound">
    <tag k="amenity" v="fuel"/>
    <tag k="fuel:diesel" v="yes"/>
    <tag k="fuel:lpg" v="yes"/>
    <tag k="fuel:octane_95" v="yes"/>
    <tag k="shop" v="yes"/>
  </node>
  <node id="2423800780" lat="42.0058930" lon="23.0859131" version="2" timestamp="2016-02-01T12:59:51Z" changeset="36935926" uid="150201" user="plamen">
    <tag k="amenity" v="fuel"/>
    <tag k="fuel:cng" v="yes"/>
    <tag k="name" v="Метан"/>
    <tag k="operator" v="M-Gas"/>
  </node>
  <node id="2423802764" lat="42.0129800" lon="23.0686183" version="2" timestamp="2016-02-01T12:59:51Z" changeset="36935926" uid="150201" user="plamen">
    <tag k="amenity" v="fuel"/>
    <tag k="fuel:cng" v="yes"/>
    <tag k="name" v="Метан"/>
  </node>
  <node id="2427372810" lat="40.6957886" lon="19.9783110" version="2" timestamp="2013-09-17T18:25:57Z" changeset="17891939" uid="39504" user="malenki">
    <tag k="amenity" v="fuel"/>
    <tag k="brand" v="Taçi Oil"/>
    <tag k="source" v="survey"/>
  </node>
  <node id="2427372818" lat="40.7008521" lon="19.9684099" version="2" timestamp="2013-09-17T18:22:38Z" changeset="17891891" uid="39504" user="malenki">
    <tag k="amenity" v="fuel"/>
    <tag k="brand" v="Edjani"/>
    <tag k="source" v="survey"/>
  </node>
  <node id="2456070443" lat="41.2848107" lon="19.7191519" version="3" timestamp="2016-12-21T15:59:09Z" changeset="44567949" uid="712336" user="DenisJu">
    <tag k="amenity" v="fuel"/>
    <tag k="fuel:diesel" v="yes"/>
    <tag k="fuel:e10" v="yes"/>
    <tag k="fuel:octane_98" v="yes"/>
    <tag k="name" v="Internacional"/>
    <tag k="opening_hours" v="24/7"/>
    <tag k="source" v="survey"/>
    <tag k="wheelchair" v="limited"/>
  </node>
  <node id="2457713536" lat="40.9737420" lon="19.8946054" version="1" timestamp="2013-09-14T07:50:12Z" changeset="17828631" uid="1744449" user="ralphdo">
    <tag k="amenity" v="fuel"/>
    <tag k="building" v="yes"/>
    <tag k="name" v="Freie Tankstelle Belsh"/>
  </node>
  <node id="2458243965" lat="41.0840273" lon="19.6194879" version="3" timestamp="2018-06-30T08:33:42Z" changeset="60296937" uid="7204025" user="OBBBaby">
    <tag k="amenity" v="fuel"/>
    <tag k="brand" v="Marsok Oil"/>
    <tag k="fuel:diesel" v="yes"/>
    <tag k="fuel:lpg" v="yes"/>
    <tag k="fuel:octane_95" v="yes"/>
    <tag k="opening_hours" v="24/7"/>
  </node>
  <node id="2458243987" lat="41.0902053" lon="19.6149368" version="1" timestamp="2013-09-14T17:02:15Z" changeset="17836549" uid="39504" user="malenki">
    <tag k="amenity" v="fuel"/>
    <tag k="brand" v="Taçi Oil"/>
    <tag k="source" v="survey"/>
  </node>
  <node id="2458244040" lat="41.1108657" lon="19.6068221" version="1" timestamp="2013-09-14T17:02:16Z" changeset="17836549" uid="39504" user="malenki">
    <tag k="amenity" v="fuel"/>
    <tag k="brand" v="Taçi Oil"/>
    <tag k="source" v="survey"/>
  </node>
  <node id="2458244080" lat="41.1451869" lon="19.5905234" version="2" timestamp="2019-03-30T22:29:17Z" changeset="68711215" uid="3117866" user="timwenzel98">
    <tag k="amenity" v="fuel"/>
    <tag k="brand" v="eurodrin"/>
    <tag k="name" v="Kastrati"/>
    <tag k="opening_hours" v="24/7"/>
    <tag k="source" v="survey"/>
  </node>
  <node id="2459513778" lat="40.9215596" lon="19.7012095" version="2" timestamp="2019-10-02T14:02:48Z" changeset="75189826" uid="9965337" user="ReedtheRiver">
    <tag k="amenity" v="fuel"/>
    <tag k="brand" v="Alpet"/>
    <tag k="name" v="Alpet"/>
    <tag k="source" v="survey"/>
  </node>
  <node id="2459535133" lat="40.8016577" lon="19.6098845" version="1" timestamp="2013-09-15T16:56:23Z" changeset="17853797" uid="39504" user="malenki">
    <tag k="amenity" v="fuel"/>
    <tag k="brand" v="Special"/>
    <tag k="source" v="survey"/>
  </node>
  <node id="2459535138" lat="40.8022179" lon="19.6092650" version="1" timestamp="2013-09-15T16:56:23Z" changeset="17853797" uid="39504" user="malenki">
    <tag k="amenity" v="fuel"/>
    <tag k="brand" v="Special"/>
    <tag k="source" v="survey"/>
  </node>
  <node id="2460816899" lat="40.7533753" lon="19.9225542" version="2" timestamp="2016-09-01T13:31:21Z" changeset="41849293" uid="4489954" user="673a_t">
    <tag k="amenity" v="fuel"/>
    <tag k="brand" v="Mamo Oil"/>
    <tag k="name" v="Mamo"/>
    <tag k="name:sq" v="Mamo"/>
    <tag k="source" v="survey"/>
  </node>
  <node id="2460817119" lat="40.7672234" lon="19.8997400" version="3" timestamp="2016-09-17T10:06:03Z" changeset="42223492" uid="344903" user="Toyota_79">
    <tag k="amenity" v="fuel"/>
    <tag k="name" v="LUANI oil"/>
    <tag k="name:sq" v="LUANI oil"/>
    <tag k="source" v="survey"/>
  </node>
  <node id="2460817122" lat="40.7673603" lon="19.8998606" version="1" timestamp="2013-09-16T19:47:23Z" changeset="17874671" uid="39504" user="malenki">
    <tag k="amenity" v="fuel"/>
    <tag k="source" v="survey"/>
  </node>
  <node id="2460817177" lat="40.7735692" lon="19.8864553" version="1" timestamp="2013-09-16T19:47:24Z" changeset="17874671" uid="39504" user="malenki">
    <tag k="amenity" v="fuel"/>
    <tag k="source" v="survey"/>
  </node>
  <node id="2460817200" lat="40.7739786" lon="19.8734320" version="2" timestamp="2016-09-01T13:32:33Z" changeset="41849325" uid="4489954" user="673a_t">
    <tag k="amenity" v="fuel"/>
    <tag k="brand" v="Euro Petrol"/>
    <tag k="name" v="Euro Petrol"/>
    <tag k="name:sq" v="Euro Petrol"/>
    <tag k="source" v="survey"/>
  </node>
  <node id="2462017332" lat="40.6875111" lon="20.0160303" version="1" timestamp="2013-09-17T18:45:50Z" changeset="17892241" uid="39504" user="malenki">
    <tag k="amenity" v="fuel"/>
    <tag k="source" v="survey"/>
  </node>
  <node id="2472204564" lat="41.0479158" lon="23.3155057" version="2" timestamp="2015-08-25T11:10:13Z" changeset="33568212" uid="1761192" user="Alex3271">
    <tag k="amenity" v="fuel"/>
    <tag k="name" v="Kaoil"/>
  </node>
  <node id="2497917825" lat="42.3743669" lon="20.3989068" version="3" timestamp="2017-07-12T19:34:19Z" changeset="50239142" uid="1819658" user="MapStudioPhoenix">
    <tag k="amenity" v="fuel"/>
    <tag k="name" v="Pompa D Z ne Meje"/>
    <tag k="name:sq" v="pumpa Kanuni"/>
  </node>
  <node id="2503663027" lat="42.5053090" lon="20.6933023" version="1" timestamp="2013-10-21T10:00:44Z" changeset="18465910" uid="539656" user="kragon77">
    <tag k="amenity" v="fuel"/>
    <tag k="building" v="yes"/>
  </node>
  <node id="2503673766" lat="42.5020885" lon="20.7069725" version="1" timestamp="2013-10-21T10:16:19Z" changeset="18466107" uid="539656" user="kragon77">
    <tag k="amenity" v="fuel"/>
    <tag k="building" v="yes"/>
  </node>
  <node id="2503673811" lat="42.4866674" lon="20.7454832" version="1" timestamp="2013-10-21T10:16:20Z" changeset="18466107" uid="539656" user="kragon77">
    <tag k="amenity" v="fuel"/>
    <tag k="building" v="yes"/>
  </node>
  <node id="2503673821" lat="42.4902114" lon="20.7464062" version="1" timestamp="2013-10-21T10:16:21Z" changeset="18466107" uid="539656" user="kragon77">
    <tag k="amenity" v="fuel"/>
    <tag k="building" v="yes"/>
  </node>
  <node id="2504314080" lat="42.4771060" lon="20.7540331" version="1" timestamp="2013-10-21T20:01:15Z" changeset="18475957" uid="539656" user="kragon77">
    <tag k="amenity" v="fuel"/>
    <tag k="building" v="yes"/>
  </node>
  <node id="2504330660" lat="42.4692678" lon="20.7729896" version="1" timestamp="2013-10-21T20:13:49Z" changeset="18476214" uid="539656" user="kragon77">
    <tag k="amenity" v="fuel"/>
    <tag k="building" v="yes"/>
  </node>
  <node id="2507295054" lat="42.3706913" lon="21.1984865" version="3" timestamp="2020-02-14T03:32:59Z" changeset="80983645" uid="9451067" user="b-jazz-bot">
    <tag k="addr:postcode" v="70000"/>
    <tag k="addr:street" v="Bondstill"/>
    <tag k="amenity" v="fuel"/>
    <tag k="building" v="yes"/>
    <tag k="email" v="info@hibpetrol.com"/>
    <tag k="internet_access" v="wlan"/>
    <tag k="name" v="Hib Petrol"/>
    <tag k="name:sq" v="HIB Petrol"/>
    <tag k="opening_hours" v="24/7"/>
    <tag k="phone" v="+383 38 777 777"/>
    <tag k="website" v="https://hibpetrol.com/"/>
  </node>
  <node id="2507318845" lat="42.3215816" lon="20.6238833" version="3" timestamp="2019-03-07T16:35:31Z" changeset="67890018" uid="3377021" user="Marc Konjuhi">
    <tag k="addr:street" v="107"/>
    <tag k="amenity" v="fuel"/>
    <tag k="building" v="yes"/>
    <tag k="email" v="jazi-1@hotmail.com"/>
    <tag k="internet_access" v="wlan"/>
    <tag k="name" v="Jazi 1"/>
    <tag k="name:sq" v="Jazi 1"/>
    <tag k="operator" v="Bashkim Gashi"/>
    <tag k="phone" v="+38344269537"/>
  </node>
  <node id="2507323341" lat="42.2683775" lon="20.6780132" version="3" timestamp="2019-09-03T22:46:40Z" changeset="74060045" uid="9008001" user="GazEddyr">
    <tag k="amenity" v="fuel"/>
    <tag k="name" v="Korabi"/>
  </node>
  <node id="2507333107" lat="42.2423145" lon="20.6997001" version="2" timestamp="2018-08-26T14:49:02Z" changeset="62008610" uid="8739309" user="Jonni Klm">
    <tag k="amenity" v="fuel"/>
    <tag k="building" v="yes"/>
    <tag k="name" v="Oferta de luxe"/>
  </node>
  <node id="2510955761" lat="42.5064726" lon="21.1115304" version="1" timestamp="2013-10-27T23:10:41Z" changeset="18576428" uid="539656" user="kragon77">
    <tag k="amenity" v="fuel"/>
    <tag k="building" v="yes"/>
  </node>
  <node id="2510955770" lat="42.5080276" lon="21.1111278" version="2" timestamp="2016-09-25T10:39:21Z" changeset="42420409" uid="4444163" user="N Tierecke">
    <tag k="amenity" v="fuel"/>
    <tag k="building" v="yes"/>
    <tag k="name" v="Luma Petrol"/>
    <tag k="name:sq" v="Luma Petrol"/>
  </node>
  <node id="2512616679" lat="42.5254028" lon="21.6622237" version="1" timestamp="2013-10-29T10:26:33Z" changeset="18598775" uid="539656" user="kragon77">
    <tag k="amenity" v="fuel"/>
    <tag k="building" v="yes"/>
  </node>
  <node id="2512625394" lat="42.5086705" lon="21.6348900" version="2" timestamp="2020-01-24T18:46:53Z" changeset="80048528" uid="10681107" user="Kosovoharta">
    <tag k="amenity" v="fuel"/>
    <tag k="building" v="yes"/>
    <tag k="name:en" v="Albina Petrol"/>
  </node>
  <node id="2574272025" lat="42.1891230" lon="22.3025336" version="1" timestamp="2013-12-10T11:59:19Z" changeset="19375720" uid="1814603" user="alenmitovski">
    <tag k="addr:city" v="Крива Паланка"/>
    <tag k="addr:housename" v="с.конопница"/>
    <tag k="addr:postcode" v="1330"/>
    <tag k="addr:street" v="А2"/>
    <tag k="amenity" v="fuel"/>
    <tag k="name" v="Макоил"/>
  </node>
  <node id="2604512194" lat="40.7059032" lon="22.9346785" version="3" timestamp="2018-10-01T19:48:06Z" changeset="63105186" uid="6188741" user="down1ree">
    <tag k="amenity" v="fuel"/>
    <tag k="brand" v="AVIN"/>
    <tag k="car_wash" v="yes"/>
    <tag k="fuel:diesel" v="yes"/>
    <tag k="fuel:octane_95" v="yes"/>
    <tag k="operator" v="METRO ΑΕΒΕ"/>
    <tag k="shop" v="yes"/>
  </node>
  <node id="2608865176" lat="41.3245424" lon="19.8097913" version="7" timestamp="2020-07-07T15:33:21Z" changeset="87663096" uid="9531524" user="Jerry Jorts">
    <tag k="addr:street" v="Rruga Myslym Shyri"/>
    <tag k="amenity" v="fuel"/>
    <tag k="brand" v="Alpet"/>
    <tag k="brand:wikidata" v="Q62131561"/>
    <tag k="name" v="Alpet"/>
    <tag k="name:sq" v="Alpet"/>
    <tag k="wheelchair" v="yes"/>
  </node>
  <node id="2619932849" lat="41.3104666" lon="19.7593051" version="2" timestamp="2019-10-01T18:07:39Z" changeset="75165409" uid="9029309" user="Kaarti_B">
    <tag k="amenity" v="fuel"/>
    <tag k="brand" v="Eida"/>
    <tag k="fuel:diesel" v="yes"/>
    <tag k="fuel:lpg" v="yes"/>
    <tag k="fuel:octane_100" v="yes"/>
    <tag k="fuel:octane_95" v="yes"/>
    <tag k="opening_hours" v="24/7"/>
    <tag k="operator" v="Auto Market Skenderi G sh. P. K."/>
  </node>
  <node id="2622774330" lat="41.4490785" lon="22.6416485" version="2" timestamp="2015-10-13T13:53:53Z" changeset="34612189" uid="131662" user="borces">
    <tag k="amenity" v="fuel"/>
    <tag k="brand" v="Lukoil"/>
    <tag k="fuel:diesel" v="yes"/>
    <tag k="fuel:lpg" v="yes"/>
    <tag k="fuel:octane_95" v="yes"/>
    <tag k="fuel:octane_98" v="yes"/>
    <tag k="name" v="Лукоил"/>
    <tag k="operator" v="Lukoil"/>
  </node>
  <node id="2625956106" lat="42.3421797" lon="21.1834721" version="2" timestamp="2019-03-08T14:36:09Z" changeset="67924830" uid="3377021" user="Marc Konjuhi">
    <tag k="addr:city" v="Ferizaj"/>
    <tag k="addr:housename" v="Gursel Bajram Sylejmani"/>
    <tag k="addr:housenumber" v="70000"/>
    <tag k="amenity" v="fuel"/>
    <tag k="name" v="N.T. Global Trade"/>
    <tag k="operator" v="Avni Hasani"/>
    <tag k="phone" v="+383 44 121-933"/>
    <tag k="website" v="www.gt-ks.eu"/>
  </node>
  <node id="2714039799" lat="41.2817147" lon="19.8564666" version="3" timestamp="2018-09-07T09:48:38Z" changeset="62369468" uid="3407581" user="diskmanti">
    <tag k="addr:city" v="Tirana"/>
    <tag k="amenity" v="fuel"/>
    <tag k="name" v="Eida"/>
    <tag k="operator" v="Eida"/>
  </node>
  <node id="2782650980" lat="41.3150752" lon="19.8127658" version="2" timestamp="2019-10-15T20:32:51Z" changeset="75743514" uid="9319541" user="birdeatscake">
    <tag k="addr:street" v="Rruga Ndreko Rino"/>
    <tag k="amenity" v="fuel"/>
    <tag k="name" v="Kastrati"/>
  </node>
  <node id="2789876870" lat="40.7906204" lon="21.4317537" version="2" timestamp="2019-01-09T12:18:17Z" changeset="66160015" uid="2269901" user="guzzonord">
    <tag k="amenity" v="fuel"/>
    <tag k="brand" v="EKO"/>
    <tag k="brand:wikidata" v="Q903198"/>
    <tag k="brand:wikipedia" v="el:Ελληνικά Πετρέλαια"/>
    <tag k="name" v="EKO"/>
  </node>
  <node id="3016702589" lat="42.3693328" lon="20.4199104" version="4" timestamp="2019-09-12T18:38:59Z" changeset="74404908" uid="9368512" user="beep_boop">
    <tag k="addr:postcode" v="50000"/>
    <tag k="addr:street" v="Domenik Pergegaj"/>
    <tag k="amenity" v="fuel"/>
    <tag k="internet_access" v="wlan"/>
    <tag k="name" v="Komani Petrol"/>
    <tag k="name:en" v="Komani Petrol"/>
    <tag k="name:sq" v="Komani Petrol"/>
    <tag k="name:sr" v="Komani Petrol"/>
    <tag k="opening_hours" v="Mo-Su 06:30-21:00"/>
    <tag k="website" v="http://komaniptrol.com"/>
  </node>
  <node id="3025600984" lat="42.3173718" lon="20.6302711" version="2" timestamp="2017-02-09T19:56:59Z" changeset="45956043" uid="523837" user="ValdrinGashi">
    <tag k="amenity" v="fuel"/>
    <tag k="name" v="Bashkimi Petrol"/>
  </node>
  <node id="3025692105" lat="42.2973678" lon="20.6634361" version="2" timestamp="2014-08-20T18:21:06Z" changeset="24892345" uid="523837" user="ValdrinGashi">
    <tag k="amenity" v="fuel"/>
    <tag k="name" v="Fatoni"/>
  </node>
  <node id="3025701884" lat="42.2835844" lon="20.6772240" version="3" timestamp="2019-09-25T16:11:46Z" changeset="74918672" uid="10327962" user="Leonis Lutfiu">
    <tag k="addr:postcode" v="20000"/>
    <tag k="amenity" v="fuel"/>
    <tag k="internet_access" v="wlan"/>
    <tag k="name" v="Pashtriku Petrol"/>
    <tag k="name:sq" v="Pashtriku Petrol"/>
  </node>
  <node id="3027858214" lat="42.2316790" lon="20.7130901" version="2" timestamp="2018-02-13T20:16:02Z" changeset="56333433" uid="7571973" user="Sadik Hoti">
    <tag k="amenity" v="fuel"/>
    <tag k="name" v="Al Petrol"/>
  </node>
  <node id="3029779651" lat="42.2254563" lon="20.7208576" version="2" timestamp="2017-04-19T12:22:43Z" changeset="47937049" uid="3377021" user="Marc Konjuhi">
    <tag k="amenity" v="fuel"/>
    <tag k="name" v="AL Petrol"/>
  </node>
  <node id="3064091920" lat="40.7070750" lon="22.9544546" version="2" timestamp="2020-09-28T00:03:18Z" changeset="91600456" uid="5703312" user="toygarlk">
    <tag k="amenity" v="fuel"/>
    <tag k="brand" v="BP"/>
    <tag k="brand:wikidata" v="Q152057"/>
    <tag k="brand:wikipedia" v="en:BP"/>
    <tag k="name" v="BP"/>
  </node>
  <node id="3081411252" lat="40.7992275" lon="22.0485798" version="2" timestamp="2019-09-30T22:33:59Z" changeset="75122070" uid="2100037" user="Mabap">
    <tag k="amenity" v="fuel"/>
    <tag k="name" v="ΕΚΟ"/>
  </node>
  <node id="3087327026" lat="42.3563361" lon="23.5480617" version="1" timestamp="2014-09-20T11:41:51Z" changeset="25557782" uid="323389" user="Michael_H">
    <tag k="amenity" v="fuel"/>
    <tag k="fuel:diesel" v="yes"/>
    <tag k="fuel:lpg" v="yes"/>
    <tag k="fuel:octane_95" v="yes"/>
    <tag k="fuel:octane_98" v="yes"/>
    <tag k="name" v="Видница"/>
    <tag k="opening_hours" v="24/7"/>
  </node>
  <node id="3162787162" lat="41.6291960" lon="22.4461630" version="1" timestamp="2014-11-02T13:39:14Z" changeset="26503478" uid="156286" user="mile">
    <tag k="amenity" v="fuel"/>
    <tag k="name" v="Jovan Petrol"/>
  </node>
  <node id="3211144018" lat="40.9910584" lon="22.5932241" version="2" timestamp="2019-02-25T13:42:11Z" changeset="67549449" uid="1401244" user="RandomGreekTracker">
    <tag k="amenity" v="fuel"/>
    <tag k="name" v="shell"/>
  </node>
  <node id="3211144019" lat="40.9463346" lon="22.4623489" version="4" timestamp="2019-03-15T06:29:39Z" changeset="68162767" uid="1401244" user="RandomGreekTracker">
    <tag k="amenity" v="fuel"/>
    <tag k="name" v="Shell"/>
  </node>
  <node id="3213796660" lat="42.3096252" lon="23.7854038" version="2" timestamp="2016-12-19T09:58:12Z" changeset="44512001" uid="237594" user="ivanatora">
    <tag k="amenity" v="fuel"/>
    <tag k="operator" v="Круиз"/>
  </node>
  <node id="3294919561" lat="40.8020253" lon="22.0430935" version="1" timestamp="2015-01-17T17:25:20Z" changeset="28214217" uid="218619" user="Andrey Korolyov">
    <tag k="amenity" v="fuel"/>
    <tag k="name" v="BP"/>
  </node>
  <node id="3294919571" lat="40.8041886" lon="22.0027219" version="1" timestamp="2015-01-17T17:25:20Z" changeset="28214217" uid="218619" user="Andrey Korolyov">
    <tag k="amenity" v="fuel"/>
    <tag k="note" v="Exact position to be verified"/>
  </node>
  <node id="3320570402" lat="41.2529196" lon="23.3722496" version="2" timestamp="2015-01-30T16:26:48Z" changeset="28507953" uid="2545608" user="hariskar">
    <tag k="amenity" v="fuel"/>
    <tag k="name" v="Kaoil"/>
  </node>
  <node id="3325309855" lat="41.5433227" lon="23.2712357" version="2" timestamp="2018-06-29T13:32:26Z" changeset="60279852" uid="6789335" user="Jkwood">
    <tag k="amenity" v="fuel"/>
    <tag k="name:en" v="Eurogas"/>
  </node>
  <node id="3325350254" lat="41.0583553" lon="23.6865834" version="3" timestamp="2019-10-05T19:15:45Z" changeset="75326123" uid="3324176" user="SucreRouge">
    <tag k="amenity" v="fuel"/>
    <tag k="brand" v="Shell"/>
    <tag k="brand:wikidata" v="Q154950"/>
    <tag k="brand:wikipedia" v="en:Royal Dutch Shell"/>
    <tag k="name" v="Shell"/>
  </node>
  <node id="3334249508" lat="42.0064583" lon="23.0951967" version="4" timestamp="2017-08-26T21:15:36Z" changeset="51468715" uid="6066236" user="kep0p">
    <tag k="amenity" v="fuel"/>
    <tag k="name" v="OMV"/>
    <tag k="opening_hours" v="24/7"/>
  </node>
  <node id="3363823147" lat="40.6955874" lon="22.9361324" version="2" timestamp="2019-05-17T08:18:24Z" changeset="70346803" uid="615059" user="misht">
    <tag k="amenity" v="fuel"/>
    <tag k="name" v="ΑΠ"/>
  </node>
  <node id="3363825774" lat="40.8424864" lon="22.5097847" version="1" timestamp="2015-02-21T17:54:30Z" changeset="29004360" uid="1401244" user="RandomGreekTracker">
    <tag k="amenity" v="fuel"/>
    <tag k="name" v="revoil"/>
  </node>
  <node id="3486096648" lat="42.5316567" lon="21.0239651" version="4" timestamp="2018-06-02T10:58:10Z" changeset="59482828" uid="7539220" user="Jetmir Bytyqi">
    <tag k="addr:city" v="Qylagë"/>
    <tag k="addr:postcode" v="14000"/>
    <tag k="amenity" v="fuel"/>
    <tag k="fuel:diesel" v="yes"/>
    <tag k="fuel:oil" v="yes"/>
    <tag k="name" v="Vllezerit Bytyçi"/>
    <tag k="opening_hours" v="07:00-23:00"/>
  </node>
  <node id="3507756003" lat="41.4024579" lon="19.6575423" version="1" timestamp="2015-05-09T22:47:31Z" changeset="30949985" uid="2902926" user="Xhendris">
    <tag k="amenity" v="fuel"/>
    <tag k="name" v="Pike Gazi"/>
  </node>
  <node id="3508441906" lat="41.4618060" lon="19.6892302" version="1" timestamp="2015-05-10T12:26:48Z" changeset="30962517" uid="2904012" user="Ervin Kurti">
    <tag k="addr:street" v="VORE"/>
    <tag k="amenity" v="fuel"/>
    <tag k="name" v="BAKALLI"/>
  </node>
  <node id="3508443838" lat="41.4638461" lon="19.6890746" version="1" timestamp="2015-05-10T12:28:47Z" changeset="30962565" uid="2904012" user="Ervin Kurti">
    <tag k="addr:housenumber" v="SH52"/>
    <tag k="amenity" v="fuel"/>
    <tag k="name" v="ELDA"/>
  </node>
  <node id="3508463111" lat="41.3997211" lon="19.6460755" version="1" timestamp="2015-05-10T12:51:46Z" changeset="30963108" uid="2902926" user="Xhendris">
    <tag k="amenity" v="fuel"/>
    <tag k="name" v="Alpet"/>
  </node>
  <node id="3508937793" lat="41.3328554" lon="23.8700705" version="3" timestamp="2019-03-25T06:07:18Z" changeset="68494175" uid="2545608" user="hariskar">
    <tag k="amenity" v="fuel"/>
    <tag k="brand" v="jetoil"/>
    <tag k="name" v="jetoil"/>
  </node>
  <node id="3541612736" lat="41.0963824" lon="23.4734334" version="4" timestamp="2017-11-24T12:42:46Z" changeset="54049153" uid="6240911" user="MHacks">
    <tag k="amenity" v="fuel"/>
    <tag k="brand" v="AEGEAN"/>
    <tag k="name:en" v="Aegean"/>
  </node>
  <node id="3630012554" lat="40.9424196" lon="22.4532238" version="2" timestamp="2018-09-14T12:32:18Z" changeset="62581727" uid="1401244" user="RandomGreekTracker">
    <tag k="amenity" v="fuel"/>
    <tag k="name" v="Aegean"/>
  </node>
  <node id="3635690653" lat="41.3325734" lon="21.5553924" version="1" timestamp="2015-07-05T18:04:34Z" changeset="32432050" uid="131662" user="borces">
    <tag k="amenity" v="fuel"/>
    <tag k="name" v="Салида"/>
  </node>
  <node id="3686035599" lat="42.3565374" lon="20.5638735" version="3" timestamp="2017-04-19T12:25:51Z" changeset="47937156" uid="3377021" user="Marc Konjuhi">
    <tag k="amenity" v="fuel"/>
    <tag k="name" v="AL Petrol"/>
    <tag k="name:sq" v="AL-Petrol"/>
  </node>
  <node id="3722670525" lat="42.3941429" lon="20.6575797" version="6" timestamp="2019-08-20T06:52:38Z" changeset="73523938" uid="523837" user="ValdrinGashi">
    <tag k="amenity" v="fuel"/>
    <tag k="name" v="Shell"/>
  </node>
  <node id="3739678493" lat="42.2850534" lon="22.7033494" version="1" timestamp="2015-09-11T21:45:03Z" changeset="33970768" uid="3206327" user="fraughtwithsounds">
    <tag k="amenity" v="fuel"/>
    <tag k="name" v="Shell"/>
  </node>
  <node id="3751714478" lat="42.3817109" lon="20.4403286" version="2" timestamp="2016-11-04T11:55:30Z" changeset="43399569" uid="787410" user="Yll Ferizi">
    <tag k="addr:city" v="Gjakova"/>
    <tag k="addr:postcode" v="50000"/>
    <tag k="addr:street" v="Tirana"/>
    <tag k="amenity" v="fuel"/>
    <tag k="name" v="IP Petrol"/>
  </node>
  <node id="3751716206" lat="42.3895879" lon="20.4385691" version="2" timestamp="2017-05-10T13:52:20Z" changeset="48562852" uid="787410" user="Yll Ferizi">
    <tag k="amenity" v="fuel"/>
    <tag k="name" v="Pompa B3 Benz"/>
    <tag k="operator" v="B3 Benz"/>
  </node>
  <node id="3751716207" lat="42.3886687" lon="20.4359727" version="2" timestamp="2017-05-10T13:52:20Z" changeset="48562852" uid="787410" user="Yll Ferizi">
    <tag k="amenity" v="fuel"/>
    <tag k="name" v="Pompa Stella 2"/>
  </node>
  <node id="3751716208" lat="42.4009758" lon="20.4389259" version="3" timestamp="2019-07-19T18:26:06Z" changeset="72442589" uid="10165601" user="DillenMulaj">
    <tag k="amenity" v="fuel"/>
    <tag k="brand" v="Niko-S Group"/>
    <tag k="internet_access" v="wlan"/>
    <tag k="name" v="Niko-S Group"/>
    <tag k="opening_hours" v="24/7"/>
  </node>
  <node id="3762047859" lat="42.3840578" lon="20.4389372" version="3" timestamp="2019-07-19T18:26:05Z" changeset="72442589" uid="10165601" user="DillenMulaj">
    <tag k="addr:city" v="Gjakova"/>
    <tag k="addr:postcode" v="50000"/>
    <tag k="addr:street" v="Tirana"/>
    <tag k="amenity" v="fuel"/>
    <tag k="name" v="Niki-S"/>
    <tag k="opening_hours" v="Mo-Su 07:00-23:00"/>
  </node>
  <node id="3762057552" lat="42.3698550" lon="20.4191156" version="2" timestamp="2017-06-26T21:29:50Z" changeset="49847637" uid="4989456" user="Nikson Pnishi">
    <tag k="addr:postcode" v="50000"/>
    <tag k="addr:street" v="Minatori"/>
    <tag k="amenity" v="fuel"/>
    <tag k="internet_access" v="wlan"/>
    <tag k="name" v="Komani Petrol"/>
    <tag k="name:sq" v="Komani Petrol"/>
    <tag k="opening_hours" v="Mo-Su 06:00-00:00"/>
  </node>
  <node id="3762695124" lat="42.5353740" lon="21.0058489" version="3" timestamp="2018-09-20T15:40:18Z" changeset="62767171" uid="3377021" user="Marc Konjuhi">
    <tag k="amenity" v="fuel"/>
    <tag k="name" v="Trimi"/>
  </node>
  <node id="3767146811" lat="41.0634510" lon="23.3517364" version="7" timestamp="2020-01-21T07:42:27Z" changeset="79838279" uid="9221753" user="Map-Finder">
    <tag k="amenity" v="fuel"/>
    <tag k="brand" v="Shell"/>
    <tag k="brand:wikidata" v="Q154950"/>
    <tag k="brand:wikipedia" v="en:Royal Dutch Shell"/>
    <tag k="name" v="Shell"/>
  </node>
  <node id="3781344397" lat="40.6826469" lon="22.9252052" version="1" timestamp="2015-10-10T21:36:41Z" changeset="34558666" uid="3301025" user="bithoulas">
    <tag k="amenity" v="fuel"/>
    <tag k="name" v="AVIN"/>
  </node>
  <node id="3781556758" lat="41.2504123" lon="22.4801699" version="1" timestamp="2015-10-11T02:45:09Z" changeset="34561400" uid="131662" user="borces">
    <tag k="amenity" v="fuel"/>
    <tag k="name" v="РТ Петрол"/>
  </node>
  <node id="3782679107" lat="41.4393910" lon="22.6533872" version="1" timestamp="2015-10-11T23:47:27Z" changeset="34580211" uid="131662" user="borces">
    <tag k="amenity" v="fuel"/>
    <tag k="name" v="Бензоил"/>
    <tag k="name:en" v="Benzoil"/>
  </node>
  <node id="3784770410" lat="41.4744482" lon="22.6354573" version="1" timestamp="2015-10-13T13:53:52Z" changeset="34612189" uid="131662" user="borces">
    <tag k="amenity" v="fuel"/>
    <tag k="name" v="ТритеролБенз"/>
    <tag k="name:en" v="TriterolBenz"/>
  </node>
  <node id="3784770413" lat="41.4519410" lon="22.6392652" version="1" timestamp="2015-10-13T13:53:52Z" changeset="34612189" uid="131662" user="borces">
    <tag k="amenity" v="fuel"/>
    <tag k="name" v="ГамаОил"/>
    <tag k="name:en" v="GamaOil"/>
  </node>
  <node id="3786019602" lat="41.5807256" lon="22.5187978" version="1" timestamp="2015-10-14T11:43:21Z" changeset="34631187" uid="131662" user="borces">
    <tag k="amenity" v="fuel"/>
    <tag k="name" v="Макпетрол"/>
    <tag k="name:en" v="Makpetrol"/>
  </node>
  <node id="3789130262" lat="41.9482661" lon="21.4941204" version="1" timestamp="2015-10-16T15:01:52Z" changeset="34676598" uid="131662" user="borces">
    <tag k="amenity" v="fuel"/>
    <tag k="name" v="РТ Петрол"/>
    <tag k="name:en" v="RT Petrol"/>
  </node>
  <node id="3804039486" lat="40.8710405" lon="23.8960313" version="1" timestamp="2015-10-26T19:40:58Z" changeset="34889626" uid="1401244" user="RandomGreekTracker">
    <tag k="amenity" v="fuel"/>
    <tag k="name" v="ΕΚΟ"/>
  </node>
  <node id="3804039636" lat="40.8499845" lon="23.8537172" version="3" timestamp="2017-01-01T01:35:36Z" changeset="44815990" uid="2700471" user="JayCBR">
    <tag k="amenity" v="fuel"/>
    <tag k="name" v="cyclon"/>
  </node>
  <node id="3804952223" lat="41.9918127" lon="21.4928064" version="1" timestamp="2015-10-27T13:10:38Z" changeset="34903115" uid="131662" user="borces">
    <tag k="amenity" v="fuel"/>
    <tag k="name" v="Мотоцентар"/>
  </node>
  <node id="3804952226" lat="41.9900511" lon="21.4963956" version="2" timestamp="2019-02-18T15:25:49Z" changeset="67319805" uid="8759590" user="daFisch">
    <tag k="amenity" v="fuel"/>
    <tag k="name" v="АП Петрол"/>
    <tag k="name:en" v="AP Petrol"/>
  </node>
  <node id="3845304308" lat="40.7133438" lon="22.7276017" version="1" timestamp="2015-11-19T19:29:35Z" changeset="35444531" uid="2879819" user="mrpaulos">
    <tag k="amenity" v="fuel"/>
    <tag k="name" v="REVOIL"/>
  </node>
  <node id="3875007821" lat="41.0772810" lon="23.5386478" version="2" timestamp="2017-11-27T05:07:58Z" changeset="54111944" uid="6908791" user="bankfreak">
    <tag k="addr:city" v="Σέρρες"/>
    <tag k="addr:housenumber" v="162"/>
    <tag k="addr:street" v="10ης Μεραρχίας"/>
    <tag k="amenity" v="fuel"/>
    <tag k="name" v="Καρακίτσιου Ανδρομάχη"/>
  </node>
  <node id="3922197763" lat="41.9979550" lon="20.9614912" version="1" timestamp="2016-01-01T16:43:52Z" changeset="36301240" uid="344903" user="Toyota_79">
    <tag k="amenity" v="fuel"/>
    <tag k="brand" v="independent"/>
  </node>
  <node id="3998837934" lat="42.0749649" lon="20.4048950" version="1" timestamp="2016-02-10T10:25:47Z" changeset="37121164" uid="344903" user="Toyota_79">
    <tag k="amenity" v="fuel"/>
    <tag k="brand" v="Oruçi"/>
    <tag k="name" v="Oruçi"/>
  </node>
  <node id="4052790389" lat="40.7278495" lon="19.9420824" version="1" timestamp="2016-03-10T11:37:15Z" changeset="37731593" uid="344903" user="Toyota_79">
    <tag k="amenity" v="fuel"/>
    <tag k="name" v="G oil"/>
  </node>
  <node id="4074792192" lat="40.7309570" lon="19.9407150" version="2" timestamp="2017-12-30T11:20:03Z" changeset="55031735" uid="4672381" user="Berati">
    <tag k="amenity" v="fuel"/>
    <tag k="name" v="Sprint Berat"/>
    <tag k="name:en" v="BOLV OIL Berat"/>
    <tag k="name:sq" v="BOLV OIL BERAT"/>
    <tag k="operator" v="Sprint"/>
  </node>
  <node id="4089163064" lat="41.2536964" lon="22.7961005" version="1" timestamp="2016-03-31T22:49:18Z" changeset="38214873" uid="30255" user="Tomi">
    <tag k="addr:city" v="Μουριές"/>
    <tag k="amenity" v="fuel"/>
    <tag k="name" v="JetOil"/>
  </node>
  <node id="4129575529" lat="41.2611482" lon="22.8371366" version="1" timestamp="2016-04-18T05:09:32Z" changeset="38657491" uid="30255" user="Tomi">
    <tag k="amenity" v="fuel"/>
    <tag k="name" v="EKO"/>
  </node>
  <node id="4152012556" lat="41.2631891" lon="22.8414327" version="1" timestamp="2016-04-27T20:31:39Z" changeset="38933605" uid="30255" user="Tomi">
    <tag k="amenity" v="fuel"/>
    <tag k="name" v="Kaoil"/>
  </node>
  <node id="4194675502" lat="40.9920170" lon="22.5913012" version="1" timestamp="2016-05-19T07:00:21Z" changeset="39416585" uid="103001" user="Alexandr-cfif">
    <tag k="amenity" v="fuel"/>
    <tag k="name" v="АП"/>
  </node>
  <node id="4242359092" lat="41.0639317" lon="20.0512768" version="1" timestamp="2016-06-14T06:18:21Z" changeset="40009905" uid="2866312" user="indrit">
    <tag k="amenity" v="fuel"/>
    <tag k="name" v="VD OIL"/>
    <tag k="opening_hours" v="24/7"/>
  </node>
  <node id="4247659190" lat="41.8523365" lon="20.8890852" version="2" timestamp="2016-08-26T22:48:34Z" changeset="41725329" uid="4130755" user="Adem ZUBERI">
    <tag k="addr:postcode" v="1238"/>
    <tag k="amenity" v="fuel"/>
    <tag k="internet_access" v="wlan"/>
    <tag k="name" v="TopPetrol"/>
    <tag k="opening_hours" v="24/7"/>
  </node>
  <node id="4318215504" lat="42.3798893" lon="20.6336354" version="3" timestamp="2019-02-07T22:40:28Z" changeset="67009166" uid="8168945" user="Xhan Haxhijaha">
    <tag k="addr:street" v="R-110"/>
    <tag k="amenity" v="fuel"/>
    <tag k="internet_access" v="wlan"/>
    <tag k="name" v="Haxhijaha"/>
    <tag k="name:en" v="Haxhijaha Trade"/>
    <tag k="name:sq" v="Haxhijaha Trade"/>
    <tag k="name:sr" v="Haxhijaha Trade"/>
    <tag k="website" v="http://www.haxhijahatrade.com"/>
  </node>
  <node id="4319936863" lat="42.3749814" lon="21.1483876" version="4" timestamp="2019-03-20T13:50:36Z" changeset="68336875" uid="9451067" user="b-jazz-bot">
    <tag k="addr:postcode" v="70000"/>
    <tag k="addr:street" v="Driton Islami"/>
    <tag k="amenity" v="fuel"/>
    <tag k="email" v="info@hibpetrol.com"/>
    <tag k="internet_access" v="wlan"/>
    <tag k="name" v="HIB Petrol"/>
    <tag k="name:de" v="HIB Petrol"/>
    <tag k="name:en" v="HIB Petrol"/>
    <tag k="name:sq" v="HIB Petrol"/>
    <tag k="opening_hours" v="24/7"/>
    <tag k="phone" v="+38338777777"/>
    <tag k="website" v="https://hibpetrol.com/"/>
  </node>
  <node id="4323529089" lat="42.3543765" lon="20.0791599" version="1" timestamp="2016-07-27T16:19:27Z" changeset="41066455" uid="4313043" user="Sjoerd Minheere">
    <tag k="amenity" v="fuel"/>
    <tag k="name" v="Tuli Petrol"/>
  </node>
  <node id="4350099301" lat="40.8294425" lon="20.7376644" version="2" timestamp="2016-12-24T15:45:33Z" changeset="44647197" uid="1751908" user="Blues Brothers">
    <tag k="amenity" v="fuel"/>
    <tag k="name" v="Gas station"/>
  </node>
  <node id="4361516296" lat="40.7927537" lon="23.8342624" version="2" timestamp="2020-03-23T08:26:15Z" changeset="82512123" uid="9023585" user="Oguzhaner">
    <tag k="amenity" v="fuel"/>
    <tag k="name" v="Shel - Nea Kerdilia"/>
  </node>
  <node id="4361620394" lat="42.4775260" lon="23.7981200" version="2" timestamp="2016-09-07T19:05:50Z" changeset="41987050" uid="150201" user="plamen">
    <tag k="amenity" v="fuel"/>
    <tag k="brand" v="Лукойл"/>
    <tag k="fuel:diesel" v="yes"/>
    <tag k="fuel:octane_95" v="yes"/>
    <tag k="fuel:octane_98" v="yes"/>
  </node>
  <node id="4371519093" lat="41.3301901" lon="19.8422159" version="2" timestamp="2019-09-19T20:56:32Z" changeset="74695361" uid="9965337" user="ReedtheRiver">
    <tag k="amenity" v="fuel"/>
    <tag k="name" v="Market"/>
    <tag k="name:sq" v="Market"/>
  </node>
  <node id="4373516898" lat="41.3028414" lon="19.7450039" version="2" timestamp="2016-12-20T14:39:25Z" changeset="44542801" uid="712336" user="DenisJu">
    <tag k="amenity" v="fuel"/>
    <tag k="name" v="Euro Petrol"/>
    <tag k="name:sq" v="Euro Petrol"/>
  </node>
  <node id="4378886599" lat="42.2009202" lon="20.4088733" version="2" timestamp="2019-10-09T05:27:58Z" changeset="75438282" uid="8689845" user="el sid">
    <tag k="amenity" v="fuel"/>
    <tag k="name" v="Hasoil"/>
  </node>
  <node id="4378886601" lat="42.0811858" lon="20.4212296" version="1" timestamp="2016-09-01T09:50:13Z" changeset="41844816" uid="340741" user="CRCulver">
    <tag k="amenity" v="fuel"/>
    <tag k="name" v="Bolv Oil"/>
  </node>
  <node id="4378886602" lat="42.2160223" lon="20.3980882" version="1" timestamp="2016-09-01T09:50:13Z" changeset="41844816" uid="340741" user="CRCulver">
    <tag k="amenity" v="fuel"/>
    <tag k="name" v="Dervishi Petrol"/>
  </node>
  <node id="4378886605" lat="42.1880722" lon="20.3899014" version="2" timestamp="2019-10-09T05:28:30Z" changeset="75438300" uid="8689845" user="el sid">
    <tag k="amenity" v="fuel"/>
    <tag k="fuel:diesel" v="yes"/>
    <tag k="fuel:octane_95" v="yes"/>
    <tag k="name" v="Kastrati"/>
  </node>
  <node id="4378886606" lat="42.1985676" lon="20.4114550" version="1" timestamp="2016-09-01T09:50:14Z" changeset="41844816" uid="340741" user="CRCulver">
    <tag k="amenity" v="fuel"/>
    <tag k="name" v="Kastrati"/>
  </node>
  <node id="4378886607" lat="42.2470982" lon="20.3751231" version="1" timestamp="2016-09-01T09:50:14Z" changeset="41844816" uid="340741" user="CRCulver">
    <tag k="amenity" v="fuel"/>
    <tag k="internet_access" v="wlan"/>
    <tag k="name" v="Kastrati"/>
  </node>
  <node id="4378886608" lat="42.1921163" lon="20.4042271" version="1" timestamp="2016-09-01T09:50:14Z" changeset="41844816" uid="340741" user="CRCulver">
    <tag k="amenity" v="fuel"/>
    <tag k="name" v="Syla"/>
  </node>
  <node id="4378886609" lat="42.1701923" lon="20.3804882" version="1" timestamp="2016-09-01T09:50:14Z" changeset="41844816" uid="340741" user="CRCulver">
    <tag k="amenity" v="fuel"/>
    <tag k="name" v="Xhaferi Petrol"/>
  </node>
  <node id="4379144695" lat="40.7664669" lon="19.9024463" version="1" timestamp="2016-09-01T13:33:02Z" changeset="41849325" uid="4489954" user="673a_t">
    <tag k="amenity" v="fuel"/>
    <tag k="name" v="Idrizi Oil"/>
    <tag k="name:sq" v="Idrizi Oil"/>
  </node>
  <node id="4379144696" lat="40.7070258" lon="19.9404782" version="1" timestamp="2016-09-01T13:33:09Z" changeset="41849325" uid="4489954" user="673a_t">
    <tag k="amenity" v="fuel"/>
    <tag k="name" v="Gulf"/>
    <tag k="name:sq" v="Gulf"/>
  </node>
  <node id="4379146301" lat="40.7784773" lon="19.8618712" version="1" timestamp="2016-09-01T13:32:57Z" changeset="41849325" uid="4489954" user="673a_t">
    <tag k="amenity" v="fuel"/>
    <tag k="name" v="Renci"/>
    <tag k="name:sq" v="Renci"/>
  </node>
  <node id="4379186291" lat="40.7417455" lon="19.9353207" version="1" timestamp="2016-09-01T13:33:04Z" changeset="41849325" uid="4489954" user="673a_t">
    <tag k="amenity" v="fuel"/>
    <tag k="name" v="Kastrati"/>
    <tag k="name:sq" v="Kastrati"/>
  </node>
  <node id="4379186390" lat="40.7188044" lon="19.9436803" version="1" timestamp="2016-09-01T13:33:07Z" changeset="41849325" uid="4489954" user="673a_t">
    <tag k="amenity" v="fuel"/>
    <tag k="name" v="Luan Oil"/>
    <tag k="name:sq" v="Luan Oil"/>
  </node>
  <node id="4379199990" lat="40.7006922" lon="19.6210747" version="1" timestamp="2016-09-01T13:32:49Z" changeset="41849325" uid="4489954" user="673a_t">
    <tag k="amenity" v="fuel"/>
    <tag k="name" v="Eranxhi"/>
    <tag k="name:sq" v="Eranxhi"/>
  </node>
  <node id="4379221689" lat="40.7766459" lon="19.8650620" version="1" timestamp="2016-09-01T13:33:00Z" changeset="41849325" uid="4489954" user="673a_t">
    <tag k="amenity" v="fuel"/>
    <tag k="name" v="Mono Petrol"/>
    <tag k="name:sq" v="Mono Petrol"/>
  </node>
  <node id="4380818690" lat="41.9151734" lon="19.5949673" version="1" timestamp="2016-09-02T14:34:29Z" changeset="41870410" uid="4489954" user="673a_t">
    <tag k="amenity" v="fuel"/>
    <tag k="name" v="Gega Oil"/>
    <tag k="name:sq" v="Gega Oil"/>
  </node>
  <node id="4393908041" lat="41.6784605" lon="20.4371564" version="1" timestamp="2016-09-09T19:25:03Z" changeset="42044193" uid="340741" user="CRCulver">
    <tag k="amenity" v="fuel"/>
    <tag k="name" v="Bolv Oil"/>
  </node>
  <node id="4393908043" lat="41.6442810" lon="20.4582131" version="1" timestamp="2016-09-09T19:25:03Z" changeset="42044193" uid="340741" user="CRCulver">
    <tag k="amenity" v="fuel"/>
    <tag k="name" v="Meba 96"/>
  </node>
  <node id="4394015452" lat="41.0711948" lon="20.5590950" version="2" timestamp="2017-01-05T23:09:12Z" changeset="44939007" uid="1751908" user="Blues Brothers">
    <tag k="amenity" v="fuel"/>
    <tag k="name" v="Elda"/>
  </node>
  <node id="4394015454" lat="41.0922799" lon="20.4451011" version="1" timestamp="2016-09-09T20:23:05Z" changeset="42046396" uid="340741" user="CRCulver">
    <tag k="amenity" v="fuel"/>
    <tag k="name" v="Loshi Oil"/>
  </node>
  <node id="4394015455" lat="41.2320523" lon="20.3034657" version="1" timestamp="2016-09-09T20:23:05Z" changeset="42046396" uid="340741" user="CRCulver">
    <tag k="amenity" v="fuel"/>
    <tag k="name" v="Musta Oil"/>
  </node>
  <node id="4396572181" lat="40.8597421" lon="20.6944228" version="1" timestamp="2016-09-11T19:53:46Z" changeset="42086135" uid="340741" user="CRCulver">
    <tag k="amenity" v="fuel"/>
    <tag k="name" v="Gora Oil"/>
  </node>
  <node id="4399007194" lat="40.7839700" lon="19.6416190" version="3" timestamp="2019-06-10T13:32:48Z" changeset="71103040" uid="436419" user="wvdp">
    <tag k="addr:housenumber" v="kp190"/>
    <tag k="amenity" v="fuel"/>
    <tag k="fixme" v="is this sill here?"/>
    <tag k="name" v="TAP pipeline station kp191"/>
    <tag k="name:sq" v="TAP pipeline station"/>
  </node>
  <node id="4400953294" lat="40.7850919" lon="19.7919965" version="1" timestamp="2016-09-14T10:45:21Z" changeset="42146302" uid="4571664" user="Péter Sas">
    <tag k="amenity" v="fuel"/>
    <tag k="name" v="2N shehu"/>
    <tag k="name:sq" v="2N shehu"/>
  </node>
  <node id="4401013232" lat="41.1431342" lon="22.5325294" version="1" timestamp="2016-09-14T11:05:03Z" changeset="42146716" uid="131662" user="borces">
    <tag k="amenity" v="fuel"/>
    <tag k="name" v="Лукоил"/>
    <tag k="name:en" v="Lukoil"/>
    <tag k="operator" v="Лукоил"/>
  </node>
  <node id="4409504193" lat="41.0652091" lon="20.5910955" version="1" timestamp="2016-09-20T11:58:13Z" changeset="42296949" uid="3117866" user="timwenzel98">
    <tag k="amenity" v="fuel"/>
    <tag k="name" v="Pungu Oil"/>
    <tag k="name:sq" v="Pungu Oil"/>
  </node>
  <node id="4414468090" lat="42.5407605" lon="20.2884688" version="2" timestamp="2017-04-19T12:19:41Z" changeset="47936939" uid="3377021" user="Marc Konjuhi">
    <tag k="amenity" v="fuel"/>
    <tag k="name" v="AL Petrol"/>
    <tag k="name:sq" v="Al-Petrol"/>
  </node>
  <node id="4414476691" lat="42.5314810" lon="20.2946661" version="2" timestamp="2018-09-11T19:32:50Z" changeset="62499903" uid="3377021" user="Marc Konjuhi">
    <tag k="amenity" v="fuel"/>
    <tag k="name" v="Petrol Company"/>
  </node>
  <node id="4416583610" lat="41.7006200" lon="19.6918586" version="1" timestamp="2016-09-24T17:53:35Z" changeset="42409099" uid="340741" user="CRCulver">
    <tag k="amenity" v="fuel"/>
    <tag k="name" v="Toma Oil"/>
  </node>
  <node id="4417389100" lat="42.4707624" lon="21.0813317" version="4" timestamp="2018-10-04T13:38:39Z" changeset="63196369" uid="2755052" user="bylent">
    <tag k="amenity" v="fuel"/>
    <tag k="name" v="AL Petrol"/>
    <tag k="name:en" v="AL-Petrol"/>
    <tag k="name:sq" v="AL-Petrol"/>
  </node>
  <node id="4420215195" lat="40.7630155" lon="19.7327390" version="2" timestamp="2017-04-16T19:35:44Z" changeset="47847000" uid="5681840" user="Marjol Guri">
    <tag k="amenity" v="fuel"/>
    <tag k="name" v="Kp181"/>
    <tag k="name:en" v="Pipeline kp181"/>
    <tag k="name:sq" v="Kp181"/>
  </node>
  <node id="4437838704" lat="42.2771051" lon="21.1741343" version="2" timestamp="2020-07-25T21:07:16Z" changeset="88506463" uid="11334187" user="demnikagim">
    <tag k="amenity" v="fuel"/>
    <tag k="name" v="Liria Petrol"/>
  </node>
  <node id="4481472790" lat="41.3358346" lon="19.7970432" version="5" timestamp="2019-10-16T22:26:17Z" changeset="75803657" uid="10304496" user="sarahdenise">
    <tag k="addr:city" v="Tirana"/>
    <tag k="addr:street" v="Rruga Dritan Hoxha"/>
    <tag k="amenity" v="fuel"/>
    <tag k="brand" v="Kastrati"/>
    <tag k="name" v="Kastrati"/>
    <tag k="name:en" v="Kastrati"/>
    <tag k="name:sq" v="Kastrati"/>
  </node>
  <node id="4481554877" lat="42.3662875" lon="20.4654943" version="2" timestamp="2019-09-13T18:47:36Z" changeset="74451677" uid="9368512" user="beep_boop">
    <tag k="addr:city" v="Gjakova"/>
    <tag k="addr:postcode" v="50000"/>
    <tag k="amenity" v="fuel"/>
    <tag k="name" v="Slovenia Petrol"/>
  </node>
  <node id="4502456689" lat="41.9406016" lon="20.9269459" version="1" timestamp="2016-11-15T13:41:50Z" changeset="43671049" uid="4617400" user="IN Media">
    <tag k="addr:postcode" v="1221"/>
    <tag k="addr:street" v="101"/>
    <tag k="amenity" v="fuel"/>
    <tag k="name" v="Fer Petrol"/>
    <tag k="name:en" v="Fer Petrol"/>
    <tag k="name:mk" v="Fer Petrol"/>
    <tag k="name:sq" v="Fer Petrol"/>
  </node>
  <node id="4502469394" lat="41.9633441" lon="20.9335882" version="1" timestamp="2016-11-15T14:01:13Z" changeset="43671443" uid="4617400" user="IN Media">
    <tag k="amenity" v="fuel"/>
    <tag k="name" v="HitOil"/>
    <tag k="name:en" v="HitOil"/>
    <tag k="name:mk" v="HitOil"/>
    <tag k="name:sq" v="Hit Oil"/>
  </node>
  <node id="4515054890" lat="41.3725591" lon="19.7441953" version="1" timestamp="2016-11-22T09:34:01Z" changeset="43866104" uid="4705730" user="AnisKoutsi">
    <tag k="amenity" v="fuel"/>
    <tag k="name" v="Eida"/>
    <tag k="name:en" v="Eida"/>
    <tag k="name:sq" v="Eida"/>
  </node>
  <node id="4518932093" lat="41.3511052" lon="19.7713449" version="1" timestamp="2016-11-24T13:38:32Z" changeset="43921045" uid="4705730" user="AnisKoutsi">
    <tag k="amenity" v="fuel"/>
    <tag k="name" v="Kastrati"/>
    <tag k="name:sq" v="Kastrati"/>
  </node>
  <node id="4519733537" lat="40.7345695" lon="19.6996114" version="1" timestamp="2016-11-24T23:06:45Z" changeset="43933695" uid="1279692" user="gjergjde">
    <tag k="amenity" v="fuel"/>
    <tag k="name" v="Çepele"/>
  </node>
  <node id="4523441092" lat="42.4982084" lon="21.1740444" version="1" timestamp="2016-11-26T15:09:54Z" changeset="43965317" uid="3377021" user="Marc Konjuhi">
    <tag k="amenity" v="fuel"/>
    <tag k="name" v="Standard"/>
  </node>
  <node id="4524001007" lat="42.2662999" lon="20.3809812" version="1" timestamp="2016-11-26T22:59:07Z" changeset="43973471" uid="1279692" user="gjergjde">
    <tag k="amenity" v="fuel"/>
    <tag k="name" v="Egzoni"/>
  </node>
  <node id="4524945186" lat="40.7336869" lon="19.6988519" version="1" timestamp="2016-11-27T16:28:50Z" changeset="43986865" uid="1279692" user="gjergjde">
    <tag k="addr:city" v="Roskovec"/>
    <tag k="amenity" v="fuel"/>
    <tag k="name" v="Isufaj"/>
  </node>
  <node id="4533351589" lat="42.3740666" lon="20.4455029" version="2" timestamp="2017-05-10T13:55:50Z" changeset="48562944" uid="787410" user="Yll Ferizi">
    <tag k="amenity" v="fuel"/>
    <tag k="name" v="AS Comm"/>
  </node>
  <node id="4533824727" lat="41.2052685" lon="19.8200354" version="1" timestamp="2016-12-02T11:43:21Z" changeset="44112314" uid="4903516" user="Sidorela">
    <tag k="amenity" v="fuel"/>
    <tag k="name" v="Zela Oil"/>
  </node>
  <node id="4535567392" lat="40.7149414" lon="22.7199711" version="2" timestamp="2018-07-21T19:57:09Z" changeset="60938307" uid="161619" user="FvGordon">
    <tag k="addr:housenumber" v="154"/>
    <tag k="addr:postcode" v="57003"/>
    <tag k="addr:street" v="Αθηνών"/>
    <tag k="amenity" v="fuel"/>
    <tag k="name" v="SHELL"/>
    <tag k="name:el" v="SHELL"/>
    <tag k="phone" v="2310701203"/>
  </node>
  <node id="4548140893" lat="41.3201180" lon="19.8163085" version="3" timestamp="2020-07-07T15:33:21Z" changeset="87663096" uid="9531524" user="Jerry Jorts">
    <tag k="addr:city" v="Tirana"/>
    <tag k="amenity" v="fuel"/>
    <tag k="brand" v="Alpet"/>
    <tag k="brand:wikidata" v="Q62131561"/>
    <tag k="fuel:diesel" v="yes"/>
    <tag k="fuel:octane_98" v="yes"/>
    <tag k="name" v="Alpet"/>
    <tag k="opening_hours" v="24/7"/>
    <tag k="website" v="http://alpet.al/"/>
    <tag k="wheelchair" v="limited"/>
  </node>
  <node id="4549198713" lat="41.1128850" lon="20.0736325" version="3" timestamp="2018-01-26T20:27:16Z" changeset="55784958" uid="7508770" user="KristinaQejvanaj">
    <tag k="addr:city" v="Elbasan"/>
    <tag k="amenity" v="fuel"/>
    <tag k="name" v="Gega Oil"/>
    <tag k="opening_hours" v="24/7"/>
    <tag k="operator" v="Gega Oil"/>
    <tag k="phone" v="+355 44 51 81 81"/>
    <tag k="website" v="http://gegaoil.al/gas-stations/"/>
  </node>
  <node id="4558538122" lat="42.4545848" lon="21.4991415" version="2" timestamp="2019-04-19T22:18:40Z" changeset="69390716" uid="40611" user="Stereo">
    <tag k="amenity" v="fuel"/>
    <tag k="opening_hours" v="24/7"/>
  </node>
  <node id="4561527619" lat="42.3087255" lon="23.8478765" version="1" timestamp="2016-12-19T09:54:58Z" changeset="44511928" uid="237594" user="ivanatora">
    <tag k="amenity" v="fuel"/>
    <tag k="name" v="Пегас"/>
  </node>
  <node id="4561530316" lat="42.3121654" lon="23.7129064" version="1" timestamp="2016-12-19T09:58:11Z" changeset="44512001" uid="237594" user="ivanatora">
    <tag k="amenity" v="fuel"/>
    <tag k="operator" v="Котарски Комерс"/>
  </node>
  <node id="4566843110" lat="41.2929618" lon="19.7277261" version="1" timestamp="2016-12-22T13:00:33Z" changeset="44590233" uid="712336" user="DenisJu">
    <tag k="amenity" v="fuel"/>
    <tag k="fuel:diesel" v="yes"/>
    <tag k="fuel:octane_98" v="yes"/>
    <tag k="name" v="Gulf"/>
    <tag k="opening_hours" v="24/7"/>
    <tag k="shop" v="no"/>
    <tag k="wheelchair" v="limited"/>
  </node>
  <node id="4566843134" lat="41.2929426" lon="19.7266223" version="1" timestamp="2016-12-22T13:00:33Z" changeset="44590233" uid="712336" user="DenisJu">
    <tag k="amenity" v="fuel"/>
    <tag k="fuel:diesel" v="yes"/>
    <tag k="fuel:octane_98" v="yes"/>
    <tag k="name" v="Karburant"/>
    <tag k="opening_hours" v="24/7"/>
    <tag k="wheelchair" v="limited"/>
  </node>
  <node id="4567581890" lat="41.3490897" lon="19.8915935" version="1" timestamp="2016-12-22T22:03:28Z" changeset="44603751" uid="5000065" user="Ardit Skenderi">
    <tag k="addr:housenumber" v="1001"/>
    <tag k="addr:postcode" v="1001"/>
    <tag k="addr:street" v="Rruga internaciole Dajt"/>
    <tag k="amenity" v="fuel"/>
    <tag k="email" v="ardit.skenderi@gmail.com"/>
    <tag k="name" v="Lanabregas, Tirane"/>
    <tag k="operator" v="Haines Oil"/>
    <tag k="phone" v="00355684098400"/>
  </node>
  <node id="4579034491" lat="42.4003472" lon="20.6430640" version="2" timestamp="2019-03-07T16:36:18Z" changeset="67890050" uid="3377021" user="Marc Konjuhi">
    <tag k="addr:postcode" v="21000"/>
    <tag k="addr:street" v="UÇK"/>
    <tag k="amenity" v="fuel"/>
    <tag k="email" v="rama.shpk@hotmail.com"/>
    <tag k="internet_access" v="wlan"/>
    <tag k="name" v="Rama Petrol"/>
    <tag k="name:sq" v="Rama Petrol"/>
    <tag k="name:sr" v="Rama Petrol"/>
    <tag k="operator" v="Avni Rama"/>
    <tag k="phone" v="+38349243137"/>
  </node>
  <node id="4587106913" lat="40.9698154" lon="22.0564984" version="1" timestamp="2017-01-03T15:06:13Z" changeset="44873643" uid="4960836" user="Sphome">
    <tag k="amenity" v="fuel"/>
    <tag k="name" v="Βενζίνη"/>
    <tag k="name:el" v="Βενζίνη"/>
  </node>
  <node id="4587500890" lat="41.1013473" lon="20.0818767" version="1" timestamp="2017-01-03T17:44:35Z" changeset="44877412" uid="5070879" user="Arbri Demiraj">
    <tag k="addr:postcode" v="3001"/>
    <tag k="addr:street" v="Rruga Thoma Kalefi"/>
    <tag k="amenity" v="fuel"/>
    <tag k="name" v="AK OIL"/>
    <tag k="name:sq" v="AK OIL"/>
    <tag k="opening_hours" v="24/7"/>
  </node>
  <node id="4595271394" lat="41.2387779" lon="19.7997289" version="1" timestamp="2017-01-07T21:10:08Z" changeset="44988485" uid="4903516" user="Sidorela">
    <tag k="amenity" v="fuel"/>
    <tag k="name" v="Sefa Oil"/>
  </node>
  <node id="4613212953" lat="41.2637562" lon="19.8658644" version="2" timestamp="2017-01-18T16:07:00Z" changeset="45273537" uid="712336" user="DenisJu">
    <tag k="amenity" v="fuel"/>
    <tag k="name" v="JETOIL"/>
  </node>
  <node id="4622373290" lat="42.3618935" lon="20.8544221" version="2" timestamp="2019-03-07T16:41:06Z" changeset="67890223" uid="3377021" user="Marc Konjuhi">
    <tag k="addr:postcode" v="23000"/>
    <tag k="addr:street" v="Deshmoret e Reqanit"/>
    <tag k="amenity" v="fuel"/>
    <tag k="internet_access" v="wlan"/>
    <tag k="name" v="Harea Petrol"/>
    <tag k="name:en" v="Harea Petrol"/>
    <tag k="name:sq" v="Harea Petrol"/>
    <tag k="name:sr" v="Harea Petrol"/>
    <tag k="opening_hours" v="Mo-Su 06:00-22:00"/>
    <tag k="phone" v="+38349458723"/>
    <tag k="website" v="http://www.hareapetrol.net"/>
  </node>
  <node id="4623110196" lat="42.3617799" lon="20.8545381" version="2" timestamp="2019-03-07T16:34:36Z" changeset="67889973" uid="3377021" user="Marc Konjuhi">
    <tag k="addr:postcode" v="23000"/>
    <tag k="addr:street" v="Deshmoret e Reqanit"/>
    <tag k="amenity" v="fuel"/>
    <tag k="internet_access" v="wlan"/>
    <tag k="name" v="Harea Petrol"/>
    <tag k="name:en" v="Harea Petrol"/>
    <tag k="name:sq" v="Harea Petrol"/>
    <tag k="opening_hours" v="Mo-Su 06:00-22:00"/>
    <tag k="phone" v="+38349458723"/>
    <tag k="website" v="http://www.hareapetrol.net"/>
  </node>
  <node id="4643598994" lat="41.3390076" lon="19.7878836" version="4" timestamp="2019-10-16T16:49:30Z" changeset="75793724" uid="10304496" user="sarahdenise">
    <tag k="addr:street" v="Rruga Dritan Hoxha"/>
    <tag k="amenity" v="fuel"/>
    <tag k="brand" v="Eida"/>
    <tag k="name" v="Eida karburant"/>
    <tag k="name:en" v="Gas station Eida"/>
    <tag k="name:sq" v="Eida karburant"/>
  </node>
  <node id="4711512289" lat="41.4053743" lon="23.2045670" version="1" timestamp="2017-03-01T10:32:44Z" changeset="46490361" uid="5387250" user="Vladimir Kio">
    <tag k="amenity" v="fuel"/>
    <tag k="name:ru" v="CNG ГАЗ МЕТАН GAZ METAN"/>
  </node>
  <node id="4716777892" lat="42.3682880" lon="21.1558849" version="3" timestamp="2019-11-11T11:20:10Z" changeset="76903634" uid="10455696" user="AlbertVishi">
    <tag k="addr:postcode" v="70000"/>
    <tag k="addr:street" v="Kemajl Hetemi"/>
    <tag k="amenity" v="fuel"/>
    <tag k="internet_access" v="wlan"/>
    <tag k="name" v="Auto Servis Edi Gas"/>
    <tag k="name:en" v="Auto Service Edi Gas"/>
    <tag k="name:sq" v="Auto Servis Edi Gas"/>
    <tag k="phone" v="+38344631486"/>
  </node>
  <node id="4723683617" lat="42.3521165" lon="23.5496372" version="1" timestamp="2017-03-08T08:53:23Z" changeset="46674145" uid="2542395" user="bgfen">
    <tag k="amenity" v="fuel"/>
    <tag k="name" v="Петрол"/>
  </node>
  <node id="4723683618" lat="42.3505091" lon="23.5495777" version="1" timestamp="2017-03-08T08:53:23Z" changeset="46674145" uid="2542395" user="bgfen">
    <tag k="amenity" v="fuel"/>
    <tag k="name" v="SNG"/>
  </node>
  <node id="4723683619" lat="42.3181605" lon="23.5627022" version="1" timestamp="2017-03-08T08:53:23Z" changeset="46674145" uid="2542395" user="bgfen">
    <tag k="amenity" v="fuel"/>
    <tag k="operator" v="Юг"/>
  </node>
  <node id="4723683621" lat="42.3386887" lon="23.5309538" version="2" timestamp="2018-10-07T18:15:04Z" changeset="63285734" uid="11238" user="fahrrad">
    <tag k="amenity" v="fuel"/>
    <tag k="operator" v="Лукоил"/>
  </node>
  <node id="4738251221" lat="42.4898620" lon="21.5045988" version="4" timestamp="2019-03-08T14:36:25Z" changeset="67924830" uid="3377021" user="Marc Konjuhi">
    <tag k="addr:postcode" v="60.000"/>
    <tag k="addr:street" v="Rruga e Bujanovcit"/>
    <tag k="amenity" v="fuel"/>
    <tag k="internet_access" v="wlan"/>
    <tag k="name" v="Burimi Petrol"/>
    <tag k="name:en" v="Burimi Petrol"/>
    <tag k="name:sq" v="Burimi Petrol"/>
    <tag k="name:sr" v="Burimi Petrol"/>
    <tag k="opening_hours" v="24/7"/>
    <tag k="phone" v="+38344250240"/>
  </node>
  <node id="4739771021" lat="42.0017496" lon="21.4606362" version="1" timestamp="2017-03-17T13:16:58Z" changeset="46927736" uid="5502987" user="Бојан Станковски">
    <tag k="addr:housenumber" v="2"/>
    <tag k="addr:postcode" v="1000"/>
    <tag k="addr:street" v="Јани Лукровски"/>
    <tag k="amenity" v="fuel"/>
    <tag k="internet_access" v="wlan"/>
    <tag k="name" v="Дома"/>
    <tag k="name:en" v="Doma"/>
    <tag k="name:mk" v="Дома"/>
    <tag k="opening_hours" v="24/7"/>
    <tag k="operator" v="Bojan Stankovski"/>
  </node>
  <node id="4741904530" lat="42.3306906" lon="20.6046196" version="2" timestamp="2019-03-07T16:35:26Z" changeset="67890015" uid="3377021" user="Marc Konjuhi">
    <tag k="addr:street" v="Rogove"/>
    <tag k="amenity" v="fuel"/>
    <tag k="email" v="jazi-1@hotmail.com"/>
    <tag k="internet_access" v="wlan"/>
    <tag k="name" v="Jazi 1"/>
    <tag k="name:sq" v="Jazi 1"/>
    <tag k="name:sr" v="Jazi 1"/>
    <tag k="operator" v="Bashkim Gashi"/>
    <tag k="phone" v="+38344269537"/>
  </node>
  <node id="4797356052" lat="42.3365274" lon="20.7310165" version="2" timestamp="2019-01-25T14:39:00Z" changeset="66633830" uid="5682508" user="Erdinç Bitiçi">
    <tag k="addr:city" v="Mamuşa - Mamushë"/>
    <tag k="addr:housenumber" v="123"/>
    <tag k="addr:postcode" v="20540"/>
    <tag k="addr:street" v="Kışla Caddesi"/>
    <tag k="amenity" v="fuel"/>
    <tag k="fuel:benzin" v="yes"/>
    <tag k="fuel:diesel" v="yes"/>
    <tag k="name" v="EKO Oktan"/>
  </node>
  <node id="4818681697" lat="42.2481163" lon="20.7209460" version="2" timestamp="2018-08-15T08:16:42Z" changeset="61678746" uid="523837" user="ValdrinGashi">
    <tag k="amenity" v="fuel"/>
    <tag k="name" v="Arbëria Petrol"/>
  </node>
  <node id="4846972422" lat="42.0906551" lon="23.0668465" version="1" timestamp="2017-05-11T06:45:55Z" changeset="48581749" uid="4467412" user="Peter Bahchevanov">
    <tag k="amenity" v="fuel"/>
    <tag k="fuel:diesel" v="yes"/>
    <tag k="fuel:lpg" v="yes"/>
    <tag k="fuel:octane_95" v="yes"/>
    <tag k="name" v="Петрогаз"/>
  </node>
  <node id="4867314221" lat="40.7027819" lon="22.9185026" version="1" timestamp="2017-05-21T01:41:53Z" changeset="48853580" uid="5021180" user="Angelo's Mouratidis">
    <tag k="amenity" v="fuel"/>
    <tag k="name" v="ΕΤΕΚΑ"/>
    <tag k="name:el" v="ΕΤΕΚΑ"/>
    <tag k="name:en" v="ΕΤΕΚΑ"/>
  </node>
  <node id="4902163205" lat="41.9141261" lon="23.5779825" version="1" timestamp="2017-06-07T15:03:20Z" changeset="49339056" uid="237594" user="ivanatora">
    <tag k="amenity" v="fuel"/>
    <tag k="operator" v="Lukoil"/>
  </node>
  <node id="4908888091" lat="40.6877990" lon="23.6793545" version="2" timestamp="2020-02-17T05:33:51Z" changeset="81092880" uid="6188741" user="down1ree">
    <tag k="amenity" v="fuel"/>
    <tag k="name" v="Shell"/>
    <tag k="operator" v="Αφοί Κατακώτα"/>
    <tag k="phone" v="+30 239 702 3834"/>
  </node>
  <node id="4912937823" lat="42.0547506" lon="21.0341449" version="1" timestamp="2017-06-13T14:47:05Z" changeset="49502707" uid="5070528" user="Ciki">
    <tag k="amenity" v="fuel"/>
    <tag k="name" v="Европа92"/>
    <tag k="name:en" v="Evropa92"/>
    <tag k="phone" v="044330161"/>
  </node>
  <node id="4919265321" lat="42.5438696" lon="20.2903421" version="1" timestamp="2017-06-16T15:54:58Z" changeset="49595435" uid="4839232" user="Sami Gjukaj">
    <tag k="amenity" v="fuel"/>
    <tag k="name" v="Petrol Company"/>
    <tag k="name:sq" v="Petrol Company"/>
  </node>
  <node id="4928910324" lat="42.5343434" lon="20.2928448" version="1" timestamp="2017-06-21T13:56:42Z" changeset="49721741" uid="6201675" user="Egzo1">
    <tag k="amenity" v="fuel"/>
    <tag k="name" v="Pompa Bonita"/>
    <tag k="name:sq" v="Pompa Bonita"/>
  </node>
  <node id="4948150998" lat="42.4874082" lon="21.3935741" version="1" timestamp="2017-07-03T05:53:03Z" changeset="49999147" uid="340741" user="CRCulver">
    <tag k="amenity" v="fuel"/>
    <tag k="name" v="Kamberi Petrol"/>
    <tag k="shop" v="yes"/>
  </node>
  <node id="4951201642" lat="42.3168110" lon="21.3637747" version="2" timestamp="2019-04-05T17:40:43Z" changeset="68931063" uid="6891626" user="Ardit Sahiti">
    <tag k="amenity" v="fuel"/>
    <tag k="name" v="Bariu Petrol"/>
  </node>
  <node id="4951274423" lat="42.3155119" lon="20.8606660" version="1" timestamp="2017-07-04T16:53:02Z" changeset="50039025" uid="340741" user="CRCulver">
    <tag k="amenity" v="fuel"/>
    <tag k="name" v="Shala"/>
  </node>
  <node id="4951274463" lat="42.3540979" lon="20.9190999" version="2" timestamp="2019-06-11T18:20:59Z" changeset="71152981" uid="9368512" user="beep_boop">
    <tag k="amenity" v="fuel"/>
    <tag k="name" v="BP"/>
  </node>
  <node id="4951274540" lat="42.3697214" lon="21.1300483" version="1" timestamp="2017-07-04T16:53:04Z" changeset="50039025" uid="340741" user="CRCulver">
    <tag k="amenity" v="fuel"/>
    <tag k="name" v="Lindi"/>
  </node>
  <node id="4966623121" lat="42.1332218" lon="21.7026465" version="2" timestamp="2018-10-20T03:46:39Z" changeset="63695119" uid="8977684" user="McAwesomeVille">
    <tag k="amenity" v="fuel"/>
    <tag k="name" v="Makpetrol"/>
  </node>
  <node id="4970132321" lat="42.3991536" lon="20.6732617" version="2" timestamp="2019-07-03T20:27:42Z" changeset="71874647" uid="9368512" user="beep_boop">
    <tag k="amenity" v="fuel"/>
    <tag k="internet_access" v="wlan"/>
    <tag k="name" v="Fatmiri Commerc"/>
    <tag k="name:en" v="Fatmiri Commerc"/>
    <tag k="name:sq" v="Fatmiri Commerc"/>
    <tag k="name:sr" v="Fatmiri Commerc"/>
    <tag k="opening_hours" v="Mo-Su 06:00-22:00"/>
  </node>
  <node id="4987931944" lat="40.7994503" lon="22.0487414" version="2" timestamp="2020-03-04T16:50:41Z" changeset="81784891" uid="10733617" user="kartonble">
    <tag k="amenity" v="fuel"/>
    <tag k="brand" v="BP"/>
    <tag k="brand:wikidata" v="Q152057"/>
    <tag k="brand:wikipedia" v="en:BP"/>
    <tag k="name" v="BP"/>
  </node>
  <node id="5035610621" lat="41.3235484" lon="19.7777616" version="1" timestamp="2017-08-14T21:49:54Z" changeset="51123566" uid="6419528" user="Shuo Chen">
    <tag k="addr:street" v="Rruga Tre Dëshmorët"/>
    <tag k="amenity" v="fuel"/>
    <tag k="name" v="Alpet"/>
    <tag k="opening_hours" v="24/7"/>
  </node>
  <node id="5042711287" lat="41.0838908" lon="23.5439257" version="1" timestamp="2017-08-18T10:20:14Z" changeset="51228841" uid="1642365" user="apogeorgiadis">
    <tag k="amenity" v="fuel"/>
    <tag k="name" v="Μέλιος"/>
    <tag k="name:el" v="Μέλιος"/>
    <tag k="name:en" v="Melios"/>
  </node>
  <node id="5058440822" lat="41.9039150" lon="22.4012236" version="2" timestamp="2020-09-23T13:30:24Z" changeset="91370739" uid="11849964" user="Velibear">
    <tag k="amenity" v="fuel"/>
    <tag k="brand" v="Лукойл"/>
    <tag k="brand:wikidata" v="Q329347"/>
    <tag k="brand:wikipedia" v="ru:Лукойл"/>
    <tag k="name" v="Лукойл"/>
    <tag k="name:en" v="Luk Oil"/>
    <tag k="opening_hours" v="24/7"/>
  </node>
  <node id="5065563527" lat="41.9635010" lon="21.5967388" version="1" timestamp="2017-08-29T06:35:18Z" changeset="51528675" uid="6564351" user="vlatko blindjov">
    <tag k="amenity" v="fuel"/>
    <tag k="name:en" v="Nece"/>
  </node>
  <node id="5069828153" lat="40.6780357" lon="22.9544975" version="1" timestamp="2017-08-30T17:40:29Z" changeset="51588220" uid="2090435" user="billytromeros">
    <tag k="addr:postcode" v="54500"/>
    <tag k="amenity" v="fuel"/>
    <tag k="name" v="KLIG OIL"/>
    <tag k="opening_hours" v="24/7"/>
    <tag k="operator" v="ΚΛΙΓΚΟΠΟΥΛΟΙ, ΑΦΟΙ, Ο.Ε."/>
  </node>
  <node id="5072814624" lat="42.2751260" lon="22.6682783" version="1" timestamp="2017-09-01T07:27:34Z" changeset="51634932" uid="6407172" user="Renáta Marton">
    <tag k="amenity" v="fuel"/>
    <tag k="internet_access" v="wlan"/>
  </node>
  <node id="5081318618" lat="42.3983509" lon="20.6515031" version="1" timestamp="2017-09-05T11:11:35Z" changeset="51746214" uid="523837" user="ValdrinGashi">
    <tag k="amenity" v="fuel"/>
    <tag k="name" v="LAB OIL"/>
  </node>
  <node id="5101200726" lat="40.8987895" lon="20.6651313" version="2" timestamp="2018-10-02T22:43:23Z" changeset="63140876" uid="4903516" user="Sidorela">
    <tag k="amenity" v="fuel"/>
    <tag k="name" v="Gulf"/>
    <tag k="name:en" v="Gulf"/>
    <tag k="name:pl" v="Gulf"/>
    <tag k="name:sq" v="Gulf"/>
  </node>
  <node id="5128079278" lat="42.2510788" lon="20.7068848" version="3" timestamp="2019-09-16T22:14:30Z" changeset="74551857" uid="8167723" user="Cascade_Benji">
    <tag k="amenity" v="fuel"/>
    <tag k="name" v="KAG Oil"/>
  </node>
  <node id="5142648723" lat="42.4328303" lon="21.0402819" version="2" timestamp="2018-08-08T06:28:38Z" changeset="61455179" uid="523837" user="ValdrinGashi">
    <tag k="amenity" v="fuel"/>
    <tag k="name" v="Pompa e benzinës ARAL"/>
  </node>
  <node id="5170932020" lat="40.7497799" lon="22.9756650" version="1" timestamp="2017-10-16T09:46:52Z" changeset="52976929" uid="5069218" user="Γιώργος Καλογεροπουλος">
    <tag k="amenity" v="fuel"/>
    <tag k="name" v="Ανεξ. Πρατήριο"/>
  </node>
  <node id="5195377121" lat="40.7424731" lon="19.6486562" version="2" timestamp="2018-01-13T22:07:33Z" changeset="55417651" uid="712336" user="DenisJu">
    <tag k="amenity" v="fuel"/>
    <tag k="name" v="Bolv-Oil"/>
    <tag k="name:en" v="Bolv-Oil"/>
  </node>
  <node id="5238679323" lat="41.8582150" lon="19.6397029" version="1" timestamp="2017-11-20T00:20:04Z" changeset="53936161" uid="7024511" user="Juzef Bici">
    <tag k="addr:street" v="Piraj"/>
    <tag k="amenity" v="fuel"/>
    <tag k="internet_access" v="wlan"/>
    <tag k="name" v="Kastrati"/>
    <tag k="opening_hours" v="24/7"/>
    <tag k="phone" v="+355676044678"/>
  </node>
  <node id="5357851722" lat="42.4896860" lon="21.5373969" version="3" timestamp="2018-12-04T14:00:48Z" changeset="65161709" uid="8996695" user="Bardhazizi">
    <tag k="amenity" v="fuel"/>
    <tag k="internet_access" v="wlan"/>
    <tag k="name" v="Beki Benz"/>
    <tag k="opening_hours" v="24/7"/>
  </node>
  <node id="5361074718" lat="41.2653071" lon="23.1533491" version="1" timestamp="2018-01-25T14:02:59Z" changeset="55741636" uid="5894643" user="Giorgos Russos">
    <tag k="amenity" v="fuel"/>
    <tag k="name" v="Silkoil"/>
  </node>
  <node id="5361212888" lat="41.2655297" lon="23.2466981" version="1" timestamp="2018-01-25T14:53:04Z" changeset="55743079" uid="5894643" user="Giorgos Russos">
    <tag k="amenity" v="fuel"/>
    <tag k="name" v="BP"/>
  </node>
  <node id="5361212890" lat="41.2672849" lon="23.2647920" version="1" timestamp="2018-01-25T14:53:04Z" changeset="55743079" uid="5894643" user="Giorgos Russos">
    <tag k="amenity" v="fuel"/>
    <tag k="name" v="Aegean"/>
  </node>
  <node id="5361212891" lat="41.2731446" lon="23.2875003" version="1" timestamp="2018-01-25T14:53:04Z" changeset="55743079" uid="5894643" user="Giorgos Russos">
    <tag k="amenity" v="fuel"/>
    <tag k="name" v="Kaoil"/>
  </node>
  <node id="5361335267" lat="41.2807065" lon="23.3231217" version="2" timestamp="2020-08-19T08:34:15Z" changeset="89619617" uid="3370876" user="aidworker">
    <tag k="amenity" v="fuel"/>
    <tag k="brand" v="Aegean"/>
    <tag k="brand:wikidata" v="Q28146598"/>
    <tag k="brand:wikipedia" v="el:Aegean Oil"/>
    <tag k="name" v="Aegean"/>
  </node>
  <node id="5361556996" lat="41.2743855" lon="23.7555072" version="1" timestamp="2018-01-25T16:33:27Z" changeset="55746288" uid="5894643" user="Giorgos Russos">
    <tag k="amenity" v="fuel"/>
    <tag k="name" v="Jetoil"/>
  </node>
  <node id="5383183752" lat="41.3443528" lon="23.8655103" version="1" timestamp="2018-02-03T14:57:30Z" changeset="56031230" uid="5894643" user="Giorgos Russos">
    <tag k="amenity" v="fuel"/>
    <tag k="name" v="ELIN"/>
  </node>
  <node id="5383242607" lat="41.3434998" lon="23.8660103" version="1" timestamp="2018-02-03T15:22:38Z" changeset="56031704" uid="5894643" user="Giorgos Russos">
    <tag k="amenity" v="fuel"/>
    <tag k="name" v="ΕΚΟ"/>
  </node>
  <node id="5397487899" lat="41.0915401" lon="23.5572504" version="2" timestamp="2020-04-06T13:40:36Z" changeset="83149467" uid="3370876" user="aidworker">
    <tag k="amenity" v="fuel"/>
    <tag k="brand" v="Shell"/>
    <tag k="brand:wikidata" v="Q154950"/>
    <tag k="brand:wikipedia" v="en:Royal Dutch Shell"/>
    <tag k="name" v="Shell"/>
  </node>
  <node id="5397487900" lat="41.0901484" lon="23.5543159" version="3" timestamp="2020-04-06T13:49:38Z" changeset="83149887" uid="3370876" user="aidworker">
    <tag k="amenity" v="fuel"/>
    <tag k="brand" v="Kaoil"/>
    <tag k="name" v="Kaoil"/>
  </node>
  <node id="5403558788" lat="41.0895813" lon="23.5976092" version="2" timestamp="2020-04-11T06:12:22Z" changeset="83388582" uid="3370876" user="aidworker">
    <tag k="amenity" v="fuel"/>
    <tag k="brand" v="Aegean"/>
    <tag k="brand:wikidata" v="Q28146598"/>
    <tag k="brand:wikipedia" v="el:Aegean Oil"/>
    <tag k="name" v="Aegean"/>
  </node>
  <node id="5405142238" lat="41.2400675" lon="23.3881986" version="1" timestamp="2018-02-11T12:05:18Z" changeset="56261687" uid="5894643" user="Giorgos Russos">
    <tag k="amenity" v="fuel"/>
    <tag k="name" v="Silk"/>
  </node>
  <node id="5405322209" lat="41.1766367" lon="23.3948792" version="1" timestamp="2018-02-11T14:03:15Z" changeset="56264276" uid="5894643" user="Giorgos Russos">
    <tag k="amenity" v="fuel"/>
    <tag k="name" v="Aegean"/>
  </node>
  <node id="5405322218" lat="41.1793632" lon="23.3942438" version="1" timestamp="2018-02-11T14:03:16Z" changeset="56264276" uid="5894643" user="Giorgos Russos">
    <tag k="amenity" v="fuel"/>
    <tag k="name" v="Silk"/>
  </node>
  <node id="5405332233" lat="41.1574039" lon="23.4081187" version="1" timestamp="2018-02-11T14:12:02Z" changeset="56264484" uid="5894643" user="Giorgos Russos">
    <tag k="amenity" v="fuel"/>
    <tag k="name" v="MEDoil"/>
  </node>
  <node id="5412061095" lat="41.0208023" lon="23.6046977" version="1" timestamp="2018-02-14T11:36:52Z" changeset="56350295" uid="5894643" user="Giorgos Russos">
    <tag k="amenity" v="fuel"/>
    <tag k="name" v="Silkoil"/>
  </node>
  <node id="5412093500" lat="41.0007895" lon="23.6291746" version="1" timestamp="2018-02-14T11:57:42Z" changeset="56350782" uid="5894643" user="Giorgos Russos">
    <tag k="amenity" v="fuel"/>
    <tag k="name" v="Silk"/>
  </node>
  <node id="5418224929" lat="41.3302207" lon="19.8330595" version="1" timestamp="2018-02-17T12:11:56Z" changeset="56438989" uid="4903516" user="Sidorela">
    <tag k="amenity" v="fuel"/>
    <tag k="name" v="eida"/>
  </node>
  <node id="5424642712" lat="41.1585824" lon="23.3664825" version="1" timestamp="2018-02-20T14:22:12Z" changeset="56522275" uid="5894643" user="Giorgos Russos">
    <tag k="amenity" v="fuel"/>
    <tag k="name" v="Kmoil"/>
  </node>
  <node id="5424642720" lat="41.1603782" lon="23.3640311" version="1" timestamp="2018-02-20T14:22:13Z" changeset="56522275" uid="5894643" user="Giorgos Russos">
    <tag k="amenity" v="fuel"/>
    <tag k="name" v="Kaoil"/>
  </node>
  <node id="5424667129" lat="41.1776053" lon="23.3272899" version="1" timestamp="2018-02-20T14:38:25Z" changeset="56522684" uid="5894643" user="Giorgos Russos">
    <tag k="amenity" v="fuel"/>
    <tag k="name" v="Aegean"/>
  </node>
  <node id="5424671975" lat="41.1821065" lon="23.2841912" version="1" timestamp="2018-02-20T14:42:42Z" changeset="56522764" uid="5894643" user="Giorgos Russos">
    <tag k="amenity" v="fuel"/>
    <tag k="name" v="Silk"/>
  </node>
  <node id="5424763027" lat="41.1420057" lon="23.3354867" version="1" timestamp="2018-02-20T15:30:44Z" changeset="56523902" uid="5894643" user="Giorgos Russos">
    <tag k="amenity" v="fuel"/>
    <tag k="name" v="Kaoil"/>
  </node>
  <node id="5424777213" lat="41.0850272" lon="23.3413011" version="1" timestamp="2018-02-20T15:38:05Z" changeset="56524128" uid="5894643" user="Giorgos Russos">
    <tag k="amenity" v="fuel"/>
    <tag k="name" v="Jetoil"/>
  </node>
  <node id="5426428246" lat="40.9905902" lon="23.5116881" version="1" timestamp="2018-02-21T11:41:10Z" changeset="56546601" uid="5894643" user="Giorgos Russos">
    <tag k="amenity" v="fuel"/>
    <tag k="name" v="Silk"/>
  </node>
  <node id="5426441023" lat="41.0064549" lon="23.5582920" version="1" timestamp="2018-02-21T11:48:10Z" changeset="56546761" uid="5894643" user="Giorgos Russos">
    <tag k="amenity" v="fuel"/>
    <tag k="name" v="Jetoil"/>
  </node>
  <node id="5426450155" lat="40.9950101" lon="23.5996146" version="1" timestamp="2018-02-21T11:55:29Z" changeset="56546942" uid="5894643" user="Giorgos Russos">
    <tag k="amenity" v="fuel"/>
    <tag k="name" v="Silk"/>
  </node>
  <node id="5426450161" lat="40.9924670" lon="23.5962255" version="1" timestamp="2018-02-21T11:55:30Z" changeset="56546942" uid="5894643" user="Giorgos Russos">
    <tag k="amenity" v="fuel"/>
    <tag k="name" v="Silkoil"/>
  </node>
  <node id="5429039005" lat="41.3969110" lon="23.3556548" version="3" timestamp="2019-08-19T12:52:08Z" changeset="73496690" uid="7470105" user="Casual Mapper">
    <tag k="amenity" v="fuel"/>
    <tag k="brand" v="OMV"/>
    <tag k="name" v="OMV"/>
    <tag k="operator" v="OMV"/>
  </node>
  <node id="5520077221" lat="42.3505867" lon="23.0132686" version="1" timestamp="2018-04-01T10:16:16Z" changeset="57708732" uid="4830081" user="Asensancho">
    <tag k="amenity" v="fuel"/>
    <tag k="name" v="Петрол"/>
  </node>
  <node id="5520486639" lat="42.1513790" lon="23.0056148" version="1" timestamp="2018-04-01T14:43:50Z" changeset="57713980" uid="4830081" user="Asensancho">
    <tag k="amenity" v="fuel"/>
    <tag k="name" v="UNO OIL"/>
  </node>
  <node id="5522924657" lat="41.9978312" lon="23.0988287" version="1" timestamp="2018-04-02T15:59:59Z" changeset="57743882" uid="4830081" user="Asensancho">
    <tag k="amenity" v="fuel"/>
    <tag k="name" v="EKO"/>
  </node>
  <node id="5553051221" lat="42.4778400" lon="21.4579764" version="3" timestamp="2019-03-07T19:53:21Z" changeset="67898054" uid="3377021" user="Marc Konjuhi">
    <tag k="addr:postcode" v="60000"/>
    <tag k="addr:street" v="Nato 99"/>
    <tag k="amenity" v="fuel"/>
    <tag k="name" v="ADA GAS"/>
    <tag k="opening_hours" v="24/7"/>
    <tag k="phone" v="+38344211916"/>
  </node>
  <node id="5575843521" lat="41.9886170" lon="21.0740175" version="1" timestamp="2018-04-24T11:04:35Z" changeset="58369385" uid="131662" user="borces">
    <tag k="amenity" v="fuel"/>
    <tag k="name" v="Лукоил"/>
  </node>
  <node id="5582074827" lat="42.3692399" lon="20.4590989" version="1" timestamp="2018-04-27T09:05:32Z" changeset="58469608" uid="2240048" user="JanetChapman">
    <tag k="amenity" v="fuel"/>
    <tag k="name" v="Patroni"/>
  </node>
  <node id="5582074828" lat="42.3519424" lon="20.5334835" version="1" timestamp="2018-04-27T09:05:35Z" changeset="58469608" uid="2240048" user="JanetChapman">
    <tag k="amenity" v="fuel"/>
    <tag k="name" v="Fat Oil"/>
  </node>
  <node id="5582074829" lat="42.3577542" lon="20.5581791" version="1" timestamp="2018-04-27T09:05:36Z" changeset="58469608" uid="2240048" user="JanetChapman">
    <tag k="amenity" v="fuel"/>
    <tag k="name" v="Fat Oil"/>
  </node>
  <node id="5582213224" lat="41.7846937" lon="19.7845649" version="1" timestamp="2018-04-27T10:56:34Z" changeset="58472140" uid="2240048" user="JanetChapman">
    <tag k="amenity" v="fuel"/>
    <tag k="name" v="Start"/>
  </node>
  <node id="5582249523" lat="41.5194457" lon="19.6883430" version="1" timestamp="2018-04-27T11:28:44Z" changeset="58472811" uid="2240048" user="JanetChapman">
    <tag k="amenity" v="fuel"/>
    <tag k="name" v="Eri"/>
  </node>
  <node id="5582273728" lat="41.4761545" lon="19.7495418" version="2" timestamp="2019-11-30T18:39:51Z" changeset="77764609" uid="2498239" user="maurizioa">
    <tag k="amenity" v="fuel"/>
    <tag k="name" v="Bolv oil"/>
  </node>
  <node id="5582293522" lat="41.4780039" lon="19.7334608" version="1" timestamp="2018-04-27T11:59:51Z" changeset="58473514" uid="2240048" user="JanetChapman">
    <tag k="amenity" v="fuel"/>
    <tag k="name" v="Alpet"/>
  </node>
  <node id="5583882526" lat="41.5146733" lon="19.7889264" version="1" timestamp="2018-04-28T08:21:32Z" changeset="58498053" uid="2240048" user="JanetChapman">
    <tag k="amenity" v="fuel"/>
    <tag k="name" v="Kastrati"/>
  </node>
  <node id="5584459881" lat="42.0023986" lon="21.4039653" version="1" timestamp="2018-04-28T14:41:09Z" changeset="58505696" uid="6970734" user="Dekacc">
    <tag k="addr:city" v="Cкoпje"/>
    <tag k="addr:postcode" v="1000"/>
    <tag k="addr:street" v="Булевар Партизански Одреди"/>
    <tag k="amenity" v="fuel"/>
    <tag k="fuel:biodiesel" v="yes"/>
    <tag k="fuel:diesel" v="yes"/>
    <tag k="fuel:lpg" v="yes"/>
    <tag k="fuel:octane_100" v="yes"/>
    <tag k="fuel:octane_95" v="yes"/>
    <tag k="name" v="Макпетрол"/>
    <tag k="name:en" v="Makpetrol"/>
    <tag k="opening_hours" v="24/7"/>
    <tag k="website" v="http://www.makpetrol.mk"/>
  </node>
  <node id="5587886426" lat="40.7864932" lon="19.8418512" version="1" timestamp="2018-04-30T09:13:37Z" changeset="58548339" uid="2240048" user="JanetChapman">
    <tag k="amenity" v="fuel"/>
    <tag k="name" v="Oil"/>
  </node>
  <node id="5591639134" lat="40.7335879" lon="19.6980617" version="1" timestamp="2018-05-02T06:53:55Z" changeset="58604557" uid="2240048" user="JanetChapman">
    <tag k="amenity" v="fuel"/>
    <tag k="name" v="Alpet"/>
  </node>
  <node id="5591676425" lat="40.6979039" lon="19.5895015" version="1" timestamp="2018-05-02T07:08:17Z" changeset="58604897" uid="2240048" user="JanetChapman">
    <tag k="amenity" v="fuel"/>
    <tag k="name" v="Alfa"/>
  </node>
  <node id="5599746424" lat="40.6784180" lon="20.7308369" version="1" timestamp="2018-05-06T08:09:57Z" changeset="58723647" uid="2240048" user="JanetChapman">
    <tag k="amenity" v="fuel"/>
    <tag k="name" v="Gega Oil"/>
  </node>
  <node id="5599746427" lat="40.7924781" lon="20.7173475" version="1" timestamp="2018-05-06T08:10:05Z" changeset="58723647" uid="2240048" user="JanetChapman">
    <tag k="amenity" v="fuel"/>
    <tag k="name" v="East Oil"/>
  </node>
  <node id="5599746429" lat="40.8101601" lon="20.7331699" version="1" timestamp="2018-05-06T08:10:09Z" changeset="58723647" uid="2240048" user="JanetChapman">
    <tag k="amenity" v="fuel"/>
    <tag k="name" v="Royal Gas"/>
  </node>
  <node id="5599746436" lat="40.8857636" lon="20.6791424" version="2" timestamp="2020-07-06T05:33:08Z" changeset="87577318" uid="8909852" user="Bledar84">
    <tag k="amenity" v="fuel"/>
    <tag k="name" v="Gega Oil"/>
  </node>
  <node id="5599746437" lat="40.8962826" lon="20.6682331" version="2" timestamp="2020-07-06T05:33:06Z" changeset="87577318" uid="8909852" user="Bledar84">
    <tag k="amenity" v="fuel"/>
    <tag k="name" v="Kastrati Oil"/>
  </node>
  <node id="5599757122" lat="40.6916895" lon="20.7235740" version="2" timestamp="2019-04-07T16:56:17Z" changeset="68981196" uid="340741" user="CRCulver">
    <tag k="amenity" v="fuel"/>
    <tag k="name" v="Merolli"/>
    <tag k="shop" v="no"/>
  </node>
  <node id="5599757123" lat="40.7021730" lon="20.7177648" version="2" timestamp="2019-04-07T16:56:17Z" changeset="68981196" uid="340741" user="CRCulver">
    <tag k="amenity" v="fuel"/>
    <tag k="name" v="Braka"/>
    <tag k="shop" v="no"/>
  </node>
  <node id="5599757128" lat="40.7993622" lon="20.7201678" version="1" timestamp="2018-05-06T08:10:07Z" changeset="58723647" uid="2240048" user="JanetChapman">
    <tag k="amenity" v="fuel"/>
    <tag k="name" v="Ledio Oil"/>
  </node>
  <node id="5599757130" lat="40.8153506" lon="20.7392579" version="1" timestamp="2018-05-06T08:10:10Z" changeset="58723647" uid="2240048" user="JanetChapman">
    <tag k="amenity" v="fuel"/>
    <tag k="name" v="Autogrill Oil"/>
  </node>
  <node id="5599757135" lat="40.8770142" lon="20.6838071" version="1" timestamp="2018-05-06T08:10:19Z" changeset="58723647" uid="2240048" user="JanetChapman">
    <tag k="amenity" v="fuel"/>
    <tag k="name" v="Taci Oil"/>
  </node>
  <node id="5599757624" lat="40.8200383" lon="20.7389557" version="1" timestamp="2018-05-06T08:10:12Z" changeset="58723647" uid="2240048" user="JanetChapman">
    <tag k="amenity" v="fuel"/>
    <tag k="name" v="Taci Oil"/>
  </node>
  <node id="5634132321" lat="42.3655747" lon="20.8367147" version="2" timestamp="2018-07-10T05:57:20Z" changeset="60560173" uid="5914053" user="Edon Hoxhaj">
    <tag k="addr:postcode" v="23000"/>
    <tag k="addr:street" v="Brigada 123"/>
    <tag k="amenity" v="fuel"/>
    <tag k="name" v="Flamuri Petrol"/>
    <tag k="opening_hours" v="24/7"/>
  </node>
  <node id="5700076721" lat="42.1001756" lon="23.0353459" version="1" timestamp="2018-06-18T17:34:22Z" changeset="59952380" uid="8436341" user="Marius Mae">
    <tag k="amenity" v="fuel"/>
    <tag k="name" v="LukOil"/>
  </node>
  <node id="5744951821" lat="42.3660329" lon="20.8371396" version="2" timestamp="2018-07-10T05:57:20Z" changeset="60560173" uid="5914053" user="Edon Hoxhaj">
    <tag k="addr:postcode" v="23000"/>
    <tag k="addr:street" v="Brigada 123"/>
    <tag k="amenity" v="fuel"/>
    <tag k="name" v="ITC Petrol"/>
    <tag k="opening_hours" v="Mo-Su 07:00-22:00"/>
  </node>
  <node id="5761128526" lat="41.0818302" lon="21.0080685" version="1" timestamp="2018-07-15T06:16:31Z" changeset="60725442" uid="6356099" user="Александар Марко">
    <tag k="amenity" v="fuel"/>
    <tag k="name" v="Митоил"/>
    <tag k="name:en" v="Mitoil"/>
  </node>
  <node id="5804553426" lat="40.7014290" lon="22.9305696" version="1" timestamp="2018-08-02T16:56:24Z" changeset="61304641" uid="8199939" user="RoxyNala">
    <tag k="addr:street" v="Θερμαϊκού"/>
    <tag k="amenity" v="fuel"/>
    <tag k="name" v="Aegean Βενζινάδικο"/>
  </node>
  <node id="5804553427" lat="40.6985273" lon="22.9309961" version="1" timestamp="2018-08-02T16:56:24Z" changeset="61304641" uid="8199939" user="RoxyNala">
    <tag k="addr:street" v="Θερμαϊκού"/>
    <tag k="amenity" v="fuel"/>
    <tag k="name" v="ΕΛΙΝ - Αφοι Μισαηλίδη"/>
    <tag k="source" v="Kaart Ground Survey 2018"/>
  </node>
  <node id="5808717770" lat="41.5155270" lon="23.8009857" version="1" timestamp="2018-08-04T10:59:49Z" changeset="61351142" uid="8624411" user="Niclas Hinderberger">
    <tag k="amenity" v="fuel"/>
    <tag k="internet_access" v="wlan"/>
    <tag k="name:en" v="Petrol"/>
    <tag k="opening_hours" v="24/7"/>
  </node>
  <node id="5827158085" lat="42.3427050" lon="20.8196971" version="1" timestamp="2018-08-12T14:19:22Z" changeset="61590153" uid="8549611" user="Edon Bajraktari">
    <tag k="addr:postcode" v="23000"/>
    <tag k="addr:street" v="Rruga per Sopije"/>
    <tag k="amenity" v="fuel"/>
    <tag k="name" v="Seticommerc"/>
    <tag k="opening_hours" v="Mo-Su 05:00-22:00"/>
    <tag k="operator" v="www.seticommerc.com"/>
    <tag k="website" v="https://www.facebook.com/NntSeticommerc/"/>
  </node>
  <node id="5906256326" lat="40.7324943" lon="22.6051701" version="1" timestamp="2018-09-14T12:32:18Z" changeset="62581727" uid="1401244" user="RandomGreekTracker">
    <tag k="amenity" v="fuel"/>
    <tag k="name" v="BP"/>
  </node>
  <node id="5911753351" lat="40.9004851" lon="22.5574067" version="2" timestamp="2018-10-15T13:16:32Z" changeset="63542134" uid="1401244" user="RandomGreekTracker">
    <tag k="amenity" v="fuel"/>
    <tag k="name" v="ελίν"/>
  </node>
  <node id="5921328782" lat="40.9862345" lon="22.5527980" version="1" timestamp="2018-09-21T18:39:55Z" changeset="62807220" uid="1401244" user="RandomGreekTracker">
    <tag k="amenity" v="fuel"/>
    <tag k="name" v="Kaoil"/>
  </node>
  <node id="5921328784" lat="40.9621656" lon="22.5186525" version="1" timestamp="2018-09-21T18:39:55Z" changeset="62807220" uid="1401244" user="RandomGreekTracker">
    <tag k="amenity" v="fuel"/>
    <tag k="name" v="SilkOil"/>
  </node>
  <node id="5959504579" lat="40.7603955" lon="22.5785550" version="1" timestamp="2018-10-05T17:48:09Z" changeset="63238484" uid="1401244" user="RandomGreekTracker">
    <tag k="amenity" v="fuel"/>
    <tag k="name" v="Shell"/>
  </node>
  <node id="5992947887" lat="41.4788483" lon="19.7549182" version="1" timestamp="2018-10-17T11:25:29Z" changeset="63607046" uid="499549" user="pierred">
    <tag k="amenity" v="fuel"/>
    <tag k="name" v="Api"/>
  </node>
  <node id="6054048518" lat="42.1624110" lon="21.7455624" version="2" timestamp="2020-01-10T20:20:19Z" changeset="79434049" uid="5603943" user="cetebe">
    <tag k="amenity" v="fuel"/>
    <tag k="name" v="Peak"/>
  </node>
  <node id="6054049816" lat="42.1624284" lon="21.7378519" version="2" timestamp="2020-01-11T23:09:44Z" changeset="79463434" uid="5603943" user="cetebe">
    <tag k="amenity" v="fuel"/>
    <tag k="name" v="Авиа оил"/>
  </node>
  <node id="6054062368" lat="41.1066954" lon="20.0889767" version="2" timestamp="2020-10-03T10:26:19Z" changeset="91897276" uid="11006146" user="spongestone">
    <tag k="amenity" v="fuel"/>
    <tag k="name" v="B Petrol"/>
  </node>
  <node id="6054062378" lat="40.9217142" lon="20.6409561" version="3" timestamp="2019-04-25T21:24:14Z" changeset="69580986" uid="504708" user="HillWithSmallFields">
    <tag k="amenity" v="fuel"/>
    <tag k="operator" v="Eurodrin"/>
  </node>
  <node id="6054062379" lat="40.9174224" lon="20.6422063" version="3" timestamp="2019-04-25T21:24:14Z" changeset="69580986" uid="504708" user="HillWithSmallFields">
    <tag k="amenity" v="fuel"/>
    <tag k="operator" v="Alpet"/>
  </node>
  <node id="6054062380" lat="40.8954142" lon="20.6682822" version="2" timestamp="2019-05-02T04:41:37Z" changeset="69788674" uid="340741" user="CRCulver">
    <tag k="amenity" v="fuel"/>
    <tag k="name" v="Alpet"/>
  </node>
  <node id="6054075938" lat="40.8876583" lon="20.6759301" version="2" timestamp="2019-05-02T04:41:37Z" changeset="69788674" uid="340741" user="CRCulver">
    <tag k="amenity" v="fuel"/>
    <tag k="name" v="2A &amp; 2E"/>
  </node>
  <node id="6080715746" lat="41.9842064" lon="21.4512820" version="1" timestamp="2018-11-21T20:30:57Z" changeset="64754639" uid="6970734" user="Dekacc">
    <tag k="amenity" v="fuel"/>
    <tag k="name" v="Макпетрол"/>
    <tag k="name:en" v="Makpetrol"/>
  </node>
  <node id="6149274785" lat="40.8151701" lon="21.4304687" version="1" timestamp="2018-12-20T08:21:03Z" changeset="65633359" uid="2269901" user="guzzonord">
    <tag k="amenity" v="fuel"/>
    <tag k="brand" v="Kaoil"/>
    <tag k="operator" v="Μάρκου"/>
  </node>
  <node id="6195052692" lat="40.7861776" lon="21.4236571" version="1" timestamp="2019-01-09T12:18:17Z" changeset="66160015" uid="2269901" user="guzzonord">
    <tag k="amenity" v="fuel"/>
    <tag k="brand" v="Shell"/>
    <tag k="brand:wikidata" v="Q154950"/>
    <tag k="brand:wikipedia" v="en:Royal Dutch Shell"/>
    <tag k="name" v="Shell"/>
  </node>
  <node id="6195052693" lat="40.7874351" lon="21.4250500" version="1" timestamp="2019-01-09T12:18:17Z" changeset="66160015" uid="2269901" user="guzzonord">
    <tag k="amenity" v="fuel"/>
    <tag k="name" v="Kaoil"/>
  </node>
  <node id="6195052696" lat="40.7910208" lon="21.4315513" version="1" timestamp="2019-01-09T12:18:17Z" changeset="66160015" uid="2269901" user="guzzonord">
    <tag k="amenity" v="fuel"/>
    <tag k="name" v="Avin"/>
  </node>
  <node id="6195113011" lat="40.7991719" lon="21.4215256" version="1" timestamp="2019-01-09T12:43:00Z" changeset="66160734" uid="2269901" user="guzzonord">
    <tag k="amenity" v="fuel"/>
    <tag k="name" v="Σαρακίνης"/>
  </node>
  <node id="6236293154" lat="42.3328756" lon="20.7274529" version="1" timestamp="2019-01-25T14:37:45Z" changeset="66633799" uid="5682508" user="Erdinç Bitiçi">
    <tag k="addr:city" v="Mamuşa - Mamushë"/>
    <tag k="addr:postcode" v="20540"/>
    <tag k="addr:street" v="Kişla"/>
    <tag k="amenity" v="fuel"/>
    <tag k="fuel:benzin" v="yes"/>
    <tag k="fuel:diesel" v="yes"/>
    <tag k="name" v="Adem Petrol"/>
    <tag k="payment:euro" v="yes"/>
  </node>
  <node id="6239695885" lat="40.7344827" lon="20.5821716" version="1" timestamp="2019-01-27T14:50:52Z" changeset="66678791" uid="595149" user="nworbnhoj">
    <tag k="amenity" v="fuel"/>
    <tag k="name" v="Bushi Braja"/>
  </node>
  <node id="6251607666" lat="40.9610539" lon="22.5230352" version="1" timestamp="2019-02-01T13:40:12Z" changeset="66833606" uid="1401244" user="RandomGreekTracker">
    <tag k="amenity" v="fuel"/>
    <tag k="name" v="Aegean"/>
  </node>
  <node id="6281863472" lat="41.9782420" lon="21.5930137" version="1" timestamp="2019-02-15T22:26:05Z" changeset="67241321" uid="9319541" user="birdeatscake">
    <tag k="addr:street" v="Улица 532"/>
    <tag k="amenity" v="fuel"/>
    <tag k="fixme" v="name"/>
  </node>
  <node id="6284898039" lat="42.3631135" lon="20.7401236" version="1" timestamp="2019-02-17T20:38:00Z" changeset="67291908" uid="9451411" user="OpenStreetMapKosovo">
    <tag k="amenity" v="fuel"/>
    <tag k="name" v="Spahija Petrol"/>
  </node>
  <node id="6287211825" lat="42.0301064" lon="21.4289322" version="2" timestamp="2019-02-27T14:01:09Z" changeset="67618882" uid="9319400" user="Hulk_Maps">
    <tag k="amenity" v="fuel"/>
    <tag k="name" v="okτΔ"/>
  </node>
  <node id="6291349285" lat="40.6893673" lon="19.6060113" version="1" timestamp="2019-02-20T15:17:41Z" changeset="67395384" uid="6730351" user="Juljan Ramadanaj">
    <tag k="addr:postcode" v="9307"/>
    <tag k="addr:street" v="Rruga Patos-Fier"/>
    <tag k="amenity" v="fuel"/>
    <tag k="internet_access" v="wlan"/>
    <tag k="name" v="PS Petrol Special"/>
    <tag k="name:en" v="PS-PETROL"/>
    <tag k="name:sq" v="Karburant  PS-PETROL"/>
    <tag k="opening_hours" v="24/7"/>
  </node>
  <node id="6315053517" lat="42.3486182" lon="20.7563324" version="1" timestamp="2019-03-03T22:48:46Z" changeset="67749188" uid="9451411" user="OpenStreetMapKosovo">
    <tag k="addr:city" v="samadraxhë"/>
    <tag k="addr:street" v="Rruga për Samadraxhë"/>
    <tag k="amenity" v="fuel"/>
    <tag k="fuel:diesel" v="yes"/>
    <tag k="fuel:octane_95" v="yes"/>
    <tag k="name" v="Spahija Petrol"/>
  </node>
  <node id="6359757793" lat="41.3376302" lon="23.8686991" version="1" timestamp="2019-03-25T06:14:09Z" changeset="68494302" uid="2545608" user="hariskar">
    <tag k="addr:postcode" v="66033"/>
    <tag k="amenity" v="fuel"/>
    <tag k="brand" v="bp"/>
    <tag k="name" v="bp"/>
    <tag k="opening_hours" v="24/7"/>
    <tag k="phone" v="+302523023363"/>
  </node>
  <node id="6370096109" lat="40.6847509" lon="22.8583357" version="2" timestamp="2019-11-27T15:34:10Z" changeset="77642310" uid="1401244" user="RandomGreekTracker">
    <tag k="amenity" v="fuel"/>
    <tag k="brand" v="Revoil"/>
    <tag k="operator" v="Ζαχαρούδης Γεώργιος"/>
  </node>
  <node id="6370096118" lat="40.6830827" lon="22.8613604" version="2" timestamp="2019-04-03T14:02:38Z" changeset="68840632" uid="6188741" user="down1ree">
    <tag k="amenity" v="fuel"/>
    <tag k="brand" v="Kaoil"/>
    <tag k="note" v="Not listed on official Greek Government Fuel Market Observatory site (http://www.fuelprices.gr)"/>
  </node>
  <node id="6373535234" lat="40.9702892" lon="22.0562232" version="1" timestamp="2019-03-31T08:03:15Z" changeset="68717740" uid="2545608" user="hariskar">
    <tag k="amenity" v="fuel"/>
    <tag k="phone" v="+302384024912"/>
  </node>
  <node id="6383706585" lat="42.0941089" lon="20.4729196" version="1" timestamp="2019-04-04T15:31:14Z" changeset="68887354" uid="3117866" user="timwenzel98">
    <tag k="amenity" v="fuel"/>
    <tag k="name" v="IP"/>
  </node>
  <node id="6389660767" lat="40.6789482" lon="22.8694396" version="1" timestamp="2019-04-07T22:00:21Z" changeset="68988290" uid="6188741" user="down1ree">
    <tag k="amenity" v="fuel"/>
    <tag k="brand" v="BP"/>
  </node>
  <node id="6399278459" lat="42.3235534" lon="21.3614993" version="3" timestamp="2019-11-15T12:11:28Z" changeset="77124424" uid="10469521" user="Auronita Osmani">
    <tag k="addr:city" v="Viti"/>
    <tag k="amenity" v="fuel"/>
    <tag k="name" v="&quot;Alba Petrol&quot;"/>
  </node>
  <node id="6439063674" lat="40.6974925" lon="20.8654468" version="1" timestamp="2019-04-30T15:49:18Z" changeset="69739901" uid="340741" user="CRCulver">
    <tag k="amenity" v="fuel"/>
    <tag k="fuel:diesel" v="yes"/>
    <tag k="fuel:lpg" v="yes"/>
    <tag k="fuel:octane_95" v="yes"/>
    <tag k="name" v="Cenolli"/>
  </node>
  <node id="6452808785" lat="41.3986786" lon="23.1403989" version="1" timestamp="2019-05-06T18:17:10Z" changeset="69946965" uid="237594" user="ivanatora">
    <tag k="amenity" v="fuel"/>
    <tag k="operator" v="Storos"/>
  </node>
  <node id="6482302912" lat="42.3552490" lon="20.7461750" version="2" timestamp="2019-05-28T13:47:03Z" changeset="70697771" uid="616774" user="mueschel">
    <tag k="addr:city" v="Samadraxhë"/>
    <tag k="addr:postcode" v="23060"/>
    <tag k="addr:street" v="Feim Morina"/>
    <tag k="amenity" v="fuel"/>
    <tag k="fixme" v="&quot;fuel:all = yes&quot; doesn't have useful information"/>
    <tag k="name" v="Pompë e Benzinës"/>
  </node>
  <node id="6482302914" lat="42.3583340" lon="20.7427162" version="1" timestamp="2019-05-18T11:30:59Z" changeset="70384935" uid="9451411" user="OpenStreetMapKosovo">
    <tag k="addr:street" v="Feim Morina"/>
    <tag k="amenity" v="fuel"/>
    <tag k="name" v="Voci"/>
  </node>
  <node id="6510208920" lat="41.8837172" lon="21.6888900" version="1" timestamp="2019-05-30T02:43:05Z" changeset="70753204" uid="158784" user="bjankuloski">
    <tag k="amenity" v="fuel"/>
    <tag k="brand" v="Макпетрол"/>
    <tag k="int_name" v="Makpetrol"/>
    <tag k="name" v="Макпетрол"/>
  </node>
  <node id="6521892985" lat="41.9159701" lon="20.9417536" version="1" timestamp="2019-06-04T19:10:09Z" changeset="70934796" uid="4531737" user="Joelius">
    <tag k="amenity" v="fuel"/>
    <tag k="name:en" v="Gulf Gas Station"/>
    <tag k="name:ru" v="Gulf"/>
  </node>
  <node id="6577197479" lat="40.7354690" lon="22.1401129" version="1" timestamp="2019-06-28T17:21:30Z" changeset="71715972" uid="2005059" user="Valantis Trigonis">
    <tag k="amenity" v="fuel"/>
    <tag k="brand" v="Α.Π."/>
    <tag k="name" v="Πρατήριο Υγρών Καυσίμων"/>
    <tag k="operator" v="Λημναίου Αικατερίνη - Βικτωρία"/>
    <tag k="self_service" v="no"/>
  </node>
  <node id="6577197480" lat="40.7375661" lon="22.1422380" version="1" timestamp="2019-06-28T17:21:30Z" changeset="71715972" uid="2005059" user="Valantis Trigonis">
    <tag k="amenity" v="fuel"/>
    <tag k="brand" v="Revoil"/>
    <tag k="name" v="Πρατήριο Υγρών Καυσίμων"/>
    <tag k="operator" v="Παυλίδης Ν. Βασίλειος"/>
    <tag k="self_service" v="no"/>
  </node>
  <node id="6581560346" lat="41.0081497" lon="21.3576341" version="1" timestamp="2019-07-01T11:53:33Z" changeset="71782293" uid="6192447" user="kujaw">
    <tag k="amenity" v="fuel"/>
    <tag k="name" v="CRP"/>
  </node>
  <node id="6594956814" lat="42.3502328" lon="21.7228185" version="2" timestamp="2019-09-01T16:14:57Z" changeset="73976776" uid="212196" user="BrackoNe">
    <tag k="amenity" v="fuel"/>
    <tag k="name" v="VP"/>
  </node>
  <node id="6650045470" lat="40.7926578" lon="21.8349113" version="1" timestamp="2019-07-26T13:13:52Z" changeset="72686948" uid="627800" user="elmarhe">
    <tag k="amenity" v="fuel"/>
    <tag k="name" v="Eko"/>
  </node>
  <node id="6651424885" lat="41.4874713" lon="23.2970268" version="2" timestamp="2020-05-03T11:54:06Z" changeset="84560571" uid="5853411" user="j1scad">
    <tag k="amenity" v="fuel"/>
    <tag k="name" v="Шел"/>
    <tag k="name:en" v="Shell"/>
  </node>
  <node id="6681841887" lat="41.7877214" lon="19.7894038" version="1" timestamp="2019-08-04T18:31:42Z" changeset="72995992" uid="4981371" user="arlind06">
    <tag k="addr:street" v="Rruga Rubik Rreshen"/>
    <tag k="amenity" v="fuel"/>
    <tag k="internet_access" v="wlan"/>
    <tag k="name" v="Erando"/>
    <tag k="opening_hours" v="24/7"/>
  </node>
  <node id="6707185460" lat="41.0014260" lon="22.8525720" version="1" timestamp="2019-08-13T11:52:19Z" changeset="73304426" uid="10064812" user="filapodoimos">
    <tag k="amenity" v="fuel"/>
    <tag k="name" v="Shell"/>
  </node>
  <node id="6723546892" lat="41.3978584" lon="23.3537927" version="2" timestamp="2020-04-23T21:07:33Z" changeset="84023098" uid="150201" user="plamen">
    <tag k="amenity" v="fuel"/>
    <tag k="name" v="Лукойл"/>
  </node>
  <node id="6723546893" lat="41.3963582" lon="23.3549230" version="2" timestamp="2020-04-23T21:07:33Z" changeset="84023098" uid="150201" user="plamen">
    <tag k="amenity" v="fuel"/>
    <tag k="name" v="OMV"/>
  </node>
  <node id="6723574884" lat="41.6460238" lon="19.7079025" version="1" timestamp="2019-08-19T12:54:14Z" changeset="73496789" uid="10235740" user="Kithoras Carzyl">
    <tag k="amenity" v="fuel"/>
    <tag k="name" v="Eradi Petrol"/>
    <tag k="opening_hours" v="24/7"/>
  </node>
  <node id="6749990681" lat="40.6752271" lon="22.9392649" version="2" timestamp="2020-01-26T02:14:58Z" changeset="80087498" uid="6188741" user="down1ree">
    <tag k="amenity" v="fuel"/>
    <tag k="name" v="BP"/>
  </node>
  <node id="6812207209" lat="41.3320112" lon="19.8456082" version="2" timestamp="2019-09-20T14:25:26Z" changeset="74721127" uid="9965337" user="ReedtheRiver">
    <tag k="addr:street" v="Rruga Ali Demi"/>
    <tag k="amenity" v="fuel"/>
    <tag k="name" v="Start"/>
  </node>
  <node id="6812539185" lat="41.7952788" lon="20.9004303" version="1" timestamp="2019-09-20T16:19:23Z" changeset="74726325" uid="9559138" user="bestgv">
    <tag k="amenity" v="fuel"/>
    <tag k="name" v="Бунар Петрол"/>
    <tag k="name:en" v="Bunar Petrol"/>
    <tag k="name:tr" v="Bunar Petrol"/>
    <tag k="opening_hours" v="24/7"/>
  </node>
  <node id="6830542189" lat="41.8080834" lon="20.9070117" version="1" timestamp="2019-09-27T11:49:39Z" changeset="75006252" uid="9047835" user="YunDi88">
    <tag k="amenity" v="fuel"/>
    <tag k="name" v="Bunar Petrol"/>
  </node>
  <node id="6830542191" lat="41.5887298" lon="20.9509279" version="1" timestamp="2019-09-27T11:49:40Z" changeset="75006252" uid="9047835" user="YunDi88">
    <tag k="amenity" v="fuel"/>
    <tag k="name" v="Tivoli Petrol"/>
  </node>
  <node id="6830542196" lat="41.2293893" lon="20.7682627" version="1" timestamp="2019-09-27T11:49:44Z" changeset="75006252" uid="9047835" user="YunDi88">
    <tag k="amenity" v="fuel"/>
    <tag k="name" v="Eko Petrol"/>
  </node>
  <node id="6830542292" lat="41.5159681" lon="20.9518182" version="1" timestamp="2019-09-27T11:49:42Z" changeset="75006252" uid="9047835" user="YunDi88">
    <tag k="amenity" v="fuel"/>
    <tag k="name" v="Power Patrol"/>
  </node>
  <node id="6830542295" lat="41.1254011" lon="20.8091370" version="1" timestamp="2019-09-27T11:49:45Z" changeset="75006252" uid="9047835" user="YunDi88">
    <tag k="amenity" v="fuel"/>
    <tag k="name" v="Zran Peka"/>
  </node>
  <node id="6837039503" lat="41.1033753" lon="20.0590621" version="1" timestamp="2019-09-30T09:37:41Z" changeset="75088957" uid="9047835" user="YunDi88">
    <tag k="amenity" v="fuel"/>
    <tag k="name" v="Krasniqi"/>
  </node>
  <node id="6837039587" lat="41.1239017" lon="20.1149005" version="2" timestamp="2020-10-03T10:26:21Z" changeset="91897276" uid="11006146" user="spongestone">
    <tag k="amenity" v="fuel"/>
    <tag k="name" v="Anoil"/>
  </node>
  <node id="6837039809" lat="41.1722189" lon="20.6513986" version="1" timestamp="2019-09-30T09:37:39Z" changeset="75088957" uid="9047835" user="YunDi88">
    <tag k="amenity" v="fuel"/>
    <tag k="name" v="Gulf"/>
  </node>
  <node id="6837039812" lat="41.1075330" lon="20.0680943" version="1" timestamp="2019-09-30T09:37:40Z" changeset="75088957" uid="9047835" user="YunDi88">
    <tag k="amenity" v="fuel"/>
    <tag k="name" v="Krasiqi"/>
  </node>
  <node id="6837039814" lat="41.0997160" lon="20.0462725" version="1" timestamp="2019-09-30T09:37:41Z" changeset="75088957" uid="9047835" user="YunDi88">
    <tag k="amenity" v="fuel"/>
    <tag k="name" v="Krasniqi"/>
  </node>
  <node id="6837039817" lat="41.1052036" lon="20.0253165" version="1" timestamp="2019-09-30T09:37:43Z" changeset="75088957" uid="9047835" user="YunDi88">
    <tag k="amenity" v="fuel"/>
    <tag k="name" v="Gega Oil"/>
  </node>
  <node id="6837039818" lat="41.2485738" lon="19.9034057" version="1" timestamp="2019-09-30T09:37:43Z" changeset="75088957" uid="9047835" user="YunDi88">
    <tag k="amenity" v="fuel"/>
    <tag k="name" v="Eida"/>
  </node>
  <node id="6844688680" lat="41.5148319" lon="19.7879427" version="2" timestamp="2019-10-02T15:08:35Z" changeset="75191891" uid="9047835" user="YunDi88">
    <tag k="amenity" v="fuel"/>
    <tag k="name" v="Kastrati"/>
  </node>
  <node id="6844882191" lat="41.4270858" lon="19.7375062" version="1" timestamp="2019-10-02T15:07:47Z" changeset="75191891" uid="9047835" user="YunDi88">
    <tag k="amenity" v="fuel"/>
    <tag k="name" v="Kastrati"/>
  </node>
  <node id="6844882192" lat="41.4435825" lon="19.7312734" version="1" timestamp="2019-10-02T15:07:50Z" changeset="75191891" uid="9047835" user="YunDi88">
    <tag k="amenity" v="fuel"/>
    <tag k="name" v="Eida"/>
  </node>
  <node id="6844882603" lat="41.4390195" lon="19.7333951" version="1" timestamp="2019-10-02T15:07:49Z" changeset="75191891" uid="9047835" user="YunDi88">
    <tag k="amenity" v="fuel"/>
    <tag k="name" v="Gulf"/>
  </node>
  <node id="6844882605" lat="41.4538638" lon="19.7267439" version="1" timestamp="2019-10-02T15:07:55Z" changeset="75191891" uid="9047835" user="YunDi88">
    <tag k="amenity" v="fuel"/>
    <tag k="name" v="Bujari"/>
  </node>
  <node id="6844882606" lat="41.4665484" lon="19.7223032" version="1" timestamp="2019-10-02T15:08:08Z" changeset="75191891" uid="9047835" user="YunDi88">
    <tag k="amenity" v="fuel"/>
    <tag k="name" v="Kastrati"/>
  </node>
  <node id="6844882687" lat="41.4224085" lon="19.7394112" version="1" timestamp="2019-10-02T15:07:45Z" changeset="75191891" uid="9047835" user="YunDi88">
    <tag k="amenity" v="fuel"/>
    <tag k="name" v="ASA"/>
  </node>
  <node id="6844882688" lat="41.4462625" lon="19.7293047" version="1" timestamp="2019-10-02T15:07:50Z" changeset="75191891" uid="9047835" user="YunDi88">
    <tag k="amenity" v="fuel"/>
    <tag k="name" v="Q8"/>
  </node>
  <node id="6844883785" lat="41.4778703" lon="19.7524633" version="1" timestamp="2019-10-02T15:08:31Z" changeset="75191891" uid="9047835" user="YunDi88">
    <tag k="amenity" v="fuel"/>
    <tag k="name" v="Kaloshi"/>
  </node>
  <node id="6851509988" lat="41.3385783" lon="19.7876072" version="4" timestamp="2019-10-16T16:49:30Z" changeset="75793724" uid="10304496" user="sarahdenise">
    <tag k="addr:street" v="Rruga Dritan Hoxha"/>
    <tag k="amenity" v="fuel"/>
    <tag k="brand" v="Eida"/>
    <tag k="name" v="Eida"/>
  </node>
  <node id="6862178180" lat="42.0756123" lon="20.4047657" version="1" timestamp="2019-10-09T05:27:04Z" changeset="75438266" uid="8689845" user="el sid">
    <tag k="amenity" v="fuel"/>
    <tag k="name" v="dp"/>
  </node>
  <node id="6862191061" lat="42.2356887" lon="20.3871876" version="1" timestamp="2019-10-09T05:27:29Z" changeset="75438271" uid="8689845" user="el sid">
    <tag k="amenity" v="fuel"/>
    <tag k="name" v="Halimi Petrol"/>
  </node>
  <node id="6862218597" lat="42.2356887" lon="20.3871876" version="1" timestamp="2019-10-09T05:27:32Z" changeset="75438274" uid="8689845" user="el sid">
    <tag k="amenity" v="fuel"/>
    <tag k="name" v="Halimi Petrol"/>
  </node>
  <node id="6874270885" lat="41.6460011" lon="19.7078083" version="1" timestamp="2019-10-12T21:12:56Z" changeset="75610018" uid="10235740" user="Kithoras Carzyl">
    <tag k="amenity" v="fuel"/>
    <tag k="name" v="Eradi Petrol"/>
  </node>
  <node id="6903580185" lat="41.3970739" lon="23.3548185" version="1" timestamp="2019-10-21T17:59:28Z" changeset="76012426" uid="9047835" user="YunDi88">
    <tag k="amenity" v="fuel"/>
    <tag k="name" v="OMV"/>
  </node>
  <node id="7040399675" lat="41.8143222" lon="19.6385001" version="2" timestamp="2019-12-08T13:28:09Z" changeset="78109261" uid="6529331" user="edc22">
    <tag k="amenity" v="fuel"/>
    <tag k="brand" v="Emanuel Gas Petrol"/>
  </node>
  <node id="7058905685" lat="41.9941052" lon="21.5432026" version="2" timestamp="2020-01-17T12:01:07Z" changeset="79695679" uid="131662" user="borces">
    <tag k="amenity" v="fuel"/>
    <tag k="name" v="Дени Интернационал"/>
    <tag k="name:en" v="Deni International"/>
  </node>
  <node id="7169867486" lat="41.6136222" lon="23.2024283" version="1" timestamp="2020-01-29T16:47:15Z" changeset="80269419" uid="5021180" user="Angelo's Mouratidis">
    <tag k="amenity" v="fuel"/>
    <tag k="name:en" v="cng"/>
  </node>
  <node id="7169882485" lat="41.8494315" lon="23.1408880" version="1" timestamp="2020-01-29T16:49:34Z" changeset="80269525" uid="5021180" user="Angelo's Mouratidis">
    <tag k="amenity" v="fuel"/>
    <tag k="name:en" v="cng"/>
  </node>
  <node id="7172113185" lat="41.4595501" lon="19.6891955" version="1" timestamp="2020-01-30T14:10:46Z" changeset="80320782" uid="7714280" user="Hacker Zone">
    <tag k="addr:housenumber" v="Vila25"/>
    <tag k="addr:street" v="Rruga Rinas - Ura e Gjolës"/>
    <tag k="amenity" v="fuel"/>
    <tag k="internet_access" v="wlan"/>
    <tag k="name" v="Bakalli"/>
    <tag k="opening_hours" v="24/7"/>
  </node>
  <node id="7172113285" lat="41.4589632" lon="19.6890816" version="1" timestamp="2020-01-30T14:10:46Z" changeset="80320782" uid="7714280" user="Hacker Zone">
    <tag k="addr:housenumber" v="Vila25"/>
    <tag k="addr:street" v="Rruga Rinas - Ura e Gjolës"/>
    <tag k="amenity" v="fuel"/>
    <tag k="internet_access" v="wlan"/>
    <tag k="name" v="Bakalli"/>
  </node>
  <node id="7203846662" lat="42.3196428" lon="20.8500406" version="1" timestamp="2020-02-11T15:57:51Z" changeset="80859530" uid="10768147" user="GGashi">
    <tag k="addr:city" v="Dubravë"/>
    <tag k="addr:housenumber" v="2"/>
    <tag k="addr:postcode" v="23000"/>
    <tag k="addr:street" v="Haxhi Gashi"/>
    <tag k="amenity" v="fuel"/>
    <tag k="brand" v="Dubrava-90"/>
    <tag k="fuel:diesel" v="yes"/>
    <tag k="fuel:gasoline" v="yes"/>
    <tag k="name" v="N.P.T Dubrava-90"/>
    <tag k="operator" v="Dubrava-90"/>
  </node>
  <node id="7221076835" lat="42.3377698" lon="20.7317268" version="1" timestamp="2020-02-17T19:57:47Z" changeset="81134541" uid="5682508" user="Erdinç Bitiçi">
    <tag k="addr:city" v="Mamuşa - Mamushë"/>
    <tag k="addr:postcode" v="20540"/>
    <tag k="addr:street" v="Kişla"/>
    <tag k="amenity" v="fuel"/>
    <tag k="fuel:benzin" v="yes"/>
    <tag k="fuel:diesel" v="yes"/>
    <tag k="name" v="Po Petrol"/>
  </node>
  <node id="7442537235" lat="41.9684968" lon="23.0960619" version="1" timestamp="2020-04-24T16:12:52Z" changeset="84070568" uid="150201" user="plamen">
    <tag k="amenity" v="fuel"/>
    <tag k="fuel:diesel" v="yes"/>
    <tag k="fuel:octane_95" v="yes"/>
    <tag k="fuel:octane_98" v="yes"/>
    <tag k="name" v="Газпром"/>
    <tag k="operator" v="Gazprom"/>
  </node>
  <node id="7454629792" lat="42.3276027" lon="21.3632399" version="1" timestamp="2020-04-27T18:22:52Z" changeset="84215044" uid="6891626" user="Ardit Sahiti">
    <tag k="amenity" v="fuel"/>
    <tag k="name" v="HIB"/>
  </node>
  <node id="7614359985" lat="42.2745785" lon="21.1917957" version="1" timestamp="2020-06-12T06:53:04Z" changeset="86548941" uid="11334187" user="demnikagim">
    <tag k="amenity" v="fuel"/>
    <tag k="name" v="UDA"/>
  </node>
  <node id="7747655285" lat="42.3259361" lon="21.3626719" version="1" timestamp="2020-07-25T22:15:37Z" changeset="88507560" uid="4877864" user="Din Ademi">
    <tag k="addr:street" v="Rexhep Bislimi"/>
    <tag k="amenity" v="fuel"/>
    <tag k="internet_access" v="wlan"/>
    <tag k="name" v="IP Petrol"/>
    <tag k="opening_hours" v="Mo-Su 07:00-23:00"/>
  </node>
  <node id="7747655385" lat="42.3276059" lon="21.3630298" version="1" timestamp="2020-07-25T22:15:37Z" changeset="88507560" uid="4877864" user="Din Ademi">
    <tag k="addr:street" v="Rexhep Bislimi"/>
    <tag k="amenity" v="fuel"/>
    <tag k="internet_access" v="wlan"/>
    <tag k="name" v="HIB Petrol"/>
    <tag k="opening_hours" v="24/7"/>
  </node>
  <node id="7857427743" lat="42.2458841" lon="20.6943820" version="6" timestamp="2020-09-01T16:26:18Z" changeset="90255746" uid="11729720" user="Theranda Hotel">
    <tag k="addr:city" v="Prizren"/>
    <tag k="addr:postcode" v="20000"/>
    <tag k="addr:street" v="Ismail Kryeziu"/>
    <tag k="amenity" v="fuel"/>
    <tag k="description" v="Cini Oil is gas station that provides fuel for all types of cars. By offering efficient, quality and very favorable services, we try to be close to you 24 hours a day to service your cars in the best possible way."/>
    <tag k="email" v="info@hoteltheranda.info;info@hoteltheranda.org"/>
    <tag k="fuel:diesel" v="yes"/>
    <tag k="fuel:gas" v="yes"/>
    <tag k="fuel:oil" v="yes"/>
    <tag k="fuel:petrol" v="yes"/>
    <tag k="name" v="Cini Oil"/>
    <tag k="phone" v="+38844744222;+38349765922;+38329242442"/>
    <tag k="website" v="www.hoteltheranda.info;info@hoteltheranda.org"/>
  </node>
  <node id="7949148407" lat="40.7113319" lon="22.9559955" version="1" timestamp="2020-09-27T23:41:20Z" changeset="91600147" uid="5703312" user="toygarlk">
    <tag k="amenity" v="fuel"/>
    <tag k="name" v="Kaoil"/>
  </node>
  <node id="7968328664" lat="42.0190263" lon="20.4146606" version="1" timestamp="2020-10-03T10:26:35Z" changeset="91897276" uid="11006146" user="spongestone">
    <tag k="amenity" v="fuel"/>
    <tag k="name" v="Kastari"/>
  </node>
  <node id="7968393758" lat="41.4754876" lon="19.7096968" version="1" timestamp="2020-10-03T10:26:18Z" changeset="91897276" uid="11006146" user="spongestone">
    <tag k="amenity" v="fuel"/>
    <tag k="name" v="Ervini oil"/>
  </node>
  <node id="7968397249" lat="42.0705637" lon="20.4269335" version="1" timestamp="2020-10-03T10:26:35Z" changeset="91897276" uid="11006146" user="spongestone">
    <tag k="amenity" v="fuel"/>
    <tag k="name" v="Kastrati"/>
  </node>
  <node id="7968419211" lat="41.1075688" lon="20.0689713" version="1" timestamp="2020-10-03T10:26:19Z" changeset="91897276" uid="11006146" user="spongestone">
    <tag k="amenity" v="fuel"/>
    <tag k="name" v="Die oil"/>
  </node>
  <node id="7968425340" lat="42.0579438" lon="20.0069567" version="1" timestamp="2020-10-03T10:26:43Z" changeset="91897276" uid="11006146" user="spongestone">
    <tag k="amenity" v="fuel"/>
    <tag k="name" v="Doda"/>
  </node>
  
</osm>